{"type": "Feature","id": "2967","bbox": [9.77695,26.21747,15.89405,29.56755],"geometry": {"type": "Polygon","coordinates": [[[14.41982,29.2091,447.4812],[14.4222,29.26436,441.5219],[14.37032,29.32188,440.2676],[14.28701,29.40061,440.7551],[14.1818,29.46657,465.5631],[14.05168,29.52213,467.9218],[13.99205,29.55246,489.8131],[13.9105,29.56755,529.1012],[13.82472,29.54587,527.2169],[13.7132,29.46487,524.6472],[13.65904,29.42195,568.2639],[13.59724,29.35681,579.9761],[13.51704,29.26674,592.2125],[13.47022,29.17995,594.6379],[13.42019,29.10771,593.0797],[13.35901,29.03513,594.3054],[13.30103,28.95529,607.8419],[13.20842,28.84263,621.5671],[13.10445,28.73931,600.2595],[12.99293,28.68701,579.3181],[12.90622,28.64029,588.5316],[12.84948,28.60916,591.515],[12.79047,28.56324,574.2809],[12.7576,28.49371,572.8804],[12.68846,28.43031,382.9217],[12.58903,28.42697,355.681],[12.50159,28.46555,369.6956],[12.4924,28.54345,426.2375],[12.431,28.55355,448.3292],[12.3506,28.55805,639.2365],[12.27825,28.56523,647.6407],[12.15691,28.60973,529.8381],[12.10958,28.61531,530.9344],[11.98328,28.64724,568.6896],[11.95186,28.59505,539.1727],[11.9501,28.59216,544.2401],[11.93181,28.56947,531.9515],[11.89791,28.52901,505.5693],[11.78877,28.55169,507.4861],[11.72479,28.6103,538.9059],[11.6233,28.59154,527.8931],[11.58733,28.59009,520.9023],[11.49235,28.60332,518.6564],[11.45463,28.58461,531.2632],[11.38755,28.54513,562.5676],[11.32389,28.5449,592.3599],[11.19098,28.59298,589.1542],[11.14488,28.62278,602.6166],[11.01631,28.64156,622.5098],[10.95378,28.71458,651.6195],[10.93828,28.78724,676.007],[10.90986,28.84465,667.6632],[10.8526,28.82739,667.2404],[10.78025,28.78494,635.5843],[10.76155,28.77184,636.8708],[10.70584,28.73013,631.0072],[10.61654,28.69417,632.9042],[10.52714,28.66055,625.0748],[10.44074,28.62458,639.0605],[10.3749,28.61404,662.9204],[10.23155,28.68525,651.6812],[10.13791,28.71727,687.9775],[10.09151,28.70512,694.1254],[10.00159,28.68094,698.5367],[9.92284,28.6573,698.3946],[9.87013,28.63298,707.4036],[9.82728,28.61865,703.2661],[9.77695,28.26758,614.0321],[9.78987,28.20944,577.4465],[9.93591,27.86672,527.3652],[9.93426,27.8274,474.6402],[9.93127,27.81864,472.4364],[9.93503,27.81717,469.1865],[10.07859,27.74347,527.3126],[10.27258,27.66705,485.136],[10.46523,27.61842,548.6298],[10.65757,27.56961,487.1097],[10.89177,27.5315,508.3736],[11.02024,27.48933,490.1046],[11.10685,27.43623,506.5227],[11.164,27.32588,556.5199],[11.19418,27.09277,566.6699],[11.22074,26.95314,564.3519],[11.26012,26.74826,554.3181],[11.32265,26.48782,625.7459],[11.35892,26.35767,575.3783],[11.37474,26.21747,587.1489],[11.50796,26.29705,566.7188],[11.74412,26.43616,531.8722],[12.01118,26.60401,561.0806],[12.30987,26.79105,544.4423],[12.57766,26.97667,545.2514],[12.77372,27.1131,466.4681],[13.01236,27.25035,437.4303],[13.19054,27.29218,406.7302],[13.3494,27.26784,394.9644],[13.62525,27.18981,404.2554],[13.98316,27.12891,430.9347],[14.31606,27.16147,421.49],[14.42117,27.17271,413.7276],[14.48359,27.22061,404.0399],[14.52483,27.27746,414.7294],[14.61878,27.33518,403.8081],[14.72337,27.39303,403.8837],[14.84905,27.46047,390.6741],[14.92129,27.5738,375.2079],[15.06847,27.63201,398.5494],[15.17399,27.64281,389.6974],[15.35351,27.66384,384.383],[15.41656,27.69268,453.7383],[15.56415,27.74115,465.5414],[15.79586,27.7212,530.5821],[15.79659,27.74335,527.8329],[15.831,27.81954,525.9985],[15.87069,27.91535,521.6288],[15.89405,27.99628,514.2925],[15.87886,28.07919,496.2922],[15.79214,28.15637,499.3907],[15.72011,28.17502,510.6767],[15.58967,28.21484,517.0678],[15.50689,28.21859,518.3919],[15.38028,28.20696,503.7387],[15.24933,28.14138,468.2553],[15.12273,28.12952,463.7811],[15.01762,28.14485,466.3933],[14.99384,28.21774,481.0532],[14.99188,28.2959,482.325],[14.9587,28.40772,497.5663],[14.83975,28.5204,515.4083],[14.65991,28.622,564.338],[14.58643,28.67427,590.1458],[14.527,28.71949,560.9774],[14.46923,28.79889,534.9691],[14.42251,28.8785,495.3215],[14.40814,28.9881,492.4915],[14.41559,29.11039,463.1507],[14.41982,29.2091,447.4812]]]}
,"properties": {"ISO3166-1-Alpha-3": "LBY","country": "Libya","fill": "#FF0","name": "Ash Shati'","area_km2": 96540.05,"hist_schema_id": "Elevation0-9000","hist_area_km2": {"275": 178.38,"300": 499.98,"325": 898.38,"350": 1504.07,"375": 2747.8,"400": 3405.69,"425": 3280.39,"450": 7509.23,"475": 9171.91,"500": 12410.28,"525": 14560.25,"550": 13162.94,"575": 10288.05,"600": 8364.6,"625": 4171.56,"650": 1960.19,"675": 730.7,"700": 575.59,"725": 388.24,"750": 201.76,"775": 148.51,"800": 119.92,"825": 88.93,"850": 54.84,"875": 40.47,"900": 28.14,"925": 18.0,"950": 13.39,"975": 8.35,"1000": 4.71,"1025": 2.41,"1050": 1.31,"1075": 0.8}}}