{"type":"Feature","properties":{"ISO3166-1-Alpha-3":"LBY","country":"Libya","fill":"#00F","id":"2970","name":"Misratah"},
"geometry":{"type": "Polygon","coordinates": [[[16.13738,31.26124,0.0],[16.04461,31.27554,0.0],[15.76149,31.38813,0.4367],[15.68751,31.43781,0.0],[15.62281,31.49726,0.0],[15.51441,31.62836,0.0],[15.49041,31.66486,0.6642],[15.37045,31.92939,0.0],[15.36109,31.96532,0.2679],[15.35524,32.03852,0.0],[15.35686,32.06167,0.0],[15.35963,32.10212,0.0],[15.36866,32.13801,0.0],[15.37045,32.15908,0.0],[15.36451,32.17471,0.0],[15.3226,32.22419,0.0],[15.30079,32.26081,0.0],[15.29217,32.28091,0.0],[15.28305,32.31729,0.0],[15.2697,32.32884,0.0],[15.23325,32.34711,0.0],[15.19597,32.3898,0.0],[15.18198,32.39549,0.0],[15.16,32.39867,0.0],[15.11476,32.41279,0.0],[14.91114,32.44392,0.0],[14.75583,32.44968,0.0],[14.75582,32.44962,0.0],[14.7552,32.43898,0.0],[14.74249,32.41559,27.7668],[14.72172,32.34511,80.7523],[14.73133,32.29353,103.4758],[14.75841,32.23852,100.1334],[14.755,32.17935,105.704],[14.71624,32.13809,95.4695],[14.68265,32.05623,106.4342],[14.66673,31.96776,72.0519],[14.60121,31.95882,82.1385],[14.47047,31.9456,118.4648],[14.36505,31.97714,137.6516],[14.28505,32.04605,180.8668],[14.12206,32.14256,173.0833],[14.06574,32.08647,236.9064],[13.99163,32.07401,296.0965],[13.96104,32.07711,309.3893],[13.89923,32.10181,278.0331],[13.83371,32.10055,347.9678],[13.77728,32.08094,376.7357],[13.67734,32.0567,399.5328],[13.61636,32.04807,435.8641],[13.45885,32.0521,592.3743],[13.39766,32.05078,743.9801],[13.45265,31.96092,679.1609],[13.48985,31.81356,572.4009],[13.55373,31.70577,476.9554],[13.59992,31.61453,395.6717],[13.63238,31.50828,328.3385],[13.68891,31.43917,267.6397],[13.79816,31.32264,209.9466],[13.86161,31.29013,200.5192],[13.9166,31.25982,222.153],[13.93417,31.24321,226.2387],[14.06594,31.03201,259.0468],[14.1572,30.83677,232.9114],[14.21167,30.72105,298.5111],[14.3576,30.65358,278.4246],[14.45166,30.61901,284.2778],[14.56069,30.55054,272.0034],[14.78176,30.49878,201.2386],[14.85866,30.46607,187.9136],[14.86455,30.46243,199.4851],[14.95013,30.4092,193.19],[14.9708,30.25841,241.8002],[14.98237,30.1318,261.7171],[14.97969,30.01711,358.5568],[14.93121,29.94065,385.1182],[14.86558,29.88092,404.3017],[14.85422,29.86195,354.9242],[14.8999,29.83921,419.8231],[14.97586,29.77526,428.1018],[15.05193,29.70196,405.4125],[15.20251,29.65747,328.2679],[15.29915,29.64013,394.5941],[15.38514,29.61328,351.2508],[15.50296,29.61468,356.7962],[15.56745,29.5875,272.5714],[15.59991,29.55995,251.4487],[15.66502,29.46763,331.4942],[15.74057,29.39399,289.816],[15.87968,29.37676,262.9662],[15.94355,29.42386,238.5044],[16.03947,29.47122,240.2903],[16.13558,29.49996,337.1224],[16.27501,29.46383,562.0767],[16.37133,29.4366,539.8931],[16.41856,29.4088,568.2057],[16.51013,29.53052,465.122],[16.53122,29.63295,423.7992],[16.49866,29.76289,355.8246],[16.4659,29.92065,272.736],[16.37919,30.12436,229.6368],[16.30302,30.30944,263.0525],[16.26984,30.4947,211.6211],[16.22571,30.68901,133.4289],[16.15977,30.90152,91.7694],[16.11564,31.04927,25.1387],[16.1146,31.21577,10.5625],[16.13207,31.25119,0.6381],[16.13734,31.26117,0.0],[16.13738,31.26124,0.0]]]}}