{"type":"Feature","properties":{"GID_1":"LBY.15_1","GID_0":"LBY","country":"Libya","province":"Misratah","VARNAME_1":"Misrata|Miṣrātah|Məṣrātah","NL_NAME_1":"مصراته","TYPE_1":"Shabiyah","ENGTYPE_1":"District","CC_1":"NA","HASC_1":"LY.MS","ISO_1":"LY-MI","name":"Misratah.province"},
"geometry":{"type": "MultiPolygon","coordinates": [[[[14.8293,30.3865,263.9479],[15.0006,30.7054,114.038],[15.0312,30.7662,144.2025],[15.0464,30.8028,166.7933],[15.0691,30.85,166.2968],[15.1418,30.9892,64.055],[15.2286,31.1423,88.7148],[15.2647,31.2005,90.5899],[15.2965,31.2476,75.4593],[15.321,31.2791,59.3609],[15.3428,31.3016,67.1062],[15.3809,31.335,47.4266],[15.4255,31.3694,28.7201],[15.4711,31.4009,17.4744],[15.5151,31.4282,6.0788],[15.6229,31.4855,0.9737],[15.6004,31.5129,0.1151],[15.5674,31.5646,0.0],[15.5374,31.5926,0.0],[15.5207,31.614,0.0],[15.5051,31.6446,0.0],[15.484,31.6765,0.4957],[15.4643,31.7257,0.0],[15.4426,31.771,0.0],[15.4015,31.846,0.0],[15.3921,31.8671,0.0],[15.3726,31.9229,0.0],[15.3646,31.9487,0.0],[15.3629,31.9601,0.0],[15.359,31.969,0.4597],[15.3529,31.9974,1.1116],[15.3504,31.9996,-0.1236],[15.3554,32.006,0.1723],[15.3568,32.0112,0.0],[15.3554,32.0337,0.4406],[15.351,32.0493,0.5943],[15.3482,32.0749,0.4727],[15.3485,32.0804,0.2553],[15.3518,32.0843,0.0],[15.3521,32.0885,0.0987],[15.356,32.0915,0.0],[15.3529,32.0993,0.0908],[15.3529,32.1037,0.2904],[15.3585,32.1179,0.0],[15.3579,32.1229,0.6081],[15.3612,32.1362,0.0],[15.3593,32.139,1.3772],[15.3596,32.1557,0.721],[15.3576,32.1665,0.0],[15.3499,32.1774,0.0],[15.3474,32.1785,1.3417],[15.3404,32.1876,0.0],[15.3276,32.2001,0.0591],[15.3157,32.2165,2.3109],[15.3107,32.2343,0.0],[15.2982,32.2618,10.0478],[15.2974,32.2707,0.3484],[15.2893,32.2868,2.523],[15.2796,32.3001,1.7238],[15.2768,32.3079,0.0],[15.2721,32.3126,0.9812],[15.2704,32.3165,4.0297],[15.2721,32.3187,0.0],[15.2604,32.3249,6.6842],[15.2512,32.3326,0.0],[15.2479,32.3324,2.1901],[15.2418,32.3368,2.7603],[15.2418,32.339,0.0],[15.2404,32.3393,1.4642],[15.2407,32.3449,0.0],[15.2393,32.3446,0.0],[15.2388,32.3413,1.4371],[15.2357,32.3429,2.642],[15.2418,32.3482,0.3521],[15.2518,32.3488,1.6614],[15.2554,32.3462,0.0],[15.2568,32.3476,0.0],[15.251,32.3501,1.6614],[15.2413,32.3499,2.257],[15.2332,32.3438,0.0],[15.2224,32.3554,0.0],[15.2254,32.359,1.0279],[15.2265,32.3707,0.0],[15.2246,32.3704,0.7758],[15.2246,32.3674,1.3074],[15.2229,32.3665,2.84],[15.2232,32.3624,2.987],[15.2212,32.3646,3.5185],[15.2215,32.3671,0.0],[15.2196,32.3671,0.0],[15.2182,32.361,1.9771],[15.2174,32.3646,0.7359],[15.216,32.3643,0.7359],[15.2151,32.3613,1.007],[15.2115,32.3671,4.7328],[15.2126,32.3696,2.0739],[15.2154,32.3693,0.7943],[15.2135,32.3715,2.9151],[15.2185,32.3713,0.0],[15.2204,32.3735,0.0],[15.2271,32.3724,0.0],[15.226,32.3746,0.0],[15.2143,32.3746,0.0],[15.184,32.3887,1.8598],[15.1768,32.3887,11.7816],[15.166,32.3915,1.3455],[15.1515,32.3974,0.0],[15.1468,32.3974,0.0],[15.1371,32.4015,0.0],[15.1285,32.4026,0.482],[15.1218,32.406,0.0],[15.1071,32.4071,0.0],[15.1057,32.4099,0.0],[15.1024,32.4096,0.9338],[15.0979,32.4118,6.473],[15.0782,32.411,0.0],[15.0643,32.4126,0.0],[15.051,32.4113,3.221],[15.0379,32.4129,0.0],[15.036,32.4113,3.563],[15.034,32.4129,0.0],[15.0243,32.4135,0.0],[15.0162,32.4162,0.0],[15.0079,32.4162,8.1617],[15.0063,32.4199,0.0],[15.004,32.4199,0.0],[15.0038,32.4176,0.0],[14.999,32.4157,1.4271],[14.9874,32.4162,11.0118],[14.986,32.4168,11.0118],[14.9871,32.4188,0.0],[14.984,32.4176,2.3133],[14.9674,32.4185,12.4997],[14.9596,32.421,0.979],[14.9601,32.4226,0.0],[14.9576,32.4243,1.725],[14.9582,32.4263,0.0],[14.9565,32.4257,1.855],[14.9532,32.4282,1.1531],[14.9349,32.4324,0.0],[14.9257,32.4329,1.2001],[14.9154,32.4354,15.3683],[14.9107,32.4382,1.148],[14.9029,32.4382,1.2718],[14.9021,32.4396,0.0],[14.8965,32.4404,1.8604],[14.8871,32.441,0.0],[14.8857,32.439,0.4122],[14.8829,32.439,2.1885],[14.8779,32.441,0.0],[14.8757,32.4393,5.2987],[14.8749,32.441,0.0],[14.8679,32.4424,0.0],[14.8568,32.4421,0.0],[14.8535,32.4399,7.3796],[14.8501,32.4407,0.0],[14.8476,32.4385,10.8583],[14.8418,32.4374,0.0],[14.8307,32.4388,0.0],[14.8179,32.4382,2.9345],[14.8149,32.4401,0.0],[14.8124,32.4379,2.6042],[14.7811,32.4376,0.0],[14.7783,32.4073,27.9632],[14.7704,32.3726,45.4809],[14.7583,32.3362,85.727],[14.739,32.2898,101.4924],[14.7197,32.25,116.1446],[14.6965,32.2076,115.2652],[14.6265,32.096,117.3473],[14.6186,32.08,115.9538],[14.598,32.0558,115.4568],[14.5668,32.029,113.3958],[14.5351,32.0101,99.4549],[14.5129,32.0026,115.5559],[14.4932,32.0017,120.1803],[14.47,32.0051,124.545],[14.4429,32.0122,129.9646],[14.388,32.0299,145.1173],[14.3397,32.0424,169.7398],[14.2677,32.0577,195.162],[14.186,32.0719,215.5324],[14.1105,32.0821,266.3151],[14.0354,32.0898,269.2453],[13.9598,32.0949,290.7441],[13.8934,32.0968,282.5811],[13.8387,32.0959,358.3288],[13.7852,32.0925,355.1525],[13.7256,32.0862,378.877],[13.6624,32.0774,402.7741],[13.4945,32.0464,571.5276],[13.3239,32.0079,835.6617],[13.3768,31.8475,670.1196],[13.6229,31.2626,239.7676],[13.6837,31.22,242.6835],[13.7291,31.1855,219.3518],[13.7821,31.1394,245.6464],[13.8019,31.1167,343.9499],[13.8111,31.0991,265.4261],[13.8222,31.0697,260.5752],[13.8719,30.9137,228.3028],[13.8818,30.8943,222.6867],[13.8958,30.8764,214.9935],[13.9169,30.8574,209.5352],[13.9431,30.8405,209.8037],[13.9745,30.8256,207.2094],[14.0067,30.8148,201.9418],[14.1405,30.7003,281.308],[14.2435,30.6151,287.8413],[14.3048,30.5677,310.4797],[14.3396,30.5466,343.1324],[14.3948,30.5202,288.2234],[14.4634,30.4911,309.6944],[14.5427,30.4607,320.2025],[14.6185,30.4345,238.6078],[14.6855,30.414,198.2415],[14.7431,30.3991,197.5977],[14.7917,30.3898,241.7726],[14.8293,30.3865,263.9479]]]]}}