{"type": "Feature","id": "2985","bbox": [16.1146,28.48462,18.79,31.26124],"geometry": {"type": "Polygon","coordinates": [[[18.79,30.37055,0.3271],[18.78053,30.37592,0.0104],[18.761,30.38422,0.8069],[18.71925,30.39151,-1.7826],[18.65317,30.42231,0.0],[18.6233,30.44575,0.2462],[18.56837,30.50007,1.6757],[18.32423,30.65689,2.191],[18.23569,30.74681,1.2999],[18.20834,30.76923,0.0],[18.1753,30.78608,3.5072],[18.01686,30.83788,0.0],[17.92677,30.85517,0.0],[17.90748,30.86351,0.0],[17.88917,30.87792,0.0],[17.86166,30.91364,-1.2045],[17.84864,30.92365,1.6506],[17.77605,30.93521,0.3917],[17.69174,30.95966,0.0],[17.61394,30.9925,0.0],[17.46681,31.02997,0.0],[17.45777,31.03335,0.0],[17.44728,31.03872,0.5558],[17.41863,31.06216,0.0],[17.38201,31.07876,0.0],[17.37501,31.08308,0.0],[17.3659,31.08662,0.0],[17.33058,31.08649,0.0],[17.16033,31.1188,2.4791],[16.94191,31.18329,0.0],[16.72804,31.22382,0.0],[16.35865,31.22712,0.0],[16.13738,31.26124,0.0],[16.13734,31.26117,0.0],[16.13207,31.25119,0.6381],[16.1146,31.21577,10.5625],[16.11564,31.04927,25.1387],[16.15977,30.90152,91.7694],[16.22571,30.68901,133.4289],[16.26984,30.4947,211.6211],[16.30302,30.30944,263.0525],[16.37919,30.12436,229.6368],[16.4659,29.92065,272.736],[16.49866,29.76289,355.8246],[16.53122,29.63295,423.7992],[16.51013,29.53052,465.122],[16.41856,29.4088,568.2057],[16.43562,29.41841,552.8174],[16.55334,29.39123,548.0996],[16.74588,29.40159,446.8865],[16.85285,29.43929,385.8253],[16.98122,29.4305,327.7779],[17.08808,29.34715,281.0261],[17.23774,29.3103,230.1767],[17.33386,29.28261,213.5541],[17.43029,29.35717,157.732],[17.50522,29.39449,113.1158],[17.58015,29.39456,160.0131],[17.66541,29.32942,170.8121],[17.68639,29.25498,172.4081],[17.72866,29.16189,215.4895],[17.81362,29.07802,241.9501],[17.89847,28.98479,302.053],[17.94033,28.87294,262.2241],[17.98209,28.73305,275.3215],[18.08782,28.63962,259.5345],[18.22548,28.55534,227.5619],[18.38465,28.51748,189.896],[18.49926,28.48462,182.6931],[18.49926,28.50208,179.5003],[18.49988,28.87599,239.8385],[18.51363,29.16471,247.9261],[18.57988,29.36916,170.4953],[18.69925,29.51742,217.8243],[18.73315,29.66602,169.6852],[18.71372,29.83342,125.9945],[18.72643,30.00057,102.2476],[18.76106,30.19534,25.2253],[18.79,30.37052,0.3271],[18.79,30.37055,0.3271]]]}
,"properties": {"ISO3166-1-Alpha-3": "LBY","country": "Libya","fill": "#F00","name": "Surt","area_km2": 46337.33,"hist_schema_id": "Elevation0-9000","hist_area_km2": {"0": 902.14,"25": 1266.84,"50": 2028.76,"75": 2448.7,"100": 3021.07,"125": 3101.42,"150": 3723.63,"175": 4352.47,"200": 4265.6,"225": 3867.15,"250": 3713.32,"275": 3721.55,"300": 3911.09,"325": 2704.89,"350": 1459.09,"375": 775.18,"400": 338.32,"425": 240.74,"450": 177.33,"475": 132.56,"500": 93.74,"525": 73.99,"550": 17.12,"575": 0.63}}}