{"type": "Feature","bbox": [14.7823,28.4512,18.9409,31.4855],"geometry": {"type": "MultiPolygon","coordinates": [[[[14.8081,29.3433,453.8429],[14.8432,29.2605,406.3026],[14.8479,29.253,413.9067],[14.8539,29.2479,410.7557],[14.8636,29.245,404.0353],[14.875,29.2469,399.8534],[14.8874,29.2536,411.9122],[14.9001,29.2652,430.4333],[14.9097,29.2675,430.9209],[14.933,29.2637,456.3049],[14.965,29.2513,448.4212],[15.0574,29.2965,434.0106],[15.0946,29.3173,438.4619],[15.123,29.3357,440.1809],[15.1351,29.3411,429.5745],[15.1563,29.3458,448.9382],[15.1822,29.3465,455.8024],[15.2107,29.3431,455.1464],[15.2402,29.3359,404.3893],[15.3272,29.3778,325.3672],[15.3872,29.4112,320.9938],[15.4109,29.4166,378.9357],[15.4425,29.4167,327.1687],[15.5375,29.4038,344.8693],[15.5744,29.3943,386.0856],[15.6007,29.3835,380.4496],[15.6295,29.3683,394.6975],[15.6626,29.3469,360.3644],[15.7119,29.311,365.5642],[15.7476,29.2923,314.7993],[15.7773,29.2818,296.9077],[15.8105,29.2737,277.2303],[15.844,29.2689,263.2603],[15.8775,29.2672,263.8717],[15.902,29.2739,252.6054],[15.9453,29.2934,236.7675],[16.1426,29.3972,351.6176],[16.2052,29.4284,449.2129],[16.2305,29.4374,549.0873],[16.2559,29.4435,571.0281],[16.2822,29.4469,556.62],[16.3085,29.4476,559.118],[16.3372,29.4457,601.5516],[16.3663,29.441,542.9528],[16.3957,29.4336,533.942],[16.4267,29.4232,554.0896],[16.4665,29.4061,537.4117],[16.5076,29.3842,532.4877],[16.5429,29.3619,510.4023],[16.5911,29.3262,498.1606],[16.6055,29.318,480.6368],[16.6219,29.3121,462.2246],[16.64,29.3084,444.4297],[16.6816,29.3069,485.1744],[16.715699999999998,29.3105,457.3293],[16.7494,29.3173,423.7065],[16.7851,29.3274,411.2642],[16.821,29.3403,434.1439],[16.8617,29.3585,385.086],[16.8988,29.3792,417.5672],[16.9268,29.399,343.8432],[16.9593,29.4278,340.3856],[16.9816,29.4414,324.9084],[16.9999,29.4489,337.797],[17.0184,29.4539,354.536],[17.0393,29.4571,372.3676],[17.06,29.4579,352.839],[17.0865,29.4561,330.9749],[17.1127,29.4514,330.0897],[17.1405,29.4435,298.545],[17.1692,29.4324,307.7182],[17.2,29.4172,288.816],[17.2306,29.3987,264.6258],[17.2598,29.3779,252.5494],[17.2975,29.3476,221.5165],[17.3198,29.3332,210.9008],[17.3352,29.3258,193.5833],[17.3496,29.321,198.8105],[17.3637,29.3184,189.7051],[17.3774,29.3182,188.4095],[17.4002,29.3232,196.5045],[17.4223,29.335,171.855],[17.4422,29.3513,149.3052],[17.4816,29.3906,161.2037],[17.4994,29.4026,114.2823],[17.5089,29.405,112.6826],[17.6007,29.4103,168.2472],[17.6376,29.5368,234.0136],[17.6772,29.5341,288.282],[17.7145,29.5277,370.4567],[17.7515,29.5161,383.9182],[17.7667,29.5087,377.1135],[17.7793,29.5004,374.9342],[17.7891,29.4917,371.2676],[17.8105,29.4678,360.2609],[17.8348,29.4358,342.8641],[17.8453,29.415,344.1026],[17.8503,29.3949,344.4922],[17.8507,29.3778,347.6139],[17.8459,29.3454,352.745],[17.8449,29.3259,351.8011],[17.847,29.3068,295.871],[17.8523,29.2896,316.6882],[17.8601,29.2744,350.292],[17.8711,29.2585,322.4091],[17.9143,29.2094,346.7594],[17.9348,29.1832,320.4525],[17.9485,29.1607,310.9966],[17.9568,29.1407,307.1982],[17.9601,29.1242,307.7467],[17.9597,29.1085,313.2664],[17.9399,29.0192,375.3586],[17.9296,28.9638,335.2135],[17.9226,28.9109,292.1302],[17.9196,28.8608,263.9171],[17.9211,28.8204,278.0502],[17.927,28.7853,269.8568],[17.9375,28.7566,277.4128],[17.9517,28.7358,279.8289],[18.0935,28.6192,259.7357],[18.1914,28.5438,209.0489],[18.2195,28.5243,192.0786],[18.242,28.511,185.35],[18.2719,28.4961,177.5643],[18.3032,28.4831,189.0516],[18.3698,28.4618,188.0212],[18.3997,28.4552,155.8909],[18.4237,28.4519,181.5583],[18.6954,28.4512,186.9608],[18.6975,28.602,220.9054],[18.7023,28.6814,213.9437],[18.746,28.868,110.8587],[18.7579,28.93,51.8845],[18.7671,28.9928,77.6627],[18.7763,29.0354,80.3363],[18.8016,29.1207,71.5079],[18.8336,29.2025,88.1561],[18.8646,29.2655,192.7144],[18.8823,29.2957,139.824],[18.9065,29.3325,182.1058],[18.9192,29.3583,160.1377],[18.9305,29.3935,140.0867],[18.9378,29.4335,169.4851],[18.9408,29.4711,167.4693],[18.9409,29.5097,154.4338],[18.9382,29.5515,132.2215],[18.9329,29.5934,140.1661],[18.9245,29.6381,125.9087],[18.9135,29.6817,144.8706],[18.9018,29.7177,124.8737],[18.8856,29.7579,116.6009],[18.8792,29.7803,122.2025],[18.8731,29.8172,113.3085],[18.8705,29.8613,120.6139],[18.8718,29.9145,105.0531],[18.8773,29.9732,80.9411],[18.8993,30.1063,17.7373],[18.924,30.2996,0.2972],[18.9174,30.3018,2.33],[18.9174,30.3037,0.3614],[18.9157,30.3024,0.5151],[18.9151,30.3051,0.3464],[18.9121,30.3057,0.5312],[18.9057,30.3115,0.0],[18.8982,30.3149,2.5128],[18.8985,30.3204,0.0],[18.8913,30.3249,0.0],[18.8865,30.3257,0.3385],[18.8815,30.3307,0.0],[18.8474,30.3379,1.9013],[18.8015,30.3582,0.0],[18.7976,30.361,0.0],[18.7976,30.3632,0.0],[18.7926,30.3687,0.0],[18.7926,30.381,0.0],[18.7949,30.3835,0.0],[18.7476,30.3871,0.0],[18.7435,30.3885,0.3553],[18.7426,30.3926,0.0],[18.741,30.3935,0.0],[18.7232,30.3951,0.4547],[18.7135,30.3999,0.0],[18.6865,30.4046,0.2797],[18.6779,30.4076,0.1768],[18.6563,30.4199,0.0851],[18.6482,30.4274,0.4905],[18.6476,30.4301,0.3766],[18.6513,30.4393,0.0],[18.6451,30.4415,0.6986],[18.6429,30.4451,0.0],[18.626,30.4513,0.5771],[18.6246,30.4571,0.0],[18.6093,30.4648,0.3619],[18.6068,30.4674,0.3625],[18.6079,30.471,0.0],[18.5993,30.4746,0.0],[18.5863,30.4851,0.2669],[18.5957,30.4946,0.5116],[18.5907,30.506,0.0],[18.5888,30.5051,0.0],[18.594,30.496,0.0],[18.5929,30.4954,0.0],[18.5879,30.4996,0.0],[18.5926,30.4946,0.0],[18.5912,30.4932,0.0],[18.5854,30.4974,0.0],[18.5896,30.4924,0.0],[18.5879,30.4912,0.0],[18.5835,30.4943,0.0],[18.5868,30.491,0.0],[18.5865,30.489,0.0],[18.584,30.4896,1.0895],[18.5815,30.4926,0.0],[18.5779,30.4926,1.7731],[18.5701,30.5015,0.7525],[18.569,30.5049,1.0721],[18.5696,30.5057,0.9684],[18.5735,30.5037,0.0],[18.5763,30.5046,0.0],[18.569,30.5082,0.1708],[18.5715,30.5104,0.3433],[18.5768,30.5093,0.0],[18.5763,30.5126,0.0],[18.5851,30.5112,0.0],[18.5943,30.5076,0.0],[18.5954,30.509,0.0],[18.584,30.5132,0.0],[18.5696,30.5138,0.0],[18.5318,30.5218,0.88],[18.5246,30.5279,0.0],[18.5182,30.5304,4.193],[18.5135,30.5351,0.6809],[18.5154,30.5371,0.0],[18.5143,30.5388,0.0],[18.5074,30.5399,0.948],[18.4926,30.5468,0.5648],[18.4904,30.5513,0.0],[18.4865,30.5518,1.2835],[18.4796,30.5568,0.0],[18.476,30.5574,0.0],[18.4737,30.5621,0.0],[18.4521,30.5699,1.0347],[18.4435,30.5751,0.5737],[18.4407,30.5782,0.0],[18.4404,30.581,1.0717],[18.431,30.5882,0.4509],[18.4099,30.5957,0.0],[18.4043,30.6012,1.4107],[18.4054,30.6035,1.2255],[18.3974,30.6057,0.0],[18.396,30.6087,0.2278],[18.391,30.6085,2.085],[18.3871,30.6126,0.0],[18.3879,30.6149,0.0],[18.3851,30.6185,0.4413],[18.3707,30.6257,0.0],[18.369,30.6279,0.6816],[18.3665,30.6332,0.0],[18.3685,30.6349,0.0],[18.3665,30.6362,0.0],[18.3701,30.636,0.551],[18.3696,30.6382,0.4699],[18.3621,30.639,0.8737],[18.3401,30.6476,0.0],[18.3307,30.6557,0.0],[18.3237,30.6588,0.0],[18.3182,30.664,0.0],[18.3174,30.6665,0.0],[18.311,30.6699,0.4114],[18.3013,30.6785,0.2344],[18.2904,30.6915,0.0],[18.2949,30.6974,0.0],[18.2868,30.7049,0.0],[18.2807,30.7071,0.8265],[18.2815,30.7112,0.0],[18.2729,30.715699999999998,0.0],[18.2712,30.7146,1.3125],[18.2718,30.716,0.0],[18.2693,30.7182,0.8633],[18.2532,30.7282,1.9297],[18.2504,30.7321,1.4605],[18.2521,30.7357,0.0],[18.2482,30.7393,0.0],[18.2251,30.7546,0.0],[18.2201,30.7601,0.4288],[18.2235,30.7654,0.0],[18.1971,30.7732,0.6],[18.1899,30.7776,0.0],[18.1893,30.7801,2.7868],[18.1921,30.7813,0.0],[18.1921,30.7826,0.0],[18.1785,30.786,0.0],[18.1754,30.7896,0.0],[18.1385,30.7946,1.8833],[18.1271,30.7982,0.0],[18.1176,30.7982,1.1758],[18.1138,30.8001,0.334],[18.1104,30.7996,0.7598],[18.0971,30.8026,0.0],[18.0896,30.806,0.0],[18.0737,30.809,0.0],[18.0724,30.8118,0.0],[18.0696,30.8129,0.0],[18.0526,30.8165,2.384],[18.0401,30.8207,0.0],[18.0382,30.8229,0.0],[17.9715,30.8384,3.1891],[17.9629,30.8421,0.0],[17.9557,30.8426,1.3177],[17.9407,30.8482,0.0],[17.9296,30.8499,2.1616],[17.9122,30.8554,4.3351],[17.9024,30.8599,1.7745],[17.9007,30.8626,0.0],[17.8868,30.8715,0.5074],[17.886,30.8732,0.6405],[17.8876,30.8749,0.0],[17.886,30.8801,0.462],[17.884,30.8804,1.2395],[17.8849,30.884,0.0],[17.884,30.8857,0.0],[17.8818,30.8857,0.0858],[17.8826,30.8874,0.0],[17.8801,30.8896,0.0],[17.8829,30.8915,0.0],[17.8818,30.8968,0.0],[17.8718,30.9004,0.4941],[17.866,30.906,0.0556],[17.8646,30.9101,0.1757],[17.8685,30.9124,0.0],[17.8687,30.9143,0.0],[17.8568,30.9212,0.0],[17.8568,30.9193,1.7502],[17.8557,30.9196,3.6983],[17.8524,30.9232,0.9287],[17.8524,30.9251,0.0],[17.8326,30.9254,0.9486],[17.7968,30.9326,0.0],[17.7696,30.9365,0.0],[17.7679,30.9354,2.6944],[17.7635,30.9374,0.0],[17.7526,30.9371,0.0],[17.749,30.9393,0.0],[17.7454,30.9382,1.0678],[17.7435,30.9404,0.5882],[17.7393,30.9396,1.2778],[17.7379,30.941,0.2599],[17.7204,30.9438,0.0],[17.7151,30.9474,0.0],[17.7104,30.9466,1.614],[17.6949,30.951,0.0],[17.6874,30.9515,0.8617],[17.6835,30.9546,0.0],[17.6718,30.9571,0.0],[17.6646,30.9618,0.8628],[17.6576,30.9626,1.4848],[17.646,30.9685,0.4079],[17.6382,30.9701,0.7849],[17.6182,30.9807,0.0],[17.6113,30.9813,0.4029],[17.6104,30.984,0.0],[17.6035,30.9857,0.0],[17.6032,30.9874,0.0],[17.5963,30.9885,1.0524],[17.5926,30.9865,4.8715],[17.5899,30.989,0.0],[17.5818,30.9899,1.9703],[17.5788,30.9924,0.0],[17.566,30.996,0.0],[17.5493,30.9988,0.9465],[17.5432,31.0024,0.0],[17.5115,31.0093,0.0],[17.4921,31.019,0.0],[17.4888,31.019,0.0],[17.4774,31.0238,0.0],[17.4757,31.0235,0.6162],[17.476,31.0218,3.2264],[17.4693,31.0235,4.6079],[17.4662,31.0254,3.973],[17.465699999999998,31.0276,0.0],[17.4554,31.0312,0.648],[17.4521,31.0346,0.0],[17.4507,31.034,0.0],[17.4476,31.0399,0.0],[17.4401,31.0429,0.57],[17.439,31.0479,0.0],[17.4287,31.0488,1.5714],[17.4249,31.0535,0.0],[17.407,31.0615,0.0],[17.4054,31.0607,0.6424],[17.3974,31.066,0.0],[17.3915,31.0713,0.0],[17.3918,31.0726,2.4402],[17.3951,31.0732,0.5837],[17.3932,31.0768,0.0],[17.3865,31.076,0.0],[17.3835,31.0776,0.0],[17.3568,31.0801,0.2212],[17.3288,31.0799,0.7487],[17.3251,31.0815,0.0],[17.3051,31.0832,0.7041],[17.3015,31.0854,0.0804],[17.2996,31.0846,1.473],[17.2987,31.0871,0.0],[17.2965,31.0857,0.0],[17.2962,31.0879,0.0],[17.2932,31.0896,0.0],[17.294,31.0926,0.0],[17.2918,31.094,0.0],[17.2893,31.0932,0.5094],[17.271,31.0974,0.0],[17.2646,31.0968,0.2004],[17.2596,31.1004,0.2277],[17.2507,31.1021,0.0],[17.2449,31.1051,0.2987],[17.2426,31.104,0.6326],[17.2379,31.1065,0.3268],[17.2232,31.1068,0.4824],[17.2001,31.1107,0.0],[17.1804,31.1157,0.0],[17.1701,31.1207,0.0],[17.1568,31.1218,0.7561],[17.1554,31.1207,1.2115],[17.1551,31.1232,0.1843],[17.1513,31.1224,0.6531],[17.1443,31.1243,0.0],[17.1393,31.1229,2.6303],[17.1388,31.1246,0.0],[17.1349,31.1251,1.2046],[17.1324,31.1279,1.8864],[17.1349,31.1296,0.0],[17.1165,31.1357,0.0],[17.1079,31.1379,0.0],[17.1065,31.1379,0.0],[17.1076,31.1365,1.0759],[17.1054,31.1365,1.19],[17.1049,31.1382,0.5602],[17.0976,31.1385,5.1364],[17.0957,31.1404,2.0961],[17.0912,31.1393,4.7526],[17.0846,31.1426,0.0],[17.0774,31.1421,6.6635],[17.0715,31.1451,6.4729],[17.0649,31.1462,4.68],[17.061,31.1493,0.0],[17.0582,31.1488,0.0],[17.0565,31.151,0.0],[17.0518,31.1521,0.0],[17.0493,31.151,3.8353],[17.049,31.153199999999998,0.0],[17.0424,31.1526,3.5132],[17.039,31.1549,0.0],[17.0343,31.1529,1.7511],[17.0338,31.1546,0.0],[17.0301,31.154,1.6417],[17.0246,31.1579,0.0],[17.0154,31.1582,10.715],[17.0157,31.1596,0.0],[17.0132,31.1607,0.0],[17.0099,31.1596,18.2259],[17.0096,31.1621,0.0],[17.0063,31.1635,0.0],[16.9793,31.1662,6.1674],[16.9596,31.1699,4.0823],[16.9576,31.1718,1.4151],[16.9496,31.1712,3.2135],[16.9137,31.1782,0.6144],[16.8871,31.1801,10.0825],[16.8749,31.1829,5.7107],[16.8718,31.1851,1.8773],[16.8487,31.1882,4.768],[16.8454,31.191,0.0],[16.8424,31.191,0.0],[16.8432,31.1899,6.9794],[16.8421,31.1893,6.9794],[16.8343,31.1901,10.2212],[16.8035,31.1985,6.0627],[16.7962,31.2021,0.0],[16.7757,31.206,2.5317],[16.7738,31.209,0.0],[16.764,31.2121,0.0],[16.7162,31.215699999999998,0.0],[16.7129,31.214,0.0],[16.7057,31.215699999999998,0.0],[16.6993,31.2193,0.0],[16.6938,31.2171,0.7832],[16.6843,31.2176,0.0],[16.6735,31.2154,3.6789],[16.636,31.2132,2.199],[16.6346,31.2149,0.0],[16.6343,31.2132,2.643],[16.6304,31.2126,0.0],[16.6285,31.2126,1.0294],[16.6287,31.215699999999998,0.0],[16.6274,31.216,0.0],[16.6276,31.2124,1.0294],[16.6138,31.2121,0.0],[16.6124,31.2132,0.0],[16.6029,31.2107,1.8941],[16.5926,31.2124,0.0],[16.5871,31.2113,2.805],[16.5849,31.2138,0.0],[16.5504,31.214,0.0],[16.5468,31.2126,0.0],[16.5357,31.2126,0.0],[16.5313,31.214,0.0],[16.5129,31.2124,0.0],[16.4504,31.2154,0.9405],[16.4482,31.2168,1.5301],[16.4449,31.215699999999998,0.1874],[16.4174,31.2162,1.3906],[16.3793,31.2185,1.2127],[16.2926,31.229,0.0],[16.2232,31.2343,0.996],[16.2024,31.2376,0.9656],[16.1799,31.2446,0.0],[16.1243,31.2518,1.1088],[16.1104,31.2571,0.0],[16.1054,31.2607,0.0],[16.0763,31.2646,0.7805],[16.0721,31.2665,0.5456],[16.0296,31.2743,0.0],[15.9749,31.2926,1.2256],[15.8993,31.3262,0.0],[15.8863,31.3337,0.4307],[15.8068,31.3629,0.5441],[15.7699,31.3846,0.0],[15.7332,31.4021,0.0],[15.719,31.414,0.0],[15.709,31.4188,0.0],[15.6613,31.4485,0.2622],[15.6507,31.4579,0.2068],[15.6365,31.474,0.0],[15.6265,31.4807,1.0433],[15.6229,31.4855,0.9737],[15.5151,31.4282,6.0788],[15.4711,31.4009,17.4744],[15.4255,31.3694,28.7201],[15.3809,31.335,47.4266],[15.3428,31.3016,67.1062],[15.321,31.2791,59.3609],[15.2965,31.2476,75.4593],[15.2647,31.2005,90.5899],[15.2286,31.1423,88.7148],[15.1418,30.9892,64.055],[15.0691,30.85,166.2968],[15.0464,30.8028,166.7933],[15.0312,30.7662,144.2025],[15.0006,30.7054,114.038],[14.8293,30.3865,263.9479],[14.9677,29.9267,392.2605],[14.9318,29.8681,395.9969],[14.8985,29.821,396.9615],[14.8733,29.7924,403.8064],[14.8474,29.7729,415.7309],[14.8357,29.7571,426.8188],[14.8264,29.7386,418.3433],[14.8175,29.715,446.0386],[14.7933,29.6308,407.7578],[14.7872,29.5875,390.0926],[14.7823,29.5083,394.0336],[14.8081,29.3433,453.8429]]]]}
,"properties": {"GID_1": "LBY.19_1","GID_0": "LBY","country": "Libya","province": "Surt","VARNAME_1": "Sirte|Sirt","NL_NAME_1": "سرت","TYPE_1": "Shabiyah","ENGTYPE_1": "District","CC_1": "NA","HASC_1": "LY.ST","ISO_1": "LY-SR","name": "Surt.province","area_km2": 78743.16,"hist_schema_id": "Elevation0-9000","hist_area_km2": {"0": 1763.63,"25": 2302.32,"50": 2998.11,"75": 4296.2,"100": 5201.39,"125": 6165.7,"150": 6876.82,"175": 7302.72,"200": 6774.62,"225": 6012.31,"250": 5640.6,"275": 5228.24,"300": 5034.93,"325": 3829.5,"350": 2217.17,"375": 1678.6,"400": 1521.3,"425": 1460.45,"450": 1070.58,"475": 575.25,"500": 358.56,"525": 287.28,"550": 132.88,"575": 12.33,"600": 1.68}}}