{"type": "Feature","id": "5488","bbox": [11.30367,25.54779,14.14625,27.29218],"geometry": {"type": "Polygon","coordinates": [[[13.98316,27.12891,430.9347],[13.62525,27.18981,404.2554],[13.3494,27.26784,394.9644],[13.19054,27.29218,406.7302],[13.01236,27.25035,437.4303],[12.77372,27.1131,466.4681],[12.57766,26.97667,545.2514],[12.30987,26.79105,544.4423],[12.01118,26.60401,561.0806],[11.74412,26.43616,531.8722],[11.50796,26.29705,566.7188],[11.37474,26.21747,587.1489],[11.35323,26.08996,617.1359],[11.31606,25.94127,663.2158],[11.30367,25.74922,682.2659],[11.33464,25.6377,702.21],[11.39954,25.55144,1116.7793],[11.59405,25.65197,940.3005],[11.7742,25.57327,879.452],[11.85843,25.54779,847.9429],[12.0456,25.56304,768.1951],[12.15991,25.57591,731.0668],[12.26171,25.65412,712.238],[12.36362,25.73225,680.5364],[12.50004,25.70797,676.0045],[12.62489,25.72086,674.0787],[12.70675,25.77943,731.1255],[12.79987,25.8101,607.5927],[12.96554,25.86139,563.9454],[13.20543,25.87677,517.1324],[13.30826,25.94498,499.8028],[13.41007,26.06001,473.1168],[13.4819,26.11799,475.8684],[13.66927,26.1597,464.619],[13.93437,26.24687,451.6725],[13.93231,26.34816,468.067],[13.972,26.46151,490.6235],[14.08548,26.55753,470.2389],[14.14625,26.67119,492.4517],[14.13467,26.72721,496.6927],[14.08114,26.7824,494.0157],[14.03762,26.8565,468.3889],[14.04548,26.98781,452.4489],[14.02243,27.09039,427.0569],[13.98316,27.12891,430.9347]]]}
,"properties": {"ISO3166-1-Alpha-3": "LBY","country": "Libya","fill": "#F0F","name": "Wadi al Hayaa","area_km2": 32436.63,"hist_schema_id": "Elevation0-9000","hist_area_km2": {"400": 301.02,"425": 1171.13,"450": 2167.74,"475": 4939.41,"500": 5339.58,"525": 3518.04,"550": 1935.59,"575": 1284.69,"600": 1167.66,"625": 1110.42,"650": 1035.16,"675": 1080.82,"700": 1044.05,"725": 864.6,"750": 765.97,"775": 649.98,"800": 658.15,"825": 568.98,"850": 533.21,"875": 500.84,"900": 482.29,"925": 453.06,"950": 358.95,"975": 202.84,"1000": 101.38,"1025": 57.03,"1050": 45.43,"1075": 39.73,"1100": 33.63,"1125": 22.83,"1150": 2.42}}}