{"type":"Feature","properties":{"GID_1":"LBY.21_1","GID_0":"LBY","country":"Libya","province":"WadialHayat","VARNAME_1":"WadiAlHayaa|WādīalḤayāh","NL_NAME_1":"واديالحياة‎","TYPE_1":"Shabiyah","ENGTYPE_1":"District","CC_1":"NA","HASC_1":"LY.WH","ISO_1":"NA","name":"Wadial_Hayat.province"},
"geometry":{"type": "MultiPolygon","coordinates": [[[[11.3925,25.4966,1129.7002],[11.4602,25.5351,1075.684],[11.544,25.5753,1000.283],[11.616,25.6043,963.9115],[11.6396,25.6115,947.9265],[11.6577,25.6141,937.5575],[11.6877,25.6152,923.0347],[11.7251,25.6142,899.7385],[11.8188,25.607,856.0403],[11.8924,25.5982,830.5195],[11.9698,25.5863,790.0003],[12.0239,25.576,779.6063],[12.0908,25.5606,749.974],[12.1204,25.5592,737.2261],[12.1509,25.5628,742.8464],[12.1934,25.5747,736.5618],[12.2378,25.5946,726.5162],[12.2683,25.612,712.7446],[12.2983,25.6321,710.7535],[12.3291,25.6556,701.8468],[12.3614,25.6832,694.6019],[12.374,25.6917,694.6803],[12.4088,25.7079,678.4812],[12.4568,25.7234,677.7021],[12.5401,25.7421,669.3653],[12.6401,25.7572,640.1904],[12.7252,25.7659,610.2116],[12.8584,25.7734,560.6191],[12.9128,25.7793,599.2386],[12.9747,25.7907,559.2378],[13.0368,25.8069,559.8769],[13.0908,25.8249,572.7083],[13.1435,25.8461,603.9399],[13.1937,25.8699,539.1425],[13.2371,25.8944,505.4171],[13.2917,25.9309,497.8092],[13.3862,26.0086,489.2719],[13.4355,26.0468,473.774],[13.4722,26.0722,467.9088],[13.5041,26.090699999999998,465.7059],[13.9237,26.2531,456.8197],[14.1114,26.6136,473.4768],[14.1443,26.6397,476.5703],[14.1746,26.6812,507.9888],[14.1819,26.697,504.3706],[14.1786,26.7076,495.0359],[14.1668,26.72,489.0482],[14.1376,26.7614,468.1909],[14.1025,26.7941,479.2305],[14.07,26.8276,470.1583],[14.0552,26.8538,469.2987],[14.0469,26.8993,445.2692],[14.0448,26.932,462.0701],[14.0495,27.0334,440.7469],[14.0462,27.0744,421.4715],[14.0294,27.1151,424.0699],[14.0102,27.1423,415.6682],[13.9924,27.1801,402.9975],[13.8188,27.1912,396.6318],[13.6002,27.2201,396.9368],[13.5212,27.2481,392.1313],[13.3599,27.2919,388.0937],[13.2491,27.3176,388.8557],[13.2124,27.3246,390.5009],[13.1836,27.3249,394.3961],[13.1527,27.3225,395.0373],[13.1219,27.3173,410.6664],[13.0918,27.3095,406.5109],[13.0616,27.2987,407.7749],[13.0197,27.2688,414.2651],[12.9444,27.2195,481.3738],[12.5617,26.9604,551.5024],[11.7369,26.4501,536.0807],[11.6924,26.4263,538.0269],[11.4759,26.2897,568.6449],[11.4403,26.1753,607.804],[11.3949,26.0371,646.6979],[11.3474,25.9026,682.8253],[11.3123,25.8168,680.8147],[11.3053,25.785,678.0815],[11.3044,25.7583,682.0786],[11.3071,25.7276,688.9951],[11.3131,25.6951,692.4033],[11.3227,25.6591,698.2023],[11.3356,25.6208,701.6878],[11.3516,25.5807,717.9719],[11.3717,25.5368,1139.7202],[11.3925,25.4966,1129.7002]]]]}}