{"type":"Feature","properties":{"GID_1":"LBY.22_1","GID_0":"LBY","country":"Libya","province":"WadiashShati'","VARNAME_1":"WadiAlShatii|Shati|Wadiash-Sh","NL_NAME_1":"واديالشاطئ‎","TYPE_1":"Shabiyah","ENGTYPE_1":"District","CC_1":"NA","HASC_1":"LY.WS","ISO_1":"LY-WS","name":"Wadiash_Shati'.province"},
"geometry":{"type": "MultiPolygon","coordinates": [[[[11.4719,26.2751,575.4558],[11.476,26.2882,569.6603],[11.4763,26.2893,568.6449],[11.4715,26.2739,575.4558],[11.4719,26.2751,575.4558]]],
[[[9.9506,27.8554,540.2894],[9.9521,27.852,539.0095],[10.0582,27.7749,519.733],[10.0771,27.7635,512.489],[10.1041,27.7518,467.0544],[10.4421,27.6434,446.2458],[10.5978,27.6076,535.9159],[10.7796,27.5715,483.2728],[10.9575,27.5246,479.5357],[11.0115,27.5125,487.1042],[11.0679,27.4928,516.3574],[11.0989,27.4753,483.1694],[11.1149,27.4623,495.5371],[11.131,27.4257,547.1815],[11.1496,27.3031,524.505],[11.2529,26.8913,539.2166],[11.2972,26.6633,600.053],[11.3556,26.4453,612.4896],[11.3954,26.2389,585.2018],[11.6924,26.4263,538.0269],[11.7369,26.4501,536.0807],[12.5617,26.9604,551.5024],[12.9444,27.2195,481.3738],[13.0197,27.2688,414.2651],[13.0616,27.2987,407.7749],[13.0918,27.3095,406.5109],[13.1219,27.3173,410.6664],[13.1527,27.3225,395.0373],[13.1836,27.3249,394.3961],[13.2124,27.3246,390.5009],[13.2491,27.3176,388.8557],[13.3599,27.2919,388.0937],[13.5212,27.2481,392.1313],[13.6002,27.2201,396.9368],[13.8188,27.1912,396.6318],[13.9924,27.1801,402.9975],[14.2674,27.1987,409.9354],[14.3048,27.1931,405.9431],[14.3299,27.1853,414.3691],[14.371,27.1781,412.8776],[14.3976,27.1881,409.6871],[14.4343,27.1983,417.736],[14.4746,27.2246,406.047],[14.6472,27.3672,398.1646],[14.6771,27.3882,398.321],[14.7103,27.409,398.019],[14.863,27.4722,384.0759],[15.0815,27.6088,375.7865],[15.1028,27.6166,381.9347],[15.3225,27.6407,442.3419],[15.376,27.6556,410.135],[15.4033,27.672,451.3018],[15.4887,27.7427,438.1404],[15.5112,27.7544,425.6902],[15.5598,27.763,465.0548],[15.7154,27.7562,510.2977],[15.9025,27.7263,543.7433],[15.966,27.8262,533.8904],[16.0421,27.9376,540.2872],[16.0518,27.9487,540.7669],[16.0567,27.9592,537.6996],[16.0582,27.9697,537.1237],[16.0561,27.9808,533.25],[16.0503,27.9918,530.721],[16.0181,28.0271,525.3184],[15.9502,28.0879,508.1967],[15.9172,28.1144,496.5866],[15.8915,28.1326,495.3407],[15.8589,28.1486,503.5862],[15.8127,28.1649,495.2732],[15.76,28.1791,503.9194],[15.7095,28.1889,516.2007],[15.6654,28.1939,515.1006],[15.6102,28.1974,514.836],[15.4663,28.1994,527.1803],[15.4468,28.1949,503.2739],[15.4197,28.1833,499.1173],[15.3097,28.1223,474.94],[15.0556,28.1223,464.3306],[14.9871,28.3738,501.7973],[14.8859,28.4526,506.8167],[14.7237,28.5584,585.6127],[14.6957,28.5781,574.7932],[14.6728,28.597,573.0396],[14.6226,28.6452,559.2548],[14.5745,28.6985,602.394],[14.5346,28.75,559.5377],[14.5028,28.7999,516.5494],[14.49,28.8258,505.9135],[14.4803,28.856,513.5646],[14.4727,28.8932,486.6592],[14.4672,28.9385,487.4137],[14.4642,28.9894,472.6067],[14.4635,29.0465,467.4156],[14.4654,29.112,462.5407],[14.4696,29.1742,445.9461],[14.2776,29.375,438.7927],[13.9273,29.5235,481.9717],[13.9126,29.5196,485.6329],[13.8751,29.529,497.6673],[13.8501,29.5229,511.2208],[13.8231,29.5206,534.1219],[13.7763,29.5103,520.5062],[13.7464,29.4986,535.0688],[13.7161,29.484,537.8788],[13.6925,29.469,531.6969],[13.6823,29.4485,552.0928],[13.6544,29.4208,572.3464],[13.6111,29.3666,578.6223],[13.5415,29.262,591.3939],[13.4779,29.1759,594.8486],[13.4258,29.0481,595.8014],[13.3818,28.9731,601.7236],[13.3568,28.9484,611.5245],[13.3027,28.9048,609.0657],[13.1488,28.7441,604.0464],[13.0955,28.6948,587.6595],[13.0366,28.6688,573.5608],[12.9892,28.6454,578.1308],[12.97,28.6342,573.1044],[12.9138,28.5969,581.5848],[12.8932,28.5809,576.059],[12.8781,28.5662,568.7819],[12.8394,28.5165,555.5786],[12.7808,28.4478,508.8363],[12.7435,28.4305,411.9947],[12.7097,28.4195,390.7083],[12.6843,28.417,382.6835],[12.5605,28.4325,356.5122],[12.5519,28.5206,389.135],[12.5604,28.4324,356.5122],[12.5384,28.5228,390.7801],[12.2426,28.5703,657.3795],[11.9864,28.6344,559.0625],[11.9715,28.5587,487.1152],[11.9335,28.5126,468.7238],[11.7513,28.5778,514.7229],[11.637,28.5509,494.0077],[11.5057,28.5662,515.6663],[11.3577,28.4972,572.4016],[11.0018,28.6123,596.3701],[10.9251,28.8078,683.4579],[10.654,28.6562,630.494],[10.571,28.613,637.7733],[10.5353,28.5971,645.2841],[10.4935,28.5819,641.7712],[10.4501,28.5692,646.824],[10.4123,28.5611,654.2707],[10.3916,28.5588,651.808],[10.3774,28.5598,647.3461],[10.3572,28.5653,651.5876],[10.3336,28.5748,664.541],[10.3051,28.5892,675.2805],[10.2762,28.6062,684.2772],[10.2086,28.6531,689.763],[10.1815,28.6656,695.0773],[10.1602,28.6711,690.9744],[10.1373,28.6738,698.3516],[10.1135,28.6734,708.4407],[10.0917,28.6701,706.2283],[9.8619,28.431,615.7995],[9.862,28.4322,612.8044],[9.8524,28.4234,612.8395],[9.8335,28.2853,611.3823],[9.9622,27.8866,565.2012],[9.9629,27.875,559.4105],[9.9616,27.8646,552.3838],[9.9506,27.8554,540.2894]]]]}}