{"type": "Feature","id": "2986","bbox": [21.91776,30.79156,23.25134,32.94794],"geometry": {"type": "Polygon","coordinates": [[[23.25134,32.21673,0.0],[23.2435,32.22061,0.0],[23.2308,32.25064,0.0],[23.21453,32.27241,-0.0275],[23.19508,32.29165,0.0],[23.17897,32.29995,0.0],[23.1565,32.30353,0.3288],[23.09555,32.32355,0.0155],[23.08058,32.33405,1.1493],[23.07911,32.35444,-0.4586],[23.09441,32.43647,3.7412],[23.10336,32.42817,0.0],[23.10987,32.42031,0.0],[23.11215,32.41193,0.0],[23.10865,32.40233,0.0],[23.12843,32.39549,2.7591],[23.14096,32.45856,16.9288],[23.14894,32.47809,0.0],[23.12867,32.48847,0.4579],[23.11329,32.5008,2.2158],[23.10385,32.51634,0.1126],[23.09441,32.57738,4.9955],[23.09791,32.58666,9.811],[23.11524,32.60493,6.417],[23.12094,32.61522,-0.5],[23.11866,32.62934,0.0],[23.10613,32.63984,0.0],[23.08644,32.64647,0.0],[23.04135,32.65253,0.0],[22.99969,32.67056,0.0],[22.9769,32.6767,0.0],[22.94264,32.67503,0.0],[22.92921,32.6767,0.0],[22.89584,32.68818,0.0],[22.88453,32.68976,0.0],[22.86671,32.69416,0.0],[22.81251,32.72451,0.0],[22.57887,32.78461,19.9406],[22.53224,32.78754,128.4274],[22.51385,32.79096,135.7502],[22.49676,32.79731,72.6051],[22.47731,32.80707,77.803],[22.37916,32.87035,5.6356],[22.33961,32.88215,0.0],[22.24733,32.88085,0.0],[22.2068,32.88813,0.0],[22.17506,32.91625,25.9652],[22.17107,32.92626,7.5238],[22.17107,32.93293,0.0],[22.16944,32.93822,0.0],[22.16139,32.94416,0.0],[22.14959,32.94794,0.0],[22.13885,32.94758,0.0],[22.11671,32.94416,0.0],[22.11183,32.9409,0.0],[22.10133,32.92642,0.4756],[22.0962,32.92308,5.052],[21.9862,32.9131,0.0],[21.98618,32.91306,0.0],[21.98091,32.9012,3.149],[21.97998,32.90114,3.149],[21.97771,32.83893,439.9232],[21.96934,32.7564,684.3811],[21.99404,32.68227,772.9598],[22.02494,32.62641,728.2204],[22.03321,32.55261,656.9213],[22.02029,32.49768,610.0752],[21.99042,32.42469,523.9316],[21.97688,32.35131,396.4487],[21.95931,32.31947,365.3574],[21.97812,32.23152,263.7484],[21.9804,32.14393,198.5042],[22.00437,32.05122,159.7288],[21.99869,31.88991,131.6841],[22.00055,31.78834,132.9636],[21.99125,31.67776,147.1176],[21.96758,31.62288,147.0003],[21.96737,31.46121,151.0513],[21.94846,31.38767,144.5976],[21.91776,31.28202,137.4062],[22.11248,31.11988,113.2306],[22.25893,31.14515,125.9183],[22.33593,31.08673,125.7888],[22.45654,30.99276,125.1818],[22.51184,30.89349,120.2785],[22.61922,30.82902,113.7742],[22.68929,30.81693,117.0397],[22.78985,30.79156,116.1112],[22.88876,30.793,119.5892],[22.96886,30.79936,122.2823],[22.96876,31.00625,132.3059],[22.95563,31.08066,134.7891],[22.95656,31.23334,143.1882],[22.9854,31.40364,159.2893],[23.07139,31.51219,171.5611],[23.10529,31.6683,177.5584],[23.11841,31.848,181.4825],[23.16875,32.00347,204.4757],[23.21763,32.12199,149.0842],[23.24988,32.21008,1.7007],[23.25133,32.21666,0.0],[23.25134,32.21673,0.0]]]}
,"properties": {"ISO3166-1-Alpha-3": "LBY","country": "Libya","fill": "#00F","name": "Al Qubbah","area_km2": 21211.75,"hist_schema_id": "Elevation0-9000","hist_area_km2": {"0": 223.59,"25": 243.32,"50": 207.72,"75": 254.47,"100": 500.16,"125": 4070.36,"150": 6865.32,"175": 2703.69,"200": 1161.16,"225": 484.57,"250": 452.91,"275": 337.44,"300": 356.58,"325": 386.86,"350": 399.57,"375": 411.24,"400": 364.32,"425": 294.17,"450": 203.72,"475": 153.98,"500": 149.6,"525": 132.74,"550": 122.36,"575": 125.29,"600": 116.74,"625": 96.19,"650": 114.38,"675": 138.41,"700": 58.43,"725": 42.17,"750": 24.11,"775": 12.23,"800": 3.61,"825": 0.36}}}