{"type":"Feature","properties":{"ISO3166-1-Alpha-3":"LBY","country":"Libya","fill":"#00F","id":"2978","name":"Tajura' wa an Nawahi al Arba"},
"geometry":{"type": "Polygon","coordinates": [[[13.95445,32.75823,21.7571],[13.91529,32.77277,9.9691],[13.83033,32.79409,0.0],[13.78712,32.79963,2.5801],[13.61695,32.7934,0.0],[13.57146,32.8028,7.0999],[13.37355,32.89204,10.3805],[13.36313,32.89956,0.0],[13.35174,32.90424,0.0],[13.25709,32.91865,0.0],[13.18775,32.91625,0.0],[13.16472,32.91275,0.0],[13.14772,32.904,0.0],[13.11549,32.88215,0.0],[13.1032,32.87742,0.0],[13.10321,32.87735,0.0],[13.10383,32.87066,0.0],[13.10435,32.86394,12.9094],[13.11096,32.78296,61.5963],[13.07634,32.72121,59.0584],[13.16316,32.64922,83.7894],[13.1739,32.56675,108.1577],[13.19003,32.46003,147.4061],[13.18755,32.38981,183.8145],[13.23643,32.33374,227.2655],[13.35033,32.36392,323.1934],[13.38485,32.38317,275.7719],[13.40107,32.43523,276.7319],[13.4513,32.52861,231.8902],[13.52572,32.54819,396.9973],[13.57336,32.56075,203.0269],[13.70379,32.61139,224.9099],[13.7193,32.61279,265.3081],[13.8089,32.62085,219.0612],[13.81283,32.6394,194.5111],[13.89024,32.711,63.8879],[13.95443,32.75821,21.7571],[13.95445,32.75823,21.7571]]]}}