{"type": "Feature","id": "2976","bbox": [11.58992,28.42697,14.98237,32.31738],"geometry": {"type": "Polygon","coordinates": [[[13.39766,32.05078,743.9801],[13.39177,32.10982,660.7085],[13.36325,32.20163,440.0823],[13.3002,32.27043,315.8521],[13.2508,32.31738,254.0636],[13.18961,32.31229,242.0749],[13.15509,32.29302,302.511],[13.0504,32.27948,499.7878],[12.96286,32.27738,249.9827],[12.81961,32.2602,180.6699],[12.736,32.25007,176.9661],[12.68846,32.24033,183.2774],[12.64898,32.23261,203.2213],[12.57394,32.25284,301.8802],[12.49012,32.27281,194.5002],[12.40155,32.30371,150.8051],[12.2923,32.29705,139.5834],[12.14327,32.30028,102.189],[11.86267,32.30756,108.8581],[11.86267,32.1886,128.6266],[11.84003,32.08807,156.4792],[11.82277,31.96177,274.0126],[11.83972,31.8549,618.1367],[11.85554,31.78132,641.5571],[11.83735,31.68075,616.0848],[11.8329,31.56205,599.9193],[11.8452,31.46232,593.3348],[11.83672,31.33594,553.6674],[11.85295,31.24737,544.262],[11.89502,31.16699,563.5411],[11.94566,31.08681,551.4747],[11.96302,31.08089,547.0916],[11.86732,30.93103,609.6334],[11.73296,30.76016,632.6201],[11.65079,30.64635,612.5951],[11.5986,30.59834,596.8328],[11.58992,30.54243,608.4017],[11.61627,30.41334,569.8474],[11.61214,30.23686,591.1407],[11.61968,30.03274,618.5994],[11.64945,29.81061,624.02],[11.69007,29.57933,630.1803],[11.72986,29.36648,651.4807],[11.72934,29.08701,668.0812],[11.8083,28.96831,680.9534],[11.89739,28.85919,702.793],[11.92158,28.776,712.1541],[11.95186,28.59505,539.1727],[11.98328,28.64724,568.6896],[12.10958,28.61531,530.9344],[12.15691,28.60973,529.8381],[12.27825,28.56523,647.6407],[12.3506,28.55805,639.2365],[12.431,28.55355,448.3292],[12.4924,28.54345,426.2375],[12.50159,28.46555,369.6956],[12.58903,28.42697,355.681],[12.68846,28.43031,382.9217],[12.7576,28.49371,572.8804],[12.79047,28.56324,574.2809],[12.84948,28.60916,591.515],[12.90622,28.64029,588.5316],[12.99293,28.68701,579.3181],[13.10445,28.73931,600.2595],[13.20842,28.84263,621.5671],[13.30103,28.95529,607.8419],[13.35901,29.03513,594.3054],[13.42019,29.10771,593.0797],[13.47022,29.17995,594.6379],[13.51704,29.26674,592.2125],[13.59724,29.35681,579.9761],[13.65904,29.42195,568.2639],[13.7132,29.46487,524.6472],[13.82472,29.54587,527.2169],[13.9105,29.56755,529.1012],[13.99205,29.55246,489.8131],[14.05168,29.52213,467.9218],[14.1818,29.46657,465.5631],[14.28701,29.40061,440.7551],[14.37032,29.32188,440.2676],[14.4222,29.26436,441.5219],[14.41982,29.2091,447.4812],[14.50664,29.23196,465.992],[14.63242,29.31268,426.3077],[14.712,29.35573,405.1778],[14.75241,29.40534,465.7455],[14.75944,29.45673,425.341],[14.75727,29.53724,386.2752],[14.73856,29.60768,369.4177],[14.7366,29.6833,389.9181],[14.76306,29.73749,399.1166],[14.82269,29.80937,376.8518],[14.85422,29.86195,354.9242],[14.86558,29.88092,404.3017],[14.93121,29.94065,385.1182],[14.97969,30.01711,358.5568],[14.98237,30.1318,261.7171],[14.9708,30.25841,241.8002],[14.95013,30.4092,193.19],[14.86455,30.46243,199.4851],[14.85866,30.46607,187.9136],[14.78176,30.49878,201.2386],[14.56069,30.55054,272.0034],[14.45166,30.61901,284.2778],[14.3576,30.65358,278.4246],[14.21167,30.72105,298.5111],[14.1572,30.83677,232.9114],[14.06594,31.03201,259.0468],[13.93417,31.24321,226.2387],[13.9166,31.25982,222.153],[13.86161,31.29013,200.5192],[13.79816,31.32264,209.9466],[13.68891,31.43917,267.6397],[13.63238,31.50828,328.3385],[13.59992,31.61453,395.6717],[13.55373,31.70577,476.9554],[13.48985,31.81356,572.4009],[13.45265,31.96092,679.1609],[13.39766,32.05078,743.9801]]]}
,"properties": {"ISO3166-1-Alpha-3": "LBY","country": "Libya","fill": "#F00","name": "Mizdah","area_km2": 88858.36,"hist_schema_id": "Elevation0-9000","hist_area_km2": {"100": 150.9,"125": 633.0,"150": 382.36,"175": 340.69,"200": 810.91,"225": 1288.46,"250": 1568.37,"275": 1684.4,"300": 1776.81,"325": 1968.81,"350": 2231.55,"375": 2354.98,"400": 2599.47,"425": 2658.92,"450": 2627.83,"475": 1814.0,"500": 1939.84,"525": 2858.5,"550": 4200.11,"575": 6682.71,"600": 10412.47,"625": 20884.53,"650": 9424.11,"675": 3500.36,"700": 1536.52,"725": 786.0,"750": 529.61,"775": 474.47,"800": 320.29,"825": 214.41,"850": 132.06,"875": 46.26,"900": 18.58,"925": 5.38,"950": 0.7}}}