{"type":"Feature","properties":{"featurecla":"Plateau","name":"Al Harüj al Aswad","namealt":null,"region":"Africa","subregion":null,"min_label":6.0,"max_label":11.0,"scalerank":6},
"geometry":{"type": "Polygon","coordinates": [[[18.495862000734832,27.850254753495079,234.8278],[18.449289952997958,27.924378933408406,269.166],[18.075205925396233,28.298407293744049,268.609],[17.17566979258379,28.470404364056606,352.404],[16.567149284771233,28.086737371869106,476.9641],[16.143809441021233,27.7428042664003,559.799],[15.971812370708761,27.478216864056606,555.5585],[16.223155144146233,26.922613836712856,524.4209],[16.990489128521233,26.658026434369077,593.751],[17.20215905039629,26.499273992962856,564.9344],[17.559336784771205,26.181769110150327,518.8998],[18.101695183208705,26.221441961712827,341.8848],[18.181040886333705,26.459540106244049,352.7492],[18.47217858164629,27.001959539837856,348.3731],[18.59119713633379,27.504706121869077,297.1536],[18.495862000734832,27.850254753495079,234.8278]]]}}