{"type": "Feature","bbox": [19.960459831646261,31.907111329480443,23.069224480083733,32.961737371869106],"geometry": {"type": "MultiPolygon","coordinates": [[[[23.052174868392569,32.474700045825017,48.983],[23.06081580218941,32.379769233973718,10.5616],[23.069224480083733,32.379645086712884,3.1647],[23.052174868392569,32.474700045825017,48.983]]],
[[[19.972346250766094,31.907111329480443,13.8363],[20.443247917583705,32.452398992962856,-1.0],[20.469396624572198,32.465217867865221,0.553],[20.46973717539629,32.465643621869106,0.4914],[20.482160402157291,32.471475051756443,0.0133],[21.117930534771261,32.783148504681634,0.0],[21.70008385508379,32.941839910931634,0.0],[21.709719953003827,32.940815377842341,0.0],[21.713267448833733,32.941839910931634,0.0],[22.010935905864017,32.908789373822373,0.0],[22.32178795664629,32.875738836712884,0.0],[22.746980621157292,32.74431500105419,0.0],[22.32178795664629,32.908758856244049,0.0],[21.713267448833733,32.961737371869106,0.0],[21.117930534771261,32.796332098431577,0.0],[20.449961784771261,32.478827215619134,0.0],[19.960459831646261,31.9232241882753,2.3534],[19.972346250766094,31.907111329480443,13.8363]]]]}
,"properties": {"featurecla": "Range/mtn","name": "Al Jabal al Akhdar","namealt": null,"region": "Africa","subregion": null,"min_label": 6.0,"max_label": 10.0,"scalerank": 5,"area_km2": 586.9014,"hist_schema_id": "Elevation0-9000","hist_area_km2": {"0": 400.7931,"25": 142.1659,"50": 25.6944,"75": 3.4552,"100": 1.5843,"125": 1.9225,"150": 2.6701,"175": 3.3999,"200": 2.2964,"225": 1.0325,"250": 0.5875,"275": 0.6409,"300": 0.4273,"325": 0.1958,"350": 0.0356}}}