{"type": "Feature","bbox": [11.68555748789629,23.363959051556606,14.834117058208705,26.115607000775356],"geometry": {"type": "Polygon","coordinates": [[[14.036216391793545,23.678081377235259,593.5953],[14.37110436289629,24.422308660931549,491.3293],[14.662119987896261,25.096991278119106,465.5768],[14.834117058208705,25.8245913757753,443.0039],[14.423960808208733,25.930426336712884,423.6544],[13.56409752695879,26.115607000775356,463.0513],[12.227915886333705,25.877508856244049,707.8383],[11.923716667583733,25.229254461712856,792.8471],[11.68555748789629,24.289984442181606,973.7631],[12.01636803477129,23.813727117962856,929.834],[12.386729362896233,23.443304754681606,803.0134],[13.14075768320879,23.363959051556606,682.333],[13.983737398152272,23.619398522008112,602.8444],[14.013926628521261,23.6285464539003,604.5848],[14.036216391793545,23.678081377235259,593.5953]]]}
,"properties": {"featurecla": "Desert","name": "Idhän Murzuq","namealt": null,"region": "Africa","subregion": null,"min_label": 5.3,"max_label": 9.0,"scalerank": 4,"area_km2": 71377.4,"hist_schema_id": "Elevation0-9000","hist_area_km2": {"425": 484.21,"450": 2452.48,"475": 3583.8,"500": 3896.02,"525": 4556.24,"550": 5047.94,"575": 5037.96,"600": 5406.55,"625": 5051.98,"650": 4963.47,"675": 4876.26,"700": 4501.17,"725": 4106.36,"750": 3445.3,"775": 2938.37,"800": 2531.74,"825": 2096.01,"850": 1748.92,"875": 1477.69,"900": 1238.05,"925": 831.2,"950": 501.34,"975": 289.66,"1000": 164.54,"1025": 90.3,"1050": 44.58,"1075": 12.85,"1100": 2.13}}}