{"type":"Feature","properties":{"featurecla":"Desert","name":"Jabal as Sawdä’","namealt":null,"region":"Africa","subregion":null,"min_label":6.0,"max_label":11.0,"scalerank":6},
"geometry":{"type": "Polygon","coordinates": [[[16.48328698008379,28.505682684369077,481.3163],[16.880137566021233,28.893744207806606,323.8836],[16.994761589458705,29.422857977337856,327.1586],[16.253916862896261,29.616888739056577,464.3614],[15.874766472271205,29.758002020306549,209.3008],[15.39857018320879,29.952032782025356,194.1465],[15.072154167583705,29.678656317181549,367.3177],[14.772349480083733,29.281805731244106,420.26369999999997],[14.816416862896261,28.831976629681634,517.274],[15.204478386333761,28.496832586712856,598.0265],[16.112925651958733,28.470404364056606,561.2096],[16.48328698008379,28.505682684369077,481.3163]]]}}