{"type":"Feature","properties":{"featurecla":"Plain","name":"Jabal Nafüsah","namealt":null,"region":"Africa","subregion":null,"min_label":6.0,"max_label":10.0,"scalerank":5},
"geometry":{"type": "MultiPolygon","coordinates": [[[[11.603805724648794,32.144408907818587,129.3405],[12.082408073833733,31.804144598431577,659.867],[12.182245157519276,31.773354466443806,627.4083],[12.382334831646233,31.760016180462856,601.0914],[12.779185417583761,31.874640203900356,710.1404],[13.361216667583761,31.909918524212827,734.4872],[13.652232292583705,31.936407782025327,426.305],[13.64344323008379,32.068670965619049,417.8469],[14.304942253521233,32.253912664837856,131.1644],[14.296153191021205,32.606634832806549,32.8703],[13.766978386333733,32.721319891400356,66.0891],[13.308360222271233,32.580206610150384,116.776],[12.664561394146261,32.271551824994077,160.4233],[12.10010826914629,32.253912664837856,108.7907],[11.603805724648794,32.144408907818587,129.3405]]],
[[[9.9545786835292631,33.316933658532008,391.6707],[10.732604984118638,32.763792658898751,141.1693],[10.768321159771205,32.809515692181577,127.638],[10.609629753521205,33.118170477337884,122.0864],[10.406748894146261,33.559149481244134,21.9032],[10.151011589458733,33.744391180462827,54.9134],[9.83350670664629,33.8942935242128,84.6309],[9.9040633472712614,33.603277899212856,252.0985],[9.9545786835292631,33.316933658532008,391.6707]]]]}}