{"type": "Feature","bbox": [13.246592644146261,21.908758856244106,17.228526237896233,26.340521551556549],"geometry": {"type": "Polygon","coordinates": [[[14.036216391793545,23.678081377235259,593.5953],[14.013926628521261,23.6285464539003,604.5848],[13.983737398152272,23.619398522008112,602.8444],[13.246592644146261,22.795111395306606,834.5328],[13.392100456646233,21.908758856244106,555.8812],[14.02711022227129,21.988104559369106,537.8883],[15.151621941021233,22.980292059369106,974.4824],[15.535288933208733,23.774054266400356,664.5527],[16.262827995708733,24.660406805462856,525.0645],[17.09632408945879,25.679022528119106,488.123],[17.228526237896233,26.155279852337856,584.687],[16.818492058208761,26.340521551556549,504.7029],[16.355479362896261,26.261114813275327,488.8301],[15.178111198833705,25.070502020306549,571.7343],[14.47693932383379,24.1709048523378,510.369],[14.036216391793545,23.678081377235259,593.5953]]]}
,"properties": {"featurecla": "Range/mtn","name": "Jabal bin Ghunaymah","namealt": null,"region": "Africa","subregion": null,"min_label": 6.0,"max_label": 11.0,"scalerank": 6,"area_km2": 65976.89,"hist_schema_id": "Elevation0-9000","hist_area_km2": {"375": 4.77,"400": 63.33,"425": 399.75,"450": 761.99,"475": 1735.97,"500": 4816.27,"525": 7998.65,"550": 9459.42,"575": 9503.0,"600": 7116.9,"625": 5008.19,"650": 3689.92,"675": 3145.93,"700": 2875.16,"725": 2474.01,"750": 1801.39,"775": 1023.68,"800": 802.58,"825": 688.8,"850": 771.94,"875": 844.65,"900": 646.33,"925": 174.21,"950": 77.76,"975": 37.84,"1000": 53.86,"1025": 0.53}}}