{"type":"Feature","properties":{"featurecla":"Desert","name":"LIBYAN DESERT","namealt":null,"region":"Africa","subregion":null,"min_label":4.0,"max_label":8.0,"scalerank":3},
"geometry":{"type": "MultiPolygon","coordinates": [[[[33.737901366997363,18.629760744904587,354.3594],[33.576735629837543,19.059544306364842,324.1101],[33.593028191021261,18.773443914837856,351.1888],[33.698863151958761,18.694037176556634,347.8881],[33.737901366997363,18.629760744904587,354.3594]]],
[[[32.1552539993111,14.455337879266366,381.25],[32.171070170374577,14.63788285362412,378.0779],[32.111338737896205,14.553290106244049,381.8771],[32.1552539993111,14.455337879266366,381.25]]],
[[[32.1552539993111,14.455337879266366,381.25],[32.151133659771205,14.407782293744063,376.9628],[32.323008659771261,14.010931707806634,378.4322],[32.404435409823833,13.899543075938638,383.9684],[32.1552539993111,14.455337879266366,381.25]]],
[[[32.404435409823833,13.899543075938638,383.9684],[32.586885810154655,13.492590630488053,382.7417],[32.574473503521205,13.666937567181634,380.8384],[32.404435409823833,13.899543075938638,383.9684]]],
[[[32.586885810154655,13.492590630488053,382.7417],[32.600840691021261,13.296576239056577,376.0],[32.743789514699785,13.142619645776108,376.5],[32.586885810154655,13.492590630488053,382.7417]]],
[[[32.743789514699785,13.142619645776108,376.5],[32.775766184277217,13.071296240300839,380.6652],[32.772837761333705,13.111334539837799,376.5],[32.743789514699785,13.142619645776108,376.5]]],
[[[32.775766184277217,13.071296240300839,380.6652],[32.78833780891577,12.899413120050568,381.0428],[32.799327019146205,13.018744207806563,377.0],[32.775766184277217,13.071296240300839,380.6652]]],
[[[32.171070170374577,14.63788285362412,378.0779],[32.333845294755378,14.868407962518461,375.5],[32.177500847271261,14.712103582806577,378.9341],[32.171070170374577,14.63788285362412,378.0779]]],
[[[32.333845294755378,14.868407962518461,375.5],[32.415660026958705,14.950201727337884,375.5],[32.426703858314937,14.999915958950936,375.5],[32.333845294755378,14.868407962518461,375.5]]],
[[[32.426703858314937,14.999915958950936,375.5],[32.428965691021261,15.003119207806606,375.5],[32.430709639788091,15.017948138320463,375.5],[32.426703858314937,14.999915958950936,375.5]]],
[[[32.430709639788091,15.017948138320463,375.5],[32.495005730083705,15.307379461712827,371.0],[32.472645989183292,15.374536143100983,375.4538],[32.430709639788091,15.017948138320463,375.5]]],
[[[32.472645989183292,15.374536143100983,375.4538],[32.501925159666229,15.623499181961307,380.1187],[32.495005730083705,15.624884344525327,378.8036],[32.442149284771261,15.466131903119134,370.5],[32.472645989183292,15.374536143100983,375.4538]]],
[[[31.588604855226407,9.4651809051129447,389.3535],[31.475051275128493,9.4662335848327928,392.3621],[30.947276237896205,9.460089422650384,390.0071],[30.853556369918948,9.4507182220272341,389.8077],[30.82974527184885,9.4483373119609837,389.9599],[31.476451042583761,9.3674990906190487,388.8565],[31.489294648525657,9.3786853954221243,389.2739],[31.588604855226407,9.4651809051129447,389.3535]]],
[[[31.567713817079351,18.196700875873944,291.5941],[31.396073340852098,18.056839698346607,254.2449],[31.449961784771205,18.045843817181549,237.5],[31.567713817079351,18.196700875873944,291.5941]]],
[[[27.220121310482682,30.241950083534846,162.6422],[30.960937889649102,30.074060305974058,200.0807],[30.933970573833761,30.110846258587884,164.1373],[30.914156219749913,30.142555321846373,146.2888],[30.709117058208761,30.163763739056606,71.4747],[29.968272331646205,30.150519110150384,116.0485],[28.976084831646233,30.243109442181606,-19.4368],[27.336369599981026,30.33491751800787,209.7577],[27.220121310482682,30.241950083534846,162.6422]]],
[[[30.914156219749913,30.142555321846373,146.2888],[30.971627666490946,30.136610709066105,126.5915],[30.748789909771261,30.415106512494077,35.7965],[30.740829394944996,30.419931572864868,30.6561],[30.914156219749913,30.142555321846373,146.2888]]],
[[[30.740829394944996,30.419931572864868,30.6561],[30.735606316021261,30.428290106244077,28.3966],[30.702704973268141,30.443039705970193,24.5061],[30.740829394944996,30.419931572864868,30.6561]]],
[[[29.826562430510563,9.5727719803693674,391.9213],[29.769786003521205,9.5791690124940914,391.9944],[29.582619329639982,9.4443730801418155,391.8786],[29.597027808700346,9.4519569505554273,390.7547],[29.800179197971914,9.558885225505918,391.9459],[29.826562430510563,9.5727719803693674,391.9213]]],
[[[29.401464122093358,9.34902244576655,390.825],[29.285221454415449,9.3737719338573982,392.5223],[29.386241081646205,9.3410098328065772,391.3136],[29.401464122093358,9.34902244576655,390.825]]],
[[[29.01204770437019,30.837797298061588,0.0],[29.055430534771233,30.825201727337827,0.0],[29.073301831469649,30.833600643164829,0.0],[29.01204770437019,30.837797298061588,0.0]]],
[[[27.350618417701952,31.336634086474334,0.0],[27.825205925396261,31.182379461712856,84.851],[28.815596335264956,30.894834081749025,13.2443],[27.350618417701952,31.336634086474334,0.0]]],
[[[26.794650430198772,9.724203887679522,420.8508],[26.753550651958733,9.7246768249940772,420.4811],[26.576789409079169,9.8846203095421,424.5818],[26.740367058208733,9.7114321960878414,420.9117],[26.794650430198772,9.724203887679522,420.8508]]],
[[[26.2528224468509,10.177763783604163,434.2543],[26.198008659771205,10.227362371869077,436.0547],[25.976109666368131,10.104940210061613,442.7774],[26.2528224468509,10.177763783604163,434.2543]]],
[[[25.609724407436545,31.600437272353474,0.0],[25.178555605445467,31.541276357680886,0.0],[25.179331901958761,31.539557196087884,0.0],[25.602070708119982,31.598728147273249,0.0],[25.84083092539629,31.632147528119134,0.0],[25.609724407436545,31.600437272353474,0.0]]],
[[[25.565397032468496,9.9968513764072213,472.0399],[25.395833296916123,10.01569244999412,471.8128],[24.859276964123694,10.01569244999412,505.4364],[25.285166862896233,9.923102117962884,484.6702],[25.565397032468496,9.9968513764072213,472.0399]]],
[[[23.721541903635739,32.177334297687793,0.0],[23.948985222271233,32.108404852337856,7.1535],[24.114587118100303,32.083251235714954,0.0],[23.92261803477129,32.121649481244106,0.0],[23.721541903635739,32.177334297687793,0.0]]],
[[[22.796344882310621,10.151232995152753,497.7892],[22.956797722271261,10.161261297650313,474.7589],[23.459483269146261,10.32001373905662,509.9046],[23.690961338491036,10.269689391472127,534.9139],[23.494272584822056,10.34533891211403,495.674],[22.718760612896261,10.174444891400341,518.9449],[22.669482230126334,10.171758182056266,529.6714],[22.664780035192109,10.170677948084844,531.9338],[22.499332444493518,10.132669717789213,455.5679],[22.796344882310621,10.151232995152753,497.7892]]],
[[[20.803357240584717,32.0069363392341,385.4865],[21.28333580820879,32.300238348431577,401.1787],[23.062632683208733,32.359808660931634,-0.7532],[23.06081580218941,32.379769233973718,10.5616],[22.176280144146233,32.3928286804628,393.573],[21.28333580820879,32.333319403119049,425.2641],[20.803357240584717,32.0069363392341,385.4865]]],
[[[23.052174868392569,32.474700045825017,48.983],[23.036143425396261,32.650824285931577,50.5069],[22.799780995257521,32.723894382832754,0.0],[23.022959831646233,32.637579657025356,79.2647],[23.052174868392569,32.474700045825017,48.983]]],
[[[21.709719953003827,32.940815377842341,0.0],[22.010935905864017,32.908789373822373,0.0],[21.713267448833733,32.941839910931634,0.0],[21.709719953003827,32.940815377842341,0.0]]],
[[[21.312186643332325,10.611231024347802,437.6828],[21.279850072986903,10.633924732045188,439.4936],[21.190576398483131,10.617028349288972,436.9561],[21.312186643332325,10.611231024347802,437.6828]]],
[[[20.469396624572198,32.465217867865221,0.553],[20.482160402157291,32.471475051756443,0.0133],[20.46973717539629,32.465643621869106,0.4914],[20.469396624572198,32.465217867865221,0.553]]],
[[[19.717271472701242,30.583030525858106,0.0],[19.874400261333733,30.639960028119049,0.0],[19.881248852600891,30.6505460427245,0.0],[19.717271472701242,30.583030525858106,0.0]]],
[[[19.2243921510819,24.077660541263725,603.5903],[19.779993606457111,23.972134555229417,627.364],[19.76441490977129,23.999029852337856,623.1741],[19.385264519146233,24.069647528119077,565.7451],[19.2243921510819,24.077660541263725,603.5903]]],
[[[18.449289952997958,27.924378933408406,269.166],[18.495862000734832,27.850254753495079,234.8278],[18.485362175396233,27.888312078900384,237.9167],[18.449289952997958,27.924378933408406,269.166]]]]}}