{"type": "Feature","bbox": [20.763746630771408,31.600437272353474,25.990281861012733,32.29275269186158],"geometry": {"type": "MultiPolygon","coordinates": [[[[25.609724407436545,31.600437272353474,0.0],[25.84083092539629,31.632147528119134,0.0],[25.990281861012733,31.6036200888108,9.2263],[25.84083092539629,31.652044989056577,0.0],[25.609724407436545,31.600437272353474,0.0]]],
[[[23.340701140022588,32.29275269186158,0.0],[23.721541903635739,32.177334297687793,0.0],[23.92261803477129,32.121649481244106,0.0],[24.114587118100303,32.083251235714954,0.0],[24.370919994938646,32.04431630154906,0.0],[23.340701140022588,32.29275269186158,0.0]]],
[[[20.803357240584717,32.0069363392341,385.4865],[20.763746630771408,31.982731359621539,382.4697],[20.787242058208705,31.995978094525384,364.1772],[20.803357240584717,32.0069363392341,385.4865]]]]}
,"properties": {"featurecla": "Plateau","name": "Libyan Plateau","namealt": null,"region": "Africa","subregion": null,"min_label": 6.0,"max_label": 10.0,"scalerank": 5,"area_km2": 228.8654,"hist_schema_id": "Elevation0-9000","hist_area_km2": {"0": 226.6819,"25": 1.8958,"375": 0.2517,"400": 0.036}}}