{"type":"Feature","properties":{"featurecla":"Desert","name":"Sarïr Kalanshiyu ar Ramli al Kabi","namealt":"Sea of Sand","region":"Africa","subregion":null,"min_label":6.0,"max_label":9.0,"scalerank":4},
"geometry":{"type": "Polygon","coordinates": [[[20.754062618129126,31.270671746056479,83.3953],[20.602061394146233,31.301459051556577,81.907],[19.702403191021261,30.441534735150327,9.8052],[19.74219811289629,29.991766668744077,7.5112],[19.92787984222025,29.831398094634181,7.6035],[20.218394401958733,29.938849188275327,16.3092],[22.066613059254422,30.334878640876781,72.093],[22.070445183208761,30.335699774212856,70.6928],[23.490714678903743,30.312361928263925,95.3796],[23.366953972271233,30.375433660931577,108.4081],[21.647105339458733,31.089789129681606,117.6559],[20.754062618129126,31.270671746056479,83.3953]]]}}