{"type":"Feature","properties":{"GID_1":"LBY.3_1","GID_0":"LBY","country":"Libya","province":"AlJabalalGharbi","VARNAME_1":"AlǦabalalGharbi","NL_NAME_1":"لجبلالغربي","TYPE_1":"Shabiyah","ENGTYPE_1":"District","CC_1":"NA","HASC_1":"LY.JG","ISO_1":"LY-JG","name":"Al_Jabalal_Gharbi.province"},
"geometry":{"type": "MultiPolygon","coordinates": [[[[14.4696,29.1742,445.9461],[14.5902,29.2212,447.2375],[14.6157,29.2343,446.3757],[14.6643,29.2665,450.9817],[14.7084,29.3089,408.2736],[14.7372,29.3304,424.2208],[14.7638,29.3375,412.2666],[14.8081,29.3433,453.8429],[14.7823,29.5083,394.0336],[14.7872,29.5875,390.0926],[14.7933,29.6308,407.7578],[14.8175,29.715,446.0386],[14.8264,29.7386,418.3433],[14.8357,29.7571,426.8188],[14.8474,29.7729,415.7309],[14.8733,29.7924,403.8064],[14.8985,29.821,396.9615],[14.9318,29.8681,395.9969],[14.9677,29.9267,392.2605],[14.8303,30.3865,263.9479],[14.7935,30.3896,250.2306],[14.7442,30.3989,197.5977],[14.6855,30.414,198.2415],[14.6185,30.4345,238.6078],[14.5427,30.4607,320.2025],[14.4634,30.4911,309.6944],[14.3928,30.5211,285.4851],[14.3383,30.5473,342.4199],[14.3039,30.5683,307.6581],[14.2428,30.6157,290.6955],[14.1405,30.7003,281.308],[14.0067,30.8148,201.9418],[13.9716,30.8267,207.4808],[13.9394,30.8425,210.4631],[13.9123,30.861,209.2455],[13.891,30.8818,217.6951],[13.8796,30.8978,224.6169],[13.8717,30.9141,229.3907],[13.8222,31.0697,260.5752],[13.8111,31.0991,265.4261],[13.8019,31.1167,343.9499],[13.7821,31.1394,245.6464],[13.7291,31.1855,219.3518],[13.6837,31.22,242.6835],[13.6229,31.2626,239.7676],[13.3768,31.8475,670.1196],[13.3239,32.0079,835.6617],[13.2647,32.2136,365.954],[13.2111,32.3391,217.576],[13.0531,32.2537,590.3634],[12.8831,32.2196,259.492],[12.8195,32.2093,217.5961],[12.7768,32.2043,212.1535],[12.6809,32.2055,222.9911],[12.11,32.2227,106.1953],[12.0207,32.2299,111.6691],[11.8872,32.2451,126.7132],[11.8841,31.9387,369.809],[11.8521,31.8375,636.6527],[11.8237,31.7581,605.8728],[11.8199,31.7433,636.8331],[11.8155,31.7141,628.2307],[11.8122,31.6744,647.7137],[11.8092,31.5711,606.1726],[11.8495,31.3761,562.9871],[11.8585,31.3213,571.2676],[11.8626,31.2785,534.4125],[11.8693,31.2427,530.3428],[11.8934,31.144,562.4356],[11.9297,31.0118,573.0767],[11.8478,30.9011,604.2812],[11.7188,30.7395,632.9616],[11.5949,30.5807,604.5746],[11.5753,30.5448,606.681],[11.5621,30.5116,599.9447],[11.5648,30.4476,593.8149],[11.6499,29.7784,624.6249],[11.6785,29.5352,638.6976],[11.7154,29.2413,655.9406],[11.717,29.1743,659.8981],[11.7285,29.1245,667.9971],[11.7426,29.1049,666.8452],[11.8225,29.0216,669.3349],[11.8529,28.9754,677.3655],[11.909,28.8732,699.9963],[11.9347,28.8181,701.6476],[11.9518,28.7554,704.9956],[11.9854,28.6914,597.3911],[11.9864,28.6344,559.0625],[12.2426,28.5703,657.3795],[12.5384,28.5228,390.7801],[12.5604,28.4324,356.5122],[12.5519,28.5206,389.135],[12.5605,28.4325,356.5122],[12.6916,28.4168,381.7401],[12.7068,28.4188,387.6306],[12.7249,28.4237,396.9115],[12.7672,28.4409,472.7747],[12.7808,28.4478,508.8363],[12.8394,28.5165,555.5786],[12.876,28.5638,567.2097],[12.8928,28.5805,576.059],[12.9221,28.6027,581.869],[12.982,28.6414,577.9503],[13.0285,28.665,573.0347],[13.0955,28.6948,587.6595],[13.1488,28.7441,604.0464],[13.3027,28.9048,609.0657],[13.3568,28.9484,611.5245],[13.3818,28.9731,601.7236],[13.4258,29.0481,595.8014],[13.4779,29.1759,594.8486],[13.5415,29.262,591.3939],[13.6111,29.3666,578.6223],[13.6544,29.4208,572.3464],[13.6823,29.4485,552.0928],[13.6925,29.469,531.6969],[13.7161,29.484,537.8788],[13.7464,29.4986,535.0688],[13.7763,29.5103,520.5062],[13.8231,29.5206,534.1219],[13.8501,29.5229,511.2208],[13.8751,29.529,497.6673],[13.9126,29.5196,485.6329],[13.9273,29.5235,481.9717],[14.2776,29.375,438.7927],[14.4696,29.1742,445.9461]]]]}}