{"type": "Feature","id": "2983","bbox": [18.49926,27.00763,24.98124,31.26282],"geometry": {"type": "Polygon","coordinates": [[[20.59371,31.007,84.0426],[20.52353,31.02539,79.1804],[20.41749,31.08831,51.2571],[20.34308,31.17489,34.0464],[20.29905,31.23169,28.517],[20.18919,31.26282,6.3456],[20.13286,31.2607,15.0052],[20.13575,31.25174,2.3854],[20.14764,31.24171,1.339],[20.15043,31.23719,0.0],[20.15343,31.22843,0.7794],[20.14165,31.22386,0.0],[20.14666,31.21678,0.0],[20.15235,31.0882,0.0],[20.14666,31.04556,0.0],[20.09986,30.935,2.1977],[20.03647,30.81908,1.2682],[20.01873,30.80378,0.0],[19.98219,30.77863,0.0],[19.95818,30.7497,0.0],[19.91432,30.68293,0.0],[19.74887,30.51093,0.4439],[19.61638,30.42137,0.0],[19.59604,30.41201,0.0],[19.55104,30.40493,0.4277],[19.53053,30.3968,1.0427],[19.41896,30.33324,0.8423],[19.33855,30.29881,5.4414],[19.29168,30.28705,7.4774],[19.23976,30.27399,4.5733],[19.14601,30.26472,6.0892],[19.05681,30.26618,2.6402],[18.96803,30.27774,7.93],[18.92595,30.29336,14.0508],[18.79,30.37055,0.3271],[18.79,30.37052,0.3271],[18.76106,30.19534,25.2253],[18.72643,30.00057,102.2476],[18.71372,29.83342,125.9945],[18.73315,29.66602,169.6852],[18.69925,29.51742,217.8243],[18.57988,29.36916,170.4953],[18.51363,29.16471,247.9261],[18.49988,28.87599,239.8385],[18.49926,28.50208,179.5003],[18.71858,28.43664,187.0886],[19.00445,28.36018,161.397],[19.00425,28.35824,165.1211],[19.17219,28.34742,203.4439],[19.16982,27.01287,259.2256],[19.50954,27.01411,239.225],[19.84926,27.01535,234.7158],[20.28613,27.01858,224.4239],[20.72311,27.02181,203.3857],[21.32297,27.01473,173.8284],[21.92283,27.00763,148.2426],[22.50729,27.01117,161.3846],[23.09185,27.01468,192.5344],[23.67683,27.02388,207.7572],[24.26181,27.03305,217.8765],[24.63088,27.04135,215.747],[24.98073,27.04923,203.7758],[24.98124,27.04924,203.7758],[24.98124,27.13803,197.0037],[24.98124,27.47546,169.523],[24.98124,27.62782,161.6445],[24.98124,27.6665,158.9038],[24.98124,28.01855,147.2103],[24.98124,28.0967,131.2879],[24.98073,28.09679,131.2879],[24.98042,28.09684,131.2879],[24.9707,28.09865,134.5367],[24.96089,28.10048,150.7932],[24.48619,28.11017,138.3091],[24.01149,28.11989,137.0852],[23.53679,28.12958,144.4436],[23.06209,28.13926,144.9156],[23.06085,28.79695,100.4553],[23.05961,29.45461,84.0533],[23.05837,30.11227,46.0762],[23.05702,30.76996,124.0243],[23.03625,30.7774,123.238],[23.01537,30.78487,123.8857],[22.9946,30.79233,122.7322],[22.97372,30.79977,121.7191],[22.97258,30.79967,122.5025],[22.97134,30.79957,122.5443],[22.9701,30.79946,122.5443],[22.96886,30.79936,122.2823],[22.88876,30.793,119.5892],[22.78985,30.79156,116.1112],[22.68929,30.81693,117.0397],[22.61922,30.82902,113.7742],[22.51184,30.89349,120.2785],[22.45654,30.99276,125.1818],[22.33593,31.08673,125.7888],[22.25893,31.14515,125.9183],[22.11248,31.11988,113.2306],[21.97161,31.10743,120.9473],[21.79281,31.09301,116.4017],[21.71716,31.06562,109.7995],[21.65525,31.04314,113.2454],[21.39748,31.03278,107.0778],[21.31904,31.03506,102.1405],[20.93405,31.04614,64.6343],[20.73809,31.01379,65.0704],[20.59371,31.007,84.0426]]]}
,"properties": {"ISO3166-1-Alpha-3": "LBY","country": "Libya","fill": "#FF0","name": "Ajdabiya","area_km2": 197568.81,"hist_schema_id": "Elevation0-9000","hist_area_km2": {"-50": 620.42,"-25": 2246.91,"0": 9654.63,"25": 16573.63,"50": 21428.24,"75": 19805.54,"100": 26283.99,"125": 23205.14,"150": 26756.65,"175": 20919.75,"200": 14974.51,"225": 10169.96,"250": 3979.97,"275": 761.96,"300": 177.82,"325": 9.7}}}