{"type":"Feature","properties":{"GID_1":"LBY.17_1","GID_0":"LBY","country":"Libya","province":"Nalut","VARNAME_1":"Nālūt|NalutLalūt","NL_NAME_1":"نالوت‎","TYPE_1":"Shabiyah","ENGTYPE_1":"District","CC_1":"NA","HASC_1":"LY.NT","ISO_1":"LY-NL","name":"Nalut.province"},
"geometry":{"type": "MultiPolygon","coordinates": [[[[9.8702,28.5407,709.0574],[9.8524,28.4234,612.8395],[9.862,28.4322,612.8044],[9.8619,28.431,615.7995],[10.0917,28.6701,706.2283],[10.1135,28.6734,708.4407],[10.1373,28.6738,698.3516],[10.1602,28.6711,690.9744],[10.1815,28.6656,695.0773],[10.2086,28.6531,689.763],[10.2762,28.6062,684.2772],[10.3051,28.5892,675.2805],[10.3336,28.5748,664.541],[10.3572,28.5653,651.5876],[10.3774,28.5598,647.3461],[10.3916,28.5588,651.808],[10.4123,28.5611,654.2707],[10.4501,28.5692,646.824],[10.4935,28.5819,641.7712],[10.5353,28.5971,645.2841],[10.571,28.613,637.7733],[10.654,28.6562,630.494],[10.9251,28.8078,683.4579],[11.0018,28.6123,596.3701],[11.3577,28.4972,572.4016],[11.5057,28.5662,515.6663],[11.637,28.5509,494.0077],[11.7513,28.5778,514.7229],[11.9335,28.5126,468.7238],[11.9715,28.5587,487.1152],[11.9865,28.6344,559.0625],[11.9854,28.6914,597.3911],[11.9518,28.7554,704.9956],[11.9347,28.8181,701.6476],[11.909,28.8732,699.9963],[11.8529,28.9754,677.3655],[11.8225,29.0216,669.3349],[11.7426,29.1049,666.8452],[11.7285,29.1245,667.9971],[11.717,29.1743,659.8981],[11.7154,29.2413,655.9406],[11.6785,29.5352,638.6976],[11.6499,29.7784,624.6249],[11.5648,30.4476,593.8149],[11.5621,30.5116,599.9447],[11.5753,30.5448,606.681],[11.5949,30.5807,604.5746],[11.7188,30.7395,632.9616],[11.8478,30.9011,604.2812],[11.9297,31.0118,573.0767],[11.8934,31.144,562.4356],[11.8693,31.2427,530.3428],[11.8626,31.2785,534.4125],[11.8585,31.3213,571.2676],[11.8495,31.3761,562.9871],[11.8092,31.5711,606.1726],[11.8122,31.6744,647.7137],[11.8155,31.7141,628.2307],[11.8199,31.7433,636.8331],[11.8237,31.7581,605.8728],[11.8521,31.8375,636.6527],[11.8841,31.9387,369.809],[11.8872,32.2451,126.7132],[11.7558,32.2523,113.8252],[11.7186,32.2565,107.2436],[11.7054,32.2606,105.2964],[11.676,32.2773,101.5195],[11.6342,32.3077,99.1167],[11.5823,32.3505,97.2171],[11.5253,32.4015,97.4017],[11.4675,32.3653,101.3487],[11.4634,32.3608,102.6098],[11.4499,32.3561,99.6407],[11.425,32.354,106.597],[11.3924,32.3341,118.8127],[11.3664,32.3224,114.3162],[11.3356,32.3155,115.613],[11.315,32.3083,128.8122],[11.2042,32.2767,140.4123],[11.1534,32.2582,141.0841],[11.1387,32.2485,147.9245],[11.1012,32.2375,144.434],[11.0888,32.2293,152.3862],[11.0745,32.2284,149.6826],[11.0569,32.2191,152.435],[11.0344,32.2021,156.5218],[11.0163,32.196,158.7144],[10.9958,32.1922,165.5761],[10.9821,32.1867,165.7521],[10.9302,32.1562,177.8872],[10.9146,32.1433,182.8233],[10.858,32.1104,201.3915],[10.8538,32.0906,209.7711],[10.8501,32.0828,213.8779],[10.8377,32.0621,227.2155],[10.7947,32.0,302.7902],[10.7678,31.9955,322.4431],[10.7504,31.9893,479.1593],[10.7419,31.983,457.5627],[10.7309,31.9793,369.0056],[10.718,31.9781,380.384],[10.6997,31.9833,349.6396],[10.6806,31.9849,336.8222],[10.6707,31.9876,354.9874],[10.6618,31.9848,382.469],[10.6544,31.9769,482.5232],[10.6423,31.9728,438.4844],[10.639099999999999,31.9679,505.7297],[10.6406,31.9455,536.3498],[10.6372,31.9389,527.6653],[10.6281,31.9322,481.9612],[10.6249,31.9255,464.8977],[10.6255,31.9191,525.2437],[10.644,31.8935,513.7089],[10.6443,31.8839,506.1912],[10.6371,31.8715,518.6079],[10.6353,31.8651,495.0904],[10.6159,31.8481,491.2845],[10.5961,31.834,472.1244],[10.5916,31.8326,473.4773],[10.582,31.8241,473.7556],[10.5738,31.8117,451.5931],[10.562,31.7731,445.0769],[10.5519,31.7617,431.1235],[10.5298,31.7473,394.8658],[10.4921,31.7359,397.9007],[10.4587,31.7283,379.1094],[10.441,31.7273,374.6792],[10.3938,31.7405,361.0125],[10.374,31.7381,361.6212],[10.313,31.7056,365.2549],[10.2912,31.6901,375.1188],[10.2891,31.6848,376.5537],[10.2846,31.6805,375.5059],[10.2794,31.6674,372.1928],[10.2543,31.6356,390.3399],[10.2538,31.6319,402.5182],[10.2409,31.6119,418.3922],[10.2237,31.5916,452.1806],[10.2222,31.5868,442.317],[10.2108,31.5729,430.1434],[10.2023,31.5657,426.9512],[10.2005,31.5598,428.4659],[10.1889,31.5471,436.9055],[10.1849,31.5464,437.1099],[10.1709,31.5298,444.0281],[10.1686,31.5238,426.9316],[10.1541,31.5072,408.684],[10.1499,31.5049,407.0722],[10.1406,31.4933,411.3177],[10.1375,31.4857,449.2824],[10.1375,31.4628,404.679],[10.1443,31.4498,394.7997],[10.1466,31.4386,408.9489],[10.1449,31.4225,416.0197],[10.1475,31.407,424.3069],[10.1539,31.3889,409.2049],[10.1574,31.3857,423.482],[10.1946,31.3047,431.6049],[10.2083,31.27,403.5262],[10.2113,31.2661,398.0394],[10.2169,31.2473,418.9276],[10.2201,31.2437,424.9086],[10.2316,31.2158,419.4236],[10.2422,31.1987,397.3998],[10.2621,31.1331,393.5522],[10.271,31.121,407.2252],[10.2848,31.0966,400.7594],[10.2876,31.0826,402.3585],[10.2755,31.0456,396.8646],[10.2752,31.0268,400.9581],[10.2799,31.0069,409.8149],[10.2823,31.0039,410.5166],[10.2868,30.9877,400.7933],[10.2881,30.9652,402.696],[10.2972,30.9293,391.9357],[10.3078,30.909,389.6713],[10.3062,30.9039,388.4898],[10.2955,30.894,379.3683],[10.2942,30.8869,376.9737],[10.2967,30.8791,413.4056],[10.2871,30.8559,378.7985],[10.284,30.8414,375.103],[10.2778,30.8246,375.5565],[10.2465,30.7723,408.9305],[10.226,30.732,397.7232],[10.2132,30.7131,392.9672],[10.1993,30.7034,376.4763],[10.1945,30.702,380.9464],[10.1813,30.6936,394.0783],[10.1745,30.6864,397.4698],[10.1524,30.6505,386.5457],[10.1145,30.6091,393.7222],[10.1002,30.5861,348.3171],[10.0767,30.5604,367.5469],[10.0556,30.5439,383.7973],[10.0199,30.5055,375.3346],[10.007,30.4754,354.5983],[9.9774,30.434,349.3863],[9.9706,30.428,353.6041],[9.9622,30.4236,348.1486],[9.9473,30.3936,330.2434],[9.9179,30.3749,325.5327],[9.8889,30.3492,293.905],[9.8823,30.3473,310.0391],[9.8704,30.3481,346.3445],[9.8258,30.3439,301.7319],[9.7982,30.3345,289.1514],[9.7927,30.3303,288.8828],[9.7748,30.3232,288.6746],[9.7443,30.316,289.0905],[9.7155,30.2991,306.8812],[9.7071,30.2924,308.516],[9.6758,30.2822,312.5854],[9.6491,30.2692,315.8615],[9.6162,30.2503,312.1167],[9.5917,30.2422,312.5057],[9.5573,30.2368,299.2651],[9.559,30.23,300.689],[9.4928,30.2115,292.097],[9.4662,30.1973,298.5234],[9.437,30.1854,328.2249],[9.4309,30.1836,347.0634],[9.416,30.187,316.5787],[9.3996,30.1781,309.8218],[9.3917,30.1667,320.2937],[9.392,30.1458,321.7108],[9.4017,30.0937,333.2739],[9.4082,30.0653,348.5453],[9.4155,30.0421,364.0033],[9.4541,29.9999,367.7702],[9.5393,29.9006,386.9136],[9.7806,29.4241,543.0739],[9.8723,29.027,649.3394],[9.9028,28.7598,705.4044],[9.8702,28.5407,709.0574]]]]}}