{"type":"Feature","properties":{"GID_1":"LBY.7_1","GID_0":"LBY","country":"Libya","province":"AlMarj","VARNAME_1":"Marj|AlMarǧ","NL_NAME_1":"لمرج","TYPE_1":"Shabiyah","ENGTYPE_1":"District","CC_1":"NA","HASC_1":"LY.MA","ISO_1":"LY-MJ","name":"Al_Marj.province"},
"geometry":{"type": "MultiPolygon","coordinates": [[[[21.3612,32.7762,0.224],[21.3512,32.7746,0.4903],[21.3507,32.7732,8.7183],[21.3474,32.7743,0.4541],[21.3371,32.7718,30.3134],[21.3329,32.7718,22.0356],[21.3282,32.7749,0.0],[21.3157,32.7735,12.7821],[21.3132,32.7749,12.8197],[21.3035,32.774,0.0],[21.2993,32.7751,4.6612],[21.2946,32.7746,0.8577],[21.2921,32.7724,4.5043],[21.2835,32.7743,0.0],[21.264,32.7707,5.9051],[21.2554,32.7715,1.4405],[21.2362,32.7701,31.1149],[21.2268,32.7726,0.0],[21.2249,32.7713,0.8793],[21.2251,32.7696,13.918],[21.2204,32.7735,0.0],[21.2185,32.7715,14.49],[21.211,32.7729,0.0],[21.2082,32.7715,15.065],[21.204,32.7735,0.6666],[21.2026,32.7715,12.7535],[21.2013,32.7726,0.0],[21.1976,32.7718,0.0],[21.1976,32.7704,15.0013],[21.1938,32.7718,0.0],[21.1904,32.7704,10.3428],[21.1804,32.7713,3.71],[21.1718,32.7696,8.5629],[21.1676,32.771,0.0],[21.1654,32.7693,13.641],[21.1574,32.7685,36.6858],[21.1504,32.7696,32.3078],[21.1493,32.7713,3.9161],[21.1421,32.7715,1.5349],[21.141,32.7699,38.3732],[21.1396,32.7713,0.0],[21.1193,32.7699,11.593],[21.1118,32.7715,0.0],[21.1051,32.7696,4.4039],[21.1012,32.771,0.0],[21.0999,32.7687,9.6179],[21.0938,32.7663,9.9499],[21.0815,32.7665,5.6945],[21.0704,32.7624,7.6422],[21.0615,32.7612,0.8329],[21.0599,32.7588,0.0],[21.0526,32.7549,6.7257],[21.0421,32.7515,1.9002],[21.0362,32.7476,5.4491],[21.0254,32.7449,1.6332],[21.0238,32.7426,2.1331],[21.0174,32.7412,0.0],[21.0146,32.739,0.0],[20.9876,32.7332,0.388],[20.9868,32.7315,5.8488],[20.9732,32.726,0.0],[20.9624,32.7188,0.0],[20.9587,32.719,0.0],[20.9551,32.716,3.3549],[20.946,32.7149,3.3229],[20.9432,32.716,0.0],[20.9435,32.7099,1.9919],[20.9371,32.7079,0.3022],[20.9315,32.7026,2.2063],[20.9296,32.7038,0.0],[20.9296,32.701,0.0],[20.9121,32.6901,2.2807],[20.906,32.6879,1.7341],[20.8892,32.5715,322.7659],[20.8769,32.3725,532.3069],[20.886,32.1771,622.2051],[20.9242,32.1311,464.4001],[20.9114,32.0481,400.8923],[20.9087,32.0104,343.7532],[20.8998,31.7817,209.3784],[20.901,31.7637,213.2792],[20.9049,31.7473,204.8527],[20.9107,31.7336,197.4347],[20.9181,31.7212,180.3977],[20.9389,31.6982,158.3281],[20.9677,31.6783,144.8056],[21.0025,31.6629,134.4652],[21.0345,31.6562,128.084],[21.090699999999998,31.6477,125.7566],[21.2806,31.6241,114.1073],[21.2699,31.4551,104.5237],[21.2592,31.3289,107.0975],[21.2582,31.2729,98.2038],[21.2607,31.2562,99.2449],[21.3169,31.0614,102.2389],[21.408,31.0815,110.2213],[21.6748,31.1246,121.285],[21.6618,31.421,146.7606],[21.6614,31.454,147.7874],[21.6634,31.49,142.5955],[21.6682,31.5314,141.5982],[21.6751,31.5667,145.6476],[21.6809,31.5853,149.1477],[21.6902,31.6042,153.4177],[21.697,31.6229,152.0405],[21.7142,31.689,153.7105],[21.7264,31.7539,162.0486],[21.7317,31.8027,153.3152],[21.7291,31.8637,160.3662],[21.7221,31.9313,151.7534],[21.7124,31.9828,159.0889],[21.7021,32.0124,163.1915],[21.6894,32.0316,172.7053],[21.6707,32.0539,188.592],[21.645,32.0801,213.703],[21.6165,32.106,289.3112],[21.5089,32.2379,355.4463],[21.4837,32.2725,397.4881],[21.4718,32.2939,394.5359],[21.463,32.3139,425.0433],[21.4575,32.3311,450.0877],[21.4554,32.3455,439.1736],[21.4597,32.3959,490.4602],[21.4585,32.417,517.9291],[21.454,32.4308,527.9037],[21.4401,32.4555,508.0111],[21.4304,32.4769,486.5895],[21.4238,32.497,501.7915],[21.421,32.5134,500.0307],[21.4213,32.5275,490.8656],[21.4313,32.5851,496.1519],[21.4358,32.6222,419.1826],[21.437,32.6524,325.3427],[21.4346,32.6754,365.2971],[21.4259,32.6994,379.8769],[21.4102,32.7253,200.9415],[21.3877,32.752,107.1219],[21.3612,32.7762,0.224]]]]}}