{"type": "Feature","id": "2981","bbox": [20.30928,31.03278,21.71716,32.78107],"geometry": {"type": "Polygon","coordinates": [[[21.35704,32.78034,0.0],[21.33188,32.77464,0.0],[21.28679,32.77114,12.3176],[21.09669,32.78107,0.0],[21.05095,32.77228,0.0],[20.93409,32.7226,0.0],[20.79656,32.64301,0.0],[20.57603,32.56271,0.0],[20.57604,32.56269,0.0],[20.57841,32.54786,0.0],[20.57841,32.54729,0.0],[20.56467,32.43706,265.3241],[20.5193,32.37327,277.9261],[20.43031,32.3055,114.3977],[20.35724,32.21899,132.9415],[20.31104,32.10905,171.1958],[20.30928,32.03531,166.1031],[20.35042,31.9287,207.7779],[20.41305,31.81713,103.9932],[20.46545,31.73793,119.4647],[20.50627,31.63117,120.8183],[20.54854,31.57973,143.8347],[20.68373,31.55924,144.9984],[20.766,31.59027,142.2512],[20.84217,31.59368,120.9157],[20.97208,31.57766,133.8491],[21.09177,31.58484,111.2467],[21.14644,31.59771,102.2139],[21.21538,31.54105,97.6787],[21.22375,31.45774,102.5461],[21.24235,31.35571,104.4327],[21.28886,31.27626,102.5744],[21.31904,31.03506,102.1405],[21.39748,31.03278,107.0778],[21.65525,31.04314,113.2454],[21.71716,31.06562,109.7995],[21.71178,31.28179,134.6566],[21.68005,31.30556,137.7631],[21.65442,31.35232,138.5529],[21.61494,31.4733,148.1296],[21.61876,31.58872,156.2229],[21.65959,31.67561,158.3827],[21.66827,31.77238,164.6418],[21.66176,31.90632,162.4429],[21.6321,31.99916,167.8088],[21.52544,32.07045,252.5239],[21.46198,32.13163,276.8196],[21.42684,32.22904,299.013],[21.36441,32.32697,359.7283],[21.33485,32.42882,442.8868],[21.33186,32.51171,463.9597],[21.38839,32.57047,493.4862],[21.46156,32.63346,460.958],[21.45805,32.6979,414.4365],[21.39459,32.76808,71.5116],[21.38736,32.78056,0.8375],[21.3857,32.77981,1.7479],[21.37619,32.77906,0.0],[21.36772,32.77513,10.6547],[21.35924,32.77578,0.0],[21.35707,32.78027,0.0],[21.35704,32.78034,0.0]]]}
,"properties": {"ISO3166-1-Alpha-3": "LBY","country": "Libya","fill": "#00F","name": "Al Marj","area_km2": 14859.72,"hist_schema_id": "Elevation0-9000","hist_area_km2": {"0": 108.68,"25": 57.33,"50": 45.01,"75": 35.37,"100": 934.61,"125": 1772.23,"150": 1830.56,"175": 891.86,"200": 882.54,"225": 948.71,"250": 807.18,"275": 908.96,"300": 928.38,"325": 832.33,"350": 697.2,"375": 564.23,"400": 518.98,"425": 421.31,"450": 361.74,"475": 313.81,"500": 268.78,"525": 229.94,"550": 157.67,"575": 125.62,"600": 105.64,"625": 69.9,"650": 35.74,"675": 5.16,"700": 0.25}}}