{"type": "Feature","bbox": [23.0061,28.0267,25.1485,32.2379],"geometry": {"type": "MultiPolygon","coordinates": [[[[25.1448,31.6675,67.3575],[25.1482,31.6679,32.348],[25.1485,31.6712,6.9944],[25.1424,31.671,7.9509],[25.1465,31.6729,8.2589],[25.1474,31.6757,0.0],[25.144,31.6768,11.1492],[25.1437,31.6787,6.3338],[25.1407,31.679,0.0],[25.1396,31.6768,44.5821],[25.1385,31.6774,0.0],[25.1426,31.6818,0.0],[25.1396,31.6838,19.5007],[25.1401,31.6857,13.4749],[25.134,31.694,0.0],[25.136,31.6979,1.7472],[25.1321,31.7029,16.3369],[25.1315,31.7074,7.0044],[25.1296,31.709,0.0],[25.1265,31.7062,17.7052],[25.121,31.7074,0.3217],[25.1215,31.7093,16.3361],[25.1254,31.709,4.7862],[25.1312,31.7118,0.0],[25.131,31.7135,5.0239],[25.1274,31.7146,8.1193],[25.1299,31.7149,0.0],[25.1312,31.7182,7.9503],[25.1304,31.7204,1.3399],[25.124,31.7226,3.5737],[25.1249,31.7265,0.0],[25.1201,31.7307,21.1395],[25.1188,31.7357,0.0],[25.1129,31.7418,27.9594],[25.1154,31.7435,0.0],[25.1149,31.7463,0.0],[25.1101,31.7504,72.4159],[25.1076,31.7551,0.0],[25.0999,31.7563,0.0],[25.0968,31.7538,0.0],[25.0968,31.7493,9.9993],[25.0943,31.7521,0.0],[25.0885,31.751,0.0],[25.089,31.7532,0.1793],[25.0921,31.7535,0.0],[25.0971,31.759,51.5435],[25.0976,31.7646,0.0],[25.0951,31.7654,3.3756],[25.0926,31.764,14.8213],[25.0954,31.7704,0.0],[25.0924,31.7693,6.4334],[25.0924,31.7713,0.0],[25.0904,31.7715,3.4483],[25.0899,31.7704,43.7129],[25.0838,31.7704,9.9838],[25.086,31.7735,12.0793],[25.0807,31.7801,13.4482],[25.0774,31.7793,0.0],[25.0785,31.7857,3.9164],[25.0724,31.7868,14.6981],[25.0751,31.789,0.0],[25.0749,31.791,0.0],[25.0713,31.7949,0.0],[25.0696,31.7946,7.9841],[25.0699,31.7965,2.0617],[25.0649,31.796,6.9715],[25.0626,31.7974,0.0],[25.0649,31.801,0.0],[25.0618,31.8021,13.1612],[25.0643,31.8029,0.0],[25.0646,31.806,0.0],[25.0607,31.8096,0.0],[25.0601,31.8135,9.3098],[25.054,31.8171,6.2105],[25.0549,31.8204,0.0],[25.052,31.8209,0.0],[25.0513,31.8238,0.0],[25.0474,31.8254,14.5231],[25.0471,31.8285,1.6496],[25.0435,31.8296,13.8805],[25.0429,31.8338,3.852],[25.039,31.8399,1.8866],[25.0349,31.8418,10.8822],[25.0338,31.8476,0.0],[25.0315,31.8499,0.0],[25.029,31.8496,1.8527],[25.029,31.8532,4.014],[25.0268,31.8543,0.0],[25.0293,31.8576,11.7439],[25.0287,31.8607,19.082],[25.0307,31.8649,0.0],[25.0287,31.8679,0.0],[25.0318,31.8704,0.0],[25.0338,31.8751,0.0],[25.0324,31.879,4.1091],[25.0332,31.884,0.0],[25.0304,31.884,0.2381],[25.0307,31.8868,0.1094],[25.0332,31.8874,0.0],[25.0318,31.8915,0.0],[25.0338,31.8951,0.0],[25.0318,31.8954,11.2446],[25.0315,31.8971,7.4826],[25.0354,31.8999,7.0998],[25.0371,31.9093,0.5733],[25.0354,31.9118,-0.1276],[25.0388,31.9129,0.4136],[25.0388,31.916,0.9655],[25.0412,31.9188,0.8017],[25.0393,31.9279,0.3283],[25.0343,31.931,0.6148],[25.0335,31.9346,0.1893],[25.021,31.9421,0.0],[25.0035,31.9499,0.2401],[25.0015,31.9551,0.0],[24.9965,31.9585,0.0],[24.9982,31.9613,0.1414],[24.9896,31.9635,1.1238],[24.9882,31.9671,0.0],[24.9829,31.966,0.0],[24.9801,31.971,0.1697],[24.974,31.9685,2.1512],[24.9615,31.9699,0.2404],[24.9601,31.9721,0.0],[24.9387,31.9701,1.1375],[24.9324,31.9751,0.6593],[24.9329,31.9782,0.0],[24.9251,31.9743,0.099],[24.9143,31.9735,0.2219],[24.9082,31.9749,-0.1284],[24.903199999999998,31.9796,0.0],[24.8965,31.9785,0.5438],[24.8949,31.9796,0.0099],[24.8951,31.9813,0.0],[24.8904,31.9785,-0.5542],[24.8776,31.9793,0.0],[24.8743,31.9818,3.1323],[24.876,31.984,0.0454],[24.874,31.9863,0.1653],[24.8696,31.9849,1.3426],[24.8632,31.9863,0.3372],[24.846,31.9849,1.1237],[24.8438,31.9893,0.0],[24.8349,31.9899,0.1974],[24.8349,31.9926,0.0],[24.8257,31.991,0.4624],[24.8057,31.9976,0.0],[24.7985,31.9974,0.2054],[24.7932,31.9921,1.2566],[24.7915,31.9929,0.4336],[24.7899,31.9904,13.89],[24.781,31.9868,1.7469],[24.7835,31.9904,0.0541],[24.7865,31.991,8.9034],[24.7893,31.9971,0.6425],[24.7918,31.9974,0.4496],[24.7921,31.999,1.9014],[24.7893,31.9993,1.0868],[24.7801,32.0065,0.0589],[24.7749,32.0079,0.0],[24.7757,32.0104,0.0],[24.7729,32.0132,0.0],[24.769,32.0118,0.3577],[24.7663,32.0135,0.0],[24.7638,32.0157,1.1799],[24.7638,32.0187,0.1568],[24.7432,32.0171,0.0],[24.7388,32.0182,0.9696],[24.7399,32.0201,0.0],[24.7385,32.021,0.0],[24.729,32.0199,0.1605],[24.7251,32.0224,0.0],[24.7121,32.0213,0.6706],[24.7096,32.0232,0.1529],[24.6849,32.0193,0.0],[24.6807,32.0193,0.0968],[24.6793,32.0218,0.0631],[24.6707,32.0204,0.866],[24.664,32.0218,0.0],[24.6518,32.0154,0.4764],[24.6385,32.0137,1.7858],[24.626,32.0071,0.0],[24.6099,32.0024,0.0],[24.6057,32.0004,0.6945],[24.6046,31.9976,0.4977],[24.6004,31.9963,2.0289],[24.5904,31.9976,0.0],[24.5796,31.9921,0.0],[24.5757,31.9935,0.0],[24.5713,31.9926,0.0],[24.5576,31.986,0.0],[24.5574,31.9837,3.3869],[24.5524,31.9837,2.1507],[24.5521,31.9824,2.1507],[24.5488,31.9835,0.3413],[24.5476,31.9796,0.7349],[24.5451,31.9826,0.0],[24.5426,31.9826,0.0],[24.5413,31.9808,4.981],[24.5404,31.9835,1.2034],[24.5371,31.9835,0.4464],[24.536,31.9809,4.0186],[24.534,31.9849,0.0],[24.5312,31.9818,4.9627],[24.5299,31.9824,0.0],[24.5301,31.9854,0.8123],[24.5249,31.9826,7.4992],[24.5271,31.986,0.5702],[24.5249,31.9879,1.339],[24.5207,31.9879,2.0007],[24.5185,31.9899,0.1554],[24.5157,31.9896,0.0],[24.5151,31.9871,2.0943],[24.5124,31.9874,2.0796],[24.5129,31.991,0.0],[24.509,31.9904,5.074],[24.5063,31.9921,0.0],[24.504,31.9921,0.0],[24.5038,31.9899,2.8396],[24.4996,31.9879,7.8504],[24.5001,31.9924,0.2694],[24.4946,31.9929,0.1894],[24.4946,31.9943,0.0],[24.4932,31.9929,1.5879],[24.4899,31.9935,0.0],[24.4885,31.9901,6.8745],[24.4854,31.9915,2.7851],[24.4849,31.994,0.0],[24.4821,31.9926,1.7227],[24.4774,31.9935,0.5435],[24.4754,31.9893,0.6325],[24.4743,31.9924,0.0],[24.469,31.9926,0.0],[24.469,31.9901,3.5702],[24.466,31.9915,0.3651],[24.4646,31.9879,3.529],[24.4618,31.9879,1.2152],[24.4604,31.9893,1.3843],[24.4613,31.9921,0.0],[24.4571,31.9896,1.5836],[24.4582,31.9921,0.0],[24.4571,31.9932,0.308],[24.4496,31.9949,0.9202],[24.4488,31.9963,0.3581],[24.4432,31.9949,2.9558],[24.4349,31.9957,0.0],[24.434,31.9932,4.4958],[24.4324,31.9957,0.0],[24.4251,31.9965,0.5301],[24.4262,31.9902,3.8518],[24.4226,31.9888,1.4416],[24.4204,31.9954,0.0],[24.416,31.9963,0.0],[24.4174,31.9912,1.6082],[24.416,31.9918,1.2717],[24.4129,31.9896,3.0838],[24.4146,31.994,0.0],[24.4129,31.9965,0.0],[24.4065,31.9974,0.0],[24.4024,31.9951,2.7735],[24.399,31.9974,0.0],[24.3943,31.9943,0.0],[24.3932,31.9957,0.1311],[24.3888,31.9949,1.1293],[24.3871,31.996,0.0],[24.3888,31.9907,1.6073],[24.3876,31.9893,1.6019],[24.3863,31.994,0.0],[24.3815,31.9957,0.0],[24.3813,31.9985,0.0],[24.3785,31.9996,0.0],[24.376,31.9982,0.646],[24.3743,31.9993,0.0],[24.3757,31.9965,0.2197],[24.3749,31.9951,14.0816],[24.3738,31.9974,0.0],[24.3718,31.9954,12.5222],[24.3718,31.9979,0.0],[24.3682,31.9982,0.0],[24.3696,31.9949,15.0551],[24.3668,31.9924,0.9706],[24.364,31.9971,0.0],[24.3618,31.9965,2.4444],[24.3615,31.9949,14.1549],[24.3599,31.9957,16.9053],[24.3615,31.9999,0.0],[24.3585,32.0007,0.0],[24.3504,32.0004,4.5424],[24.3476,31.9993,0.0],[24.3499,31.9968,1.2286],[24.3479,31.9965,11.3804],[24.3465,32.0024,0.0],[24.3446,32.0018,1.1363],[24.344,31.9996,0.5306],[24.3388,31.9982,0.6092],[24.3396,31.9963,2.9563],[24.3371,31.9968,6.7952],[24.3365,31.9993,0.0],[24.329,31.9974,0.0],[24.3154,32.0007,0.0],[24.3146,31.9988,0.0],[24.3121,32.0007,0.0],[24.3113,31.9993,3.2426],[24.3063,31.9985,19.5491],[24.2974,32.001,0.0],[24.2982,32.0001,0.0],[24.2968,31.999,0.0],[24.2865,31.999,0.0],[24.286,31.9974,2.1674],[24.2818,31.9999,0.305],[24.2832,32.001,0.0],[24.2824,32.0038,0.0],[24.276,32.0032,1.5596],[24.2701,32.0071,0.0],[24.2668,32.0065,0.0],[24.2676,32.0029,0.2595],[24.2654,32.0007,0.2444],[24.2615,32.0029,2.3078],[24.2643,32.004,0.0],[24.2629,32.0057,0.0],[24.2565,32.0065,0.1622],[24.2543,32.004,0.0],[24.2551,32.0018,3.1115],[24.2529,32.001,0.461],[24.2507,32.0021,0.5727],[24.2501,32.006,0.0],[24.2399,32.0074,0.0],[24.2376,32.0046,0.474],[24.2399,32.0021,1.6122],[24.2324,31.9979,0.6256],[24.2254,31.9974,0.911],[24.2154,31.9999,1.4527],[24.199,31.9979,20.0724],[24.1907,32.0018,3.3447],[24.184,32.001,0.6536],[24.1554,32.0057,0.0],[24.1335,32.0051,36.3899],[24.1068,32.0121,0.0],[24.0879,32.0121,0.0],[24.0804,32.0182,2.1093],[24.066,32.0199,21.3066],[24.0579,32.024,1.8055],[24.0574,32.0265,0.0],[24.044,32.0329,0.0],[24.044,32.0351,0.0],[24.0424,32.0351,6.8727],[24.0399,32.0388,0.0],[24.0382,32.0385,3.6829],[24.039,32.0399,0.9821],[24.0351,32.0446,1.5133],[24.0268,32.0421,1.3771],[24.0287,32.0435,0.0],[24.0287,32.0462,0.0],[24.024,32.0471,3.9387],[24.0243,32.0485,3.9387],[24.0196,32.0524,0.0],[24.0157,32.0518,2.4514],[24.0113,32.0482,9.8186],[24.0104,32.0499,1.7065],[24.0149,32.054,0.0],[23.999,32.0582,0.0],[23.9988,32.0599,0.0],[24.0029,32.0593,0.0],[24.0012,32.061,0.0],[23.9943,32.0624,0.0],[23.9976,32.0604,0.0],[23.9968,32.0588,0.0],[23.9888,32.0624,0.5631],[23.9871,32.0651,0.0],[23.9854,32.0646,0.0],[23.986,32.0632,5.0608],[23.9788,32.0632,4.9809],[23.9771,32.0665,0.0],[23.9726,32.0665,18.3764],[23.9704,32.069,0.1776],[23.9693,32.074,0.0],[23.9651,32.0746,16.9555],[23.9676,32.0793,0.5588],[23.9743,32.079,15.9871],[23.974,32.0776,1.7478],[23.9782,32.0765,0.0],[23.9779,32.0738,0.0],[23.9796,32.0724,0.0],[23.9801,32.0762,0.4147],[23.9846,32.0749,1.9834],[23.9813,32.0729,0.0],[23.9893,32.0757,6.1499],[24.009,32.071,0.0],[24.0035,32.0788,0.3465],[24.0035,32.0812,0.251],[24.0054,32.0835,0.0],[24.0104,32.0838,0.0],[24.0113,32.0857,0.0],[23.9962,32.0926,3.1936],[23.9971,32.094,0.0],[23.9868,32.1004,1.1676],[23.981,32.0979,4.005],[23.9818,32.1007,3.3616],[23.9804,32.1035,0.5389],[23.9765,32.1037,1.6323],[23.9746,32.1018,5.3511],[23.9746,32.1057,0.0],[23.9674,32.1074,0.0],[23.965699999999998,32.1063,2.6031],[23.9624,32.1087,0.6496],[23.9546,32.1079,0.0],[23.9538,32.1051,2.8042],[23.9526,32.1096,0.544],[23.9432,32.111,0.0],[23.9424,32.1079,2.8528],[23.9374,32.1132,0.6766],[23.9357,32.1129,0.0],[23.9346,32.1101,7.0146],[23.9324,32.1101,1.3234],[23.9307,32.1054,20.0782],[23.9265,32.1082,0.2377],[23.9285,32.1121,0.0],[23.9249,32.1135,4.6476],[23.9232,32.116,0.0],[23.9204,32.1146,6.1717],[23.921,32.1162,0.0],[23.9193,32.1179,0.0],[23.9143,32.1168,0.9127],[23.9126,32.1151,7.3186],[23.9129,32.1124,4.375],[23.9112,32.1124,10.897],[23.9101,32.1149,0.0],[23.9112,32.1174,0.7203],[23.9057,32.1201,0.8064],[23.903199999999998,32.1196,0.0],[23.904,32.116,15.9452],[23.901,32.1182,0.0],[23.8993,32.1146,8.6754],[23.8982,32.1201,0.0],[23.8971,32.1185,7.4928],[23.8971,32.1201,0.0],[23.8887,32.1201,4.7669],[23.8879,32.116,24.0434],[23.8857,32.1157,11.993],[23.886,32.1193,0.0],[23.8829,32.1188,0.0],[23.8801,32.1143,14.8621],[23.881,32.1196,14.8452],[23.8768,32.1224,0.0],[23.874,32.1224,0.0],[23.8724,32.1174,5.5654],[23.8693,32.1176,0.5961],[23.8687,32.1199,17.5207],[23.8704,32.1207,3.972],[23.8713,32.1257,0.0],[23.8679,32.1268,22.7162],[23.8649,32.1307,0.0],[23.8624,32.1296,0.0],[23.8624,32.1251,5.4158],[23.8596,32.1246,7.7754],[23.8576,32.1254,3.7054],[23.8587,32.1315,3.9658],[23.8557,32.1299,11.301],[23.8571,32.1318,1.3952],[23.8535,32.1335,4.4755],[23.8501,32.1296,28.4326],[23.8521,32.1351,3.3223],[23.8501,32.1351,5.1904],[23.8493,32.1335,15.8973],[23.8479,32.1374,0.0],[23.846,32.1374,0.0],[23.846,32.1338,1.9628],[23.8449,32.1351,1.9628],[23.844,32.1338,1.8686],[23.8412,32.1343,5.0215],[23.8421,32.1374,0.0],[23.8393,32.1393,0.0],[23.8326,32.1371,0.0],[23.8318,32.1354,20.7717],[23.829,32.1368,6.4149],[23.8296,32.1404,21.5573],[23.8251,32.1396,25.8556],[23.8254,32.1424,21.0455],[23.8274,32.1437,1.6936],[23.8224,32.1454,7.976],[23.8199,32.1426,1.6246],[23.8185,32.1465,0.0],[23.8168,32.1474,0.0],[23.8151,32.146,19.2679],[23.8151,32.149,2.1528],[23.8118,32.151,0.0],[23.8107,32.149,0.0],[23.8104,32.1507,0.0],[23.8068,32.151,0.0],[23.8035,32.149,0.2264],[23.8051,32.1518,0.0],[23.8018,32.1518,3.4713],[23.8026,32.1532,0.4625],[23.7968,32.156,0.0],[23.7935,32.154,0.0],[23.7938,32.1574,0.0],[23.7862,32.1582,3.2624],[23.7793,32.1618,0.859],[23.7732,32.1587,9.6754],[23.7763,32.1635,0.0],[23.7696,32.1665,0.7883],[23.7579,32.1682,0.3104],[23.7488,32.1674,1.6368],[23.7465,32.1696,0.788],[23.7321,32.1715,2.4442],[23.7299,32.174,0.0],[23.7265,32.1729,2.0346],[23.7254,32.1751,0.3889],[23.7188,32.1779,0.0],[23.7118,32.1782,1.2457],[23.7043,32.1763,0.917],[23.704,32.1782,0.0],[23.6943,32.1776,0.0],[23.6796,32.1801,1.2415],[23.6749,32.1824,0.0],[23.6626,32.1813,0.0],[23.6396,32.1746,1.7349],[23.6196,32.176,0.0],[23.6154,32.1718,11.5232],[23.6104,32.1718,5.2013],[23.6093,32.1732,0.7641],[23.6093,32.1707,1.7494],[23.5999,32.1765,0.0],[23.590699999999998,32.1746,1.6484],[23.5718,32.1754,1.4686],[23.5696,32.1735,1.0541],[23.5596,32.1754,0.62],[23.5535,32.1743,0.0],[23.5529,32.1729,2.1273],[23.5446,32.1732,0.8064],[23.5421,32.1704,1.7539],[23.5318,32.1732,0.3],[23.5196,32.1726,0.0],[23.5151,32.169,2.8316],[23.5129,32.1693,1.2909],[23.5129,32.1665,3.0833],[23.5104,32.1638,0.0792],[23.5101,32.1674,0.0532],[23.5068,32.1685,0.667],[23.4996,32.1751,0.5056],[23.476,32.1757,0.0],[23.469,32.174,0.3265],[23.4626,32.1787,0.7073],[23.4599,32.1787,0.9973],[23.4465,32.174,0.0],[23.421,32.1743,0.256],[23.414,32.1815,0.2094],[23.411,32.1818,1.5823],[23.4079,32.1851,0.0],[23.3846,32.1937,-0.107],[23.3782,32.1996,0.0],[23.3724,32.2007,0.1054],[23.3671,32.2046,0.0058],[23.3529,32.2015,0.8539],[23.3482,32.2043,0.0],[23.3446,32.2035,2.3546],[23.3426,32.2062,0.0],[23.3338,32.2057,0.7311],[23.3279,32.2074,0.0],[23.324,32.211,0.0],[23.3163,32.2137,-0.0901],[23.3093,32.2093,0.0187],[23.3063,32.2012,0.0],[23.3107,32.1935,0.0],[23.3124,32.1929,2.0626],[23.3129,32.1874,0.0],[23.3157,32.1868,5.7148],[23.3185,32.1835,0.6273],[23.3165,32.1779,0.3166],[23.3176,32.1718,0.5443],[23.3199,32.1696,0.8677],[23.3182,32.166,0.0],[23.3201,32.1651,1.098],[23.3207,32.1624,0.7141],[23.3265,32.1554,0.9119],[23.3254,32.1535,0.0614],[23.3201,32.1532,0.1155],[23.3107,32.1568,0.7703],[23.3074,32.1635,0.0],[23.3024,32.164,1.0101],[23.301,32.1807,0.0],[23.2968,32.189,0.0],[23.2949,32.1901,4.5282],[23.2982,32.1937,0.0],[23.2938,32.1988,0.0],[23.2799,32.2012,0.0],[23.2726,32.1988,0.0939],[23.2649,32.1988,0.0],[23.2535,32.2035,12.9939],[23.2529,32.2079,1.2762],[23.2456,32.2157,0.0],[23.2308,32.1593,102.6364],[23.2077,32.1257,147.6546],[23.1988,32.1155,147.8571],[23.1796,32.0457,193.0428],[23.1279,31.9049,188.3013],[23.1008,31.8246,170.4863],[23.0925,31.776,192.0824],[23.0952,31.7339,189.0148],[23.0905,31.6792,179.8441],[23.0814,31.6122,172.5727],[23.0604,31.5134,170.8442],[23.0556,31.3427,159.3907],[23.0449,31.2911,159.2364],[23.0292,31.088,142.1137],[23.0306,31.0567,139.804],[23.0107,30.9712,125.6271],[23.0062,30.8045,123.7571],[23.0061,30.6054,101.394],[23.0096,28.0322,127.5415],[25.0,28.0267,132.5872],[24.9994,29.2502,51.8023],[24.9886,29.268,63.9445],[24.957,29.3458,61.2236],[24.9102,29.4306,66.8036],[24.8996,29.46,56.0138],[24.883,29.4811,62.5043],[24.8604,29.5342,-0.7666],[24.8577,29.5483,-4.7166],[24.8749,29.5871,20.917],[24.895,29.6088,-3.2859],[24.8977,29.623,74.6458],[24.8958,29.6314,66.2821],[24.8571,29.7154,91.5133],[24.8194,29.789,-4.1012],[24.8165,29.8152,40.609],[24.8201,29.8862,63.8929],[24.8132,29.9189,63.1723],[24.7533,30.0957,104.4162],[24.6981,30.1488,108.8276],[24.7094,30.1819,115.817],[24.7345,30.2258,118.0468],[24.7596,30.2648,129.9529],[24.7695,30.2877,135.1492],[24.7831,30.3313,140.1881],[24.8344,30.3689,143.9596],[24.8581,30.3949,146.4612],[24.8753,30.4281,152.8888],[24.8902,30.4484,159.5386],[24.9265,30.4811,167.4975],[24.9478,30.5453,171.2631],[24.9501,30.5605,176.6416],[24.9492,30.5774,182.8802],[24.9551,30.5986,176.9872],[24.9786,30.6444,178.4763],[24.9892,30.69,182.0843],[24.9923,30.7129,186.6168],[25.016,30.765,185.5588],[25.0183,30.778,189.318],[24.9901,30.8618,189.8279],[24.9905,30.8816,191.9424],[24.9806,30.9131,187.7027],[24.963,30.937,188.0921],[24.9514,30.9651,187.9633],[24.9448,30.9991,188.4517],[24.9188,31.0662,189.0997],[24.9041,31.0909,192.2345],[24.8831,31.134,188.3613],[24.8777,31.1671,187.7716],[24.879,31.1927,186.7617],[24.8882,31.2621,188.0768],[24.8869,31.3039,192.2319],[24.8811,31.3238,197.443],[24.8672,31.343,197.3656],[24.8614,31.3719,200.1256],[24.8588,31.3961,200.3081],[24.8611,31.4059,199.9086],[24.9389,31.4589,200.4958],[24.9636,31.4802,201.2034],[25.0625,31.5418,192.8222],[25.0712,31.557,189.2292],[25.0785,31.5961,182.1862],[25.0841,31.6101,178.6202],[25.0901,31.6196,177.2086],[25.1024,31.6324,175.4198],[25.1178,31.644,161.3456],[25.1315,31.6666,140.1354],[25.1448,31.6675,67.3575]]],
[[[25.0349,31.936,0.0693],[25.034,31.9363,0.0693],[25.0324,31.9363,0.5009],[25.0362,31.9351,0.0],[25.0349,31.936,0.0693]]],
[[[24.2907,32.0021,0.0],[24.2879,32.0024,0.0],[24.2868,32.0007,0.0],[24.2949,32.0007,0.0],[24.2943,32.0015,0.0667],[24.2907,32.0021,0.0]]],
[[[23.2768,32.2379,0.0],[23.2743,32.2371,0.0],[23.2765,32.2307,-0.444],[23.2868,32.2221,0.0],[23.2885,32.2285,-0.1344],[23.2876,32.234,0.0736],[23.2835,32.2371,0.0],[23.2768,32.2379,0.0]]]]}
,"properties": {"GID_1": "LBY.1_1","GID_0": "LBY","country": "Libya","province": "AlButnan","VARNAME_1": "Tobruk|Tubruq|Butnan","NL_NAME_1": "لبطنان","TYPE_1": "Shabiyah","ENGTYPE_1": "District","CC_1": "NA","HASC_1": "LY.BN","ISO_1": "LY-BU","name": "Al_Butnan.province","area_km2": 82945.01,"hist_schema_id": "Elevation0-9000","hist_area_km2": {"-25": 11.37,"0": 972.48,"25": 2133.04,"50": 7974.92,"75": 10246.49,"100": 16790.19,"125": 16809.46,"150": 10598.5,"175": 13146.01,"200": 4197.94,"225": 64.59}}}