{"type": "Feature","id": "2987","bbox": [22.95563,28.0967,25.15626,32.22419],"geometry": {"type": "Polygon","coordinates": [[[25.15089,31.65648,0.0],[25.15252,31.65982,0.0],[25.15626,31.66307,0.0],[25.13673,31.69257,0.0],[25.12208,31.72085,58.7643],[25.11687,31.73798,0.0],[25.06373,31.8041,10.8093],[25.02955,31.8369,107.6695],[25.02223,31.85468,51.4311],[25.02442,31.87661,49.2108],[25.03338,31.91633,8.2183],[25.01791,31.94904,0.0],[24.9817,31.96792,0.561],[24.86541,31.98933,0.0],[24.82439,32.003,0.0],[24.79176,32.00776,0.0],[24.77198,32.01675,0.0],[24.75807,32.01996,0.0],[24.74586,32.02619,0.0],[24.74187,32.029,0.0],[24.73373,32.03315,0.0],[24.72633,32.03132,0.0],[24.7186,32.02753,0.0],[24.71062,32.02558,0.0],[24.67026,32.03242,0.0],[24.65854,32.02863,0.0],[24.63624,32.01488,0.0],[24.54607,31.99144,0.0],[24.28094,32.00755,0.0],[24.09067,32.00576,51.2863],[24.06788,32.01118,85.0712],[24.00489,32.05292,28.0738],[23.97877,32.06224,4.9809],[23.97071,32.0666,24.9628],[23.97527,32.0742,0.0],[23.99871,32.0939,0.0],[23.84034,32.14912,0.0],[23.66969,32.18325,0.0],[23.5311,32.18138,0.0],[23.40528,32.19066,0.0],[23.39894,32.19404,0.0],[23.37086,32.21402,0.0],[23.36199,32.21711,0.0],[23.31837,32.21784,0.0],[23.29908,32.22419,0.0],[23.31039,32.17927,0.0],[23.31219,32.16275,0.0],[23.3025,32.17072,0.0],[23.29322,32.19233,0.95],[23.28541,32.20376,0.0],[23.2732,32.2097,0.0],[23.25733,32.21377,0.0],[23.25134,32.21673,0.0],[23.25133,32.21666,0.0],[23.24988,32.21008,1.7007],[23.21763,32.12199,149.0842],[23.16875,32.00347,204.4757],[23.11841,31.848,181.4825],[23.10529,31.6683,177.5584],[23.07139,31.51219,171.5611],[22.9854,31.40364,159.2893],[22.95656,31.23334,143.1882],[22.95563,31.08066,134.7891],[22.96876,31.00625,132.3059],[22.96886,30.79936,122.2823],[22.9701,30.79946,122.5443],[22.97134,30.79957,122.5443],[22.97258,30.79967,122.5025],[22.97372,30.79977,121.7191],[22.9946,30.79233,122.7322],[23.01537,30.78487,123.8857],[23.03625,30.7774,123.238],[23.05702,30.76996,124.0243],[23.05837,30.11227,46.0762],[23.05961,29.45461,84.0533],[23.06085,28.79695,100.4553],[23.06209,28.13926,144.9156],[23.53679,28.12958,144.4436],[24.01149,28.11989,137.0852],[24.48619,28.11017,138.3091],[24.96089,28.10048,150.7932],[24.9707,28.09865,134.5367],[24.98042,28.09684,131.2879],[24.98073,28.09679,131.2879],[24.98124,28.0967,131.2879],[24.98124,28.49154,151.5056],[24.98124,28.89018,98.9488],[24.98124,29.05792,73.4406],[24.98124,29.18137,58.5413],[24.97432,29.23894,77.805],[24.95665,29.29268,57.3657],[24.87376,29.46833,54.9993],[24.86384,29.5029,31.7711],[24.86156,29.54156,-4.0068],[24.87055,29.61401,-6.9096],[24.87066,29.63835,-5.4232],[24.85619,29.67948,82.6862],[24.80492,29.7548,-5.7683],[24.79821,29.79643,1.9812],[24.81495,29.84857,79.607],[24.81619,29.86841,73.9695],[24.81164,29.89089,74.4604],[24.72555,30.07837,101.8817],[24.69733,30.12261,106.5988],[24.68834,30.14416,106.9325],[24.68865,30.18276,116.0481],[24.70467,30.2179,112.9138],[24.74612,30.28275,128.9672],[24.76286,30.31707,140.4072],[24.77237,30.33102,140.9545],[24.79945,30.36084,139.8706],[24.82973,30.38755,148.6675],[24.88812,30.46434,174.9856],[24.90766,30.49866,172.9501],[24.91706,30.53245,171.3815],[24.92037,30.55235,176.7629],[24.95065,30.62123,183.8022],[24.96119,30.67627,180.4691],[24.9736,30.71627,181.9926],[24.98858,30.75058,182.0886],[24.99489,30.7851,184.5612],[24.98124,30.82541,187.5577],[24.93763,30.90576,186.7164],[24.92461,30.95677,186.6179],[24.88957,31.01883,193.0327],[24.88265,31.03909,193.279],[24.8595,31.14596,188.2665],[24.85856,31.22791,188.4921],[24.84864,31.31204,191.7689],[24.84895,31.34863,195.8592],[24.86125,31.38036,199.5354],[25.02372,31.49441,204.0088],[25.06041,31.57937,187.5259],[25.08842,31.61352,178.8388],[25.15089,31.65648,0.0]]]}
,"properties": {"ISO3166-1-Alpha-3": "LBY","country": "Libya","fill": "#F0F","name": "Al Butnan","area_km2": 79241.79,"hist_schema_id": "Elevation0-9000","hist_area_km2": {"-25": 11.37,"0": 1038.22,"25": 2096.78,"50": 7663.92,"75": 9847.85,"100": 16215.91,"125": 15796.69,"150": 9501.62,"175": 12943.61,"200": 4061.26,"225": 64.55}}}