{"type": "Feature","bbox": [13.2111,32.0015,14.7811,32.791],"geometry": {"type": "MultiPolygon","coordinates": [[[[13.3243,32.0093,833.0979],[13.3251,32.0079,847.4008],[13.4112,32.0284,684.0617],[13.5116,32.0498,584.7457],[13.6681,32.0782,400.5204],[13.7852,32.0925,355.1525],[13.8387,32.0959,358.3288],[13.8908,32.0968,282.8781],[13.9571,32.095,302.4072],[14.0288,32.0903,282.2596],[14.1105,32.0821,266.3151],[14.1751,32.0735,230.5488],[14.2614,32.0589,204.1939],[14.3326,32.0441,170.1349],[14.3853,32.0307,145.9149],[14.445,32.0116,129.2563],[14.4729,32.0045,124.5302],[14.4989,32.0015,119.815],[14.5204,32.0043,111.6158],[14.5388,32.012,98.7684],[14.5626,32.026,114.1777],[14.5855,32.0442,114.1694],[14.607,32.0652,114.313],[14.6182,32.0794,115.9538],[14.6265,32.096,117.3473],[14.6831,32.1849,115.6599],[14.7246,32.2597,114.3892],[14.7563,32.331,89.4984],[14.7672,32.3617,74.2871],[14.7746,32.3888,34.7046],[14.7793,32.4143,28.5818],[14.7811,32.4376,0.0],[14.7713,32.4371,0.0],[14.7527,32.4393,7.6084],[14.7319,32.4451,25.5569],[14.7272,32.4479,0.0],[14.7219,32.4482,25.407],[14.7141,32.4521,0.0],[14.6997,32.4549,5.4485],[14.6852,32.4626,0.6031],[14.6804,32.4679,0.2542],[14.6751,32.471,0.0],[14.6677,32.4732,6.1786],[14.6563,32.4804,0.8413],[14.6513,32.4799,15.1997],[14.651,32.4824,0.0],[14.6483,32.4849,0.0],[14.6433,32.4849,10.451],[14.6366,32.4876,0.0],[14.6247,32.4882,5.588],[14.6247,32.4896,0.3735],[14.6158,32.4915,1.3949],[14.6124,32.4949,0.5885],[14.6083,32.4949,1.1801],[14.606,32.4979,0.0],[14.5997,32.4965,0.6003],[14.5988,32.4982,0.0],[14.5941,32.4957,6.1161],[14.5905,32.4974,0.0],[14.5874,32.496,11.0188],[14.583,32.4971,0.0],[14.5816,32.4951,3.056],[14.5791,32.4951,4.1863],[14.5752,32.4996,0.4254],[14.5769,32.5013,0.0],[14.5738,32.5021,0.0],[14.5691,32.4993,0.4307],[14.568,32.4968,3.6529],[14.563,32.499,0.0],[14.5585,32.4982,8.1572],[14.5533,32.501,1.083],[14.5466,32.4996,6.7532],[14.5438,32.5024,1.675],[14.5416,32.5013,5.5236],[14.5413,32.5029,2.306],[14.5366,32.5035,6.7305],[14.5322,32.5035,2.8717],[14.5283,32.5013,4.8803],[14.5227,32.5015,8.431],[14.5177,32.5046,4.5572],[14.5024,32.504,0.0],[14.4985,32.5062,0.0],[14.4913,32.5065,5.5731],[14.471,32.5132,3.4278],[14.4672,32.5154,3.7053],[14.466,32.5179,2.4514],[14.453,32.5232,1.5978],[14.4497,32.5271,0.0],[14.4466,32.5265,1.2185],[14.443,32.5349,0.2786],[14.4427,32.5401,0.5925],[14.4347,32.546,0.7191],[14.4369,32.5496,0.7987],[14.4341,32.5532,0.0],[14.4216,32.5568,8.8934],[14.3991,32.5693,0.0],[14.3799,32.5768,3.7049],[14.3777,32.5804,6.598],[14.3699,32.5821,2.9563],[14.3708,32.5854,0.9176],[14.368,32.5854,2.7548],[14.3666,32.5882,2.5624],[14.3619,32.591,2.8619],[14.3588,32.5907,4.0804],[14.3597,32.5921,1.0559],[14.353,32.596,2.9727],[14.3408,32.6087,5.8314],[14.3388,32.6118,2.7442],[14.3391,32.6176,0.4424],[14.3316,32.6237,0.8156],[14.3291,32.624,1.1887],[14.3297,32.6265,0.9804],[14.3255,32.629,0.6271],[14.3227,32.6282,9.2596],[14.3169,32.6301,9.125],[14.3138,32.6335,2.6482],[14.3035,32.636,0.9064],[14.3008,32.6407,0.0],[14.2908,32.6404,9.9667],[14.281,32.6424,4.35],[14.2788,32.644,2.8295],[14.2791,32.6457,0.0],[14.2733,32.6482,8.2423],[14.2713,32.6524,5.4603],[14.2747,32.6549,0.4946],[14.2722,32.6568,2.9653],[14.2729,32.6585,0.8076],[14.2705,32.659,0.0],[14.271,32.6579,2.0549],[14.2691,32.6579,3.6212],[14.2688,32.6565,5.899],[14.2655,32.6587,3.0326],[14.2627,32.6574,3.9892],[14.2597,32.6601,1.5761],[14.2566,32.6604,10.2292],[14.2533,32.6651,0.0],[14.2477,32.6674,2.32],[14.2469,32.6701,1.4881],[14.2579,32.6832,0.0],[14.2537,32.6813,0.0],[14.249,32.674,1.6296],[14.2449,32.6763,0.0],[14.2465,32.6801,0.7516],[14.249,32.6799,0.0],[14.2468,32.6818,0.0],[14.2454,32.6821,0.0],[14.2463,32.681,0.0],[14.2446,32.6787,1.5166],[14.2413,32.6782,0.8298],[14.2372,32.6824,2.0908],[14.239,32.6862,1.8125],[14.2435,32.6846,0.5426],[14.2482,32.6899,0.0],[14.2438,32.6921,0.3493],[14.2507,32.6904,0.0],[14.259,32.6854,0.6985],[14.2582,32.6838,0.6985],[14.2599,32.6846,0.599],[14.2635,32.6818,0.0],[14.2601,32.6854,0.599],[14.2476,32.6924,0.0],[14.2415,32.6937,1.5802],[14.2341,32.6921,0.0],[14.2299,32.6929,4.1752],[14.2229,32.6976,0.0],[14.2088,32.6976,0.0],[14.2041,32.7015,0.0],[14.1949,32.7054,3.9813],[14.1941,32.7046,3.9813],[14.1969,32.7032,14.2194],[14.1838,32.7054,18.6403],[14.1797,32.7074,0.0],[14.1772,32.7115,0.265],[14.1716,32.7118,6.7395],[14.1707,32.7137,0.0],[14.1688,32.7104,4.7172],[14.1605,32.7107,0.0],[14.1624,32.7115,0.0],[14.161,32.7135,0.0],[14.1602,32.7118,0.0],[14.1574,32.7126,0.0],[14.1588,32.711,0.0],[14.1572,32.7104,8.7517],[14.1502,32.7113,3.6272],[14.148,32.7126,4.5705],[14.1494,32.7149,1.0267],[14.1469,32.7154,4.1119],[14.1372,32.7157,0.0],[14.1397,32.7137,16.7195],[14.138,32.7132,16.7195],[14.1255,32.7143,0.0],[14.1216,32.7163,6.1423],[14.121,32.7185,2.4516],[14.1169,32.7163,2.7245],[14.1105,32.7185,3.2775],[14.1019,32.7165,0.0],[14.101,32.7179,0.0],[14.0905,32.7188,0.0],[14.0852,32.7218,9.1926],[14.0816,32.7201,1.6642],[14.0738,32.721,6.183],[14.0719,32.7218,6.183],[14.0727,32.7243,0.0],[14.0694,32.7243,0.0],[14.0716,32.7232,0.0],[14.071,32.7221,0.0],[14.0483,32.7232,1.7213],[14.0447,32.7251,10.3952],[14.0063,32.7307,0.415],[14.0005,32.7365,14.5231],[14.0005,32.7385,0.0],[13.9946,32.7426,0.0],[13.9974,32.7449,0.0],[13.996,32.7465,0.0],[13.9924,32.7449,1.3769],[13.9887,32.7474,0.0],[13.9857,32.7465,8.946],[13.9713,32.7543,0.0],[13.9652,32.7549,2.0089],[13.9615,32.7593,0.0],[13.9544,32.7615,6.5252],[13.9482,32.7715,0.0],[13.944,32.7732,0.8266],[13.9282,32.7765,0.0],[13.9208,32.7754,8.952],[13.9022,32.7807,0.0],[13.8882,32.7815,6.4461],[13.8846,32.7837,4.1002],[13.8771,32.7824,0.8103],[13.8579,32.7826,0.0],[13.8529,32.7837,15.6129],[13.8532,32.7863,0.0],[13.8468,32.784,1.1683],[13.8354,32.7874,0.0],[13.8332,32.7901,0.4602],[13.8289,32.791,0.0],[13.8254,32.7778,17.28],[13.7468,32.6825,121.8192],[13.6754,32.6121,176.9666],[13.6477,32.5874,318.0803],[13.629,32.5801,293.4778],[13.5931,32.573,325.5767],[13.535,32.5662,238.8995],[13.4767,32.5634,261.6403],[13.4585,32.5579,310.0556],[13.4492,32.5494,214.9477],[13.4439,32.5365,208.0914],[13.4421,32.5201,415.0981],[13.4427,32.4882,275.1738],[13.4405,32.4762,246.7452],[13.4343,32.464,307.2058],[13.4239,32.4527,332.8489],[13.4087,32.4416,284.844],[13.3698,32.4188,232.2593],[13.2111,32.3391,217.576],[13.2639,32.2158,368.2321],[13.2976,32.096,643.2272],[13.3243,32.0093,833.0979]]],
[[[14.1544,32.7146,0.0],[14.1527,32.7149,0.0],[14.1519,32.7137,0.0],[14.1549,32.7129,0.0],[14.1544,32.7146,0.0]]],
[[[14.0655,32.7251,0.819],[14.0624,32.7243,0.0],[14.0683,32.7235,0.0],[14.0677,32.7243,0.0],[14.0655,32.7251,0.819]]]]}
,"properties": {"GID_1": "LBY.8_1","GID_0": "LBY","country": "Libya","province": "AlMarqab","VARNAME_1": "Murqub|AlMurgub|al-Morqib","NL_NAME_1": "لمرقب","TYPE_1": "Shabiyah","ENGTYPE_1": "District","CC_1": "NA","HASC_1": "LY.MR","ISO_1": "LY-MB","name": "Al_Marqab.province","area_km2": 8229.417,"hist_schema_id": "Elevation0-9000","hist_area_km2": {"0": 86.472,"25": 370.6,"50": 315.923,"75": 354.628,"100": 472.655,"125": 1045.08,"150": 532.928,"175": 440.137,"200": 367.975,"225": 366.914,"250": 371.85,"275": 352.608,"300": 401.168,"325": 451.043,"350": 527.622,"375": 491.223,"400": 363.325,"425": 230.625,"450": 173.873,"475": 108.779,"500": 62.048,"525": 51.13,"550": 45.57,"575": 36.973,"600": 45.67,"625": 36.547,"650": 29.888,"675": 17.622,"700": 13.24,"725": 12.092,"750": 15.22,"775": 20.594,"800": 13.694,"825": 3.379,"850": 0.324}}}