{"type":"Feature","properties":{"ISO3166-1-Alpha-3":"LBY","country":"Libya","fill":"#FF0","id":"2966","name":"Al Marqab"},
"geometry":{"type": "Polygon","coordinates": [[[14.47874,32.5177,0.0],[14.46949,32.51903,0.0],[14.44939,32.52538,3.9683],[14.40406,32.56684,6.1471],[14.31715,32.63044,0.4981],[14.26246,32.66031,0.9632],[14.22633,32.6909,15.8747],[14.20932,32.69721,0.0],[14.20338,32.70034,14.5631],[14.18531,32.7145,0.0],[14.17555,32.71768,0.0],[13.99122,32.74457,13.09],[13.95445,32.75823,21.7571],[13.95443,32.75821,21.7571],[13.89024,32.711,63.8879],[13.81283,32.6394,194.5111],[13.8089,32.62085,219.0612],[13.7193,32.61279,265.3081],[13.70379,32.61139,224.9099],[13.57336,32.56075,203.0269],[13.52572,32.54819,396.9973],[13.4513,32.52861,231.8902],[13.40107,32.43523,276.7319],[13.38485,32.38317,275.7719],[13.35033,32.36392,323.1934],[13.23643,32.33374,227.2655],[13.2508,32.31738,254.0636],[13.3002,32.27043,315.8521],[13.36325,32.20163,440.0823],[13.39177,32.10982,660.7085],[13.39766,32.05078,743.9801],[13.45885,32.0521,592.3743],[13.61636,32.04807,435.8641],[13.67734,32.0567,399.5328],[13.77728,32.08094,376.7357],[13.83371,32.10055,347.9678],[13.89923,32.10181,278.0331],[13.96104,32.07711,309.3893],[13.99163,32.07401,296.0965],[14.06574,32.08647,236.9064],[14.12206,32.14256,173.0833],[14.28505,32.04605,180.8668],[14.36505,31.97714,137.6516],[14.47047,31.9456,118.4648],[14.60121,31.95882,82.1385],[14.66673,31.96776,72.0519],[14.68265,32.05623,106.4342],[14.71624,32.13809,95.4695],[14.755,32.17935,105.704],[14.75841,32.23852,100.1334],[14.73133,32.29353,103.4758],[14.72172,32.34511,80.7523],[14.74249,32.41559,27.7668],[14.7552,32.43898,0.0],[14.75582,32.44962,0.0],[14.75583,32.44968,0.0],[14.72682,32.45075,0.0],[14.70672,32.45628,0.0],[14.66293,32.47675,1.0749],[14.64763,32.48827,0.0],[14.6316,32.49567,0.0],[14.47874,32.5177,0.0]]]}}