{"type":"Feature","properties":{"GID_1":"LBY.5_1","GID_0":"LBY","country":"Libya","province":"AlJufrah","VARNAME_1":"Jufra|Jofra|","NL_NAME_1":"لجفرة","TYPE_1":"Shabiyah","ENGTYPE_1":"District","CC_1":"NA","HASC_1":"LY.JF","ISO_1":"LY-JU","name":"Al_Jufrah.province"},
"geometry":{"type": "MultiPolygon","coordinates": [[[[14.4696,29.1742,445.9461],[14.4654,29.112,462.5407],[14.4635,29.0465,467.4156],[14.4642,28.9894,472.6067],[14.4672,28.9385,487.4137],[14.4727,28.8932,486.6592],[14.4803,28.856,513.5646],[14.49,28.8258,505.9135],[14.5028,28.7999,516.5494],[14.5346,28.75,559.5377],[14.5745,28.6985,602.394],[14.6226,28.6452,559.2548],[14.6728,28.597,573.0396],[14.6957,28.5781,574.7932],[14.7237,28.5584,585.6127],[14.8859,28.4526,506.8167],[14.9871,28.3738,501.7973],[15.0556,28.1223,464.3306],[15.3097,28.1223,474.94],[15.4184,28.1826,499.1173],[15.4465,28.1948,503.2739],[15.4659,28.1994,527.1803],[15.6035,28.1976,515.1657],[15.6971,28.1906,516.6148],[15.7467,28.182,505.7115],[15.8013,28.1683,499.3433],[15.8506,28.1519,506.3591],[15.8859,28.1359,498.7977],[15.9219,28.1107,499.3055],[15.9737,28.0678,499.4091],[16.0215,28.0237,524.1303],[16.0493,27.9932,529.6772],[16.0553,27.9828,532.7285],[16.058,27.9727,535.3803],[16.0574,27.962,537.1107],[16.0534,27.9515,540.2603],[16.0421,27.9376,540.2872],[15.966,27.8262,533.8904],[15.9025,27.7263,543.7433],[15.9038,27.7283,543.9861],[15.9026,27.7263,543.7433],[15.9266,27.603,555.197],[15.9543,27.4775,554.9516],[15.9618,27.4207,548.5917],[15.963,27.3673,532.4477],[15.9513,27.2986,542.6389],[15.944,27.2323,535.598],[15.9434,27.2009,528.0341],[15.9467,27.1832,530.7914],[15.9694,27.1234,547.2166],[16.013,27.019,533.0996],[16.1293,26.8823,513.5569],[16.2249,26.7734,498.2439],[16.2993,26.6939,488.3215],[16.3477,26.6508,486.4773],[16.371,26.6276,484.4294],[16.3983,26.5964,479.7086],[16.4229,26.5636,480.4972],[16.4419,26.5334,462.1418],[16.455,26.5063,454.9117],[16.4607,26.4873,455.0192],[16.4656,26.4516,454.5797],[16.476,26.4163,464.1465],[16.4949,26.3684,478.4232],[16.5183,26.3214,484.5227],[16.5445,26.2788,492.8852],[16.5723,26.2422,505.4808],[16.6017,26.2114,502.1927],[16.6314,26.1877,504.3146],[16.6526,26.1751,513.0726],[16.6758,26.1647,508.6556],[16.8162,26.1104,529.7313],[16.9348,26.0706,533.1948],[17.0399,26.0409,572.5808],[17.105,26.0264,607.1187],[17.1634,26.0173,559.5347],[17.3638,26.0053,534.3865],[17.437,26.0043,523.0145],[17.4982,26.007,519.3198],[17.551,26.0134,476.6884],[17.5948,26.0233,451.8544],[17.6196,26.032,441.8434],[17.6406,26.0419,442.7905],[17.7608,26.1175,397.1328],[17.7977,26.1375,392.0378],[17.8321,26.1533,351.5726],[17.8718,26.168,378.8372],[17.9114,26.1788,369.1657],[17.9515,26.1863,363.1483],[17.9928,26.1905,346.5378],[18.0527,26.1911,339.6197],[18.2248,26.1816,296.8217],[18.296,26.1734,327.6637],[18.5181,26.1368,320.5588],[18.8674,26.1102,289.124],[18.9653,26.105,299.5595],[19.0087,26.1055,286.2597],[19.0134,27.018,283.0092],[19.0133,28.4128,151.2332],[18.6953,28.4512,186.9608],[18.4276,28.4516,188.5137],[18.3918,28.4567,165.854],[18.3469,28.4682,198.3474],[18.3096,28.4807,211.7195],[18.2739,28.4953,179.0341],[18.242,28.511,185.35],[18.2146,28.5275,195.2529],[18.1222,28.5963,258.7711],[17.9572,28.7304,279.3976],[17.9483,28.7397,280.1015],[17.9407,28.7506,277.1818],[17.929,28.778,269.972],[17.9219,28.8129,277.7959],[17.9196,28.8554,268.2456],[17.9221,28.9053,295.5315],[17.9293,28.962,323.8399],[17.9399,29.0192,375.3586],[17.9597,29.1085,313.2664],[17.9602,29.122,313.8213],[17.9582,29.1355,303.8027],[17.9498,29.1583,307.9484],[17.9353,29.1823,320.4525],[17.915,29.2086,350.8326],[17.8719,29.2574,322.4091],[17.8554,29.2829,348.217],[17.8484,29.3009,297.2112],[17.8452,29.3199,352.2112],[17.8455,29.341,352.9841],[17.8509,29.3844,346.175],[17.8497,29.3992,343.9886],[17.8458,29.4136,343.1614],[17.836,29.4338,341.2356],[17.8205,29.4558,352.2181],[17.7891,29.4917,371.2676],[17.7744,29.504,374.8497],[17.7496,29.5169,382.4988],[17.7177,29.527,336.7508],[17.6789,29.5339,288.282],[17.6376,29.5368,234.0136],[17.6007,29.4103,168.2472],[17.5089,29.405,112.6826],[17.5,29.4028,114.2823],[17.4821,29.3911,161.2037],[17.4422,29.3513,149.3052],[17.4215,29.3344,170.5693],[17.3983,29.3225,199.0753],[17.3752,29.3181,186.8714],[17.3619,29.3186,209.6355],[17.3484,29.3213,198.8105],[17.3198,29.3332,210.9008],[17.2975,29.3476,221.5165],[17.2598,29.3779,252.5494],[17.2337,29.3966,262.4787],[17.2055,29.4141,283.8177],[17.1784,29.4282,301.9089],[17.1301,29.4468,317.5839],[17.1069,29.4526,334.7958],[17.0843,29.4563,331.9962],[17.0613,29.4579,352.839],[17.0381,29.4569,390.0341],[17.0172,29.4537,351.3565],[16.9966,29.4477,332.3881],[16.9786,29.4398,330.4046],[16.962,29.4298,337.5967],[16.9268,29.399,343.8432],[16.8988,29.3792,417.5672],[16.8697,29.3626,420.4785],[16.8367,29.3469,438.8755],[16.7925,29.3298,409.1979],[16.7494,29.3173,423.7065],[16.7076,29.3093,474.2023],[16.671,29.3066,478.1075],[16.6334,29.3095,462.1078],[16.617,29.3136,474.7203],[16.6033,29.319,496.8734],[16.5911,29.3262,498.1606],[16.5453,29.3603,532.2215],[16.5076,29.3842,532.4877],[16.4649,29.4069,543.4382],[16.4243,29.4241,549.8662],[16.3906,29.4351,533.4496],[16.3576,29.4427,554.1857],[16.3256,29.4468,574.513],[16.294,29.4475,564.6549],[16.2713,29.4458,568.8412],[16.2486,29.442,500.8343],[16.2269,29.4363,454.6511],[16.2052,29.4284,449.2129],[16.1504,29.4012,425.0268],[15.9842,29.3132,226.3911],[15.9288,29.2855,245.2021],[15.8878,29.2691,258.9248],[15.8775,29.2672,263.8717],[15.8619,29.2675,267.1699],[15.8308,29.2704,275.3458],[15.7994,29.276,282.8627],[15.7706,29.2839,362.1341],[15.7436,29.2941,317.1259],[15.7104,29.3119,365.5642],[15.6626,29.3469,360.3644],[15.6295,29.3683,394.6975],[15.5997,29.384,378.3032],[15.5708,29.3955,369.4138],[15.5389,29.4036,345.6768],[15.4678,29.414,381.2856],[15.435,29.4171,347.9356],[15.4109,29.4166,378.9357],[15.3963,29.4141,321.4092],[15.3832,29.4094,321.2362],[15.3279,29.3781,325.3672],[15.2402,29.3359,404.3893],[15.2097,29.3433,453.6505],[15.1805,29.3466,457.3305],[15.1551,29.3457,448.9382],[15.1336,29.3406,431.7943],[15.1225,29.3354,441.8098],[15.0946,29.3173,438.4619],[15.0593,29.2976,433.077],[14.965,29.2513,448.4212],[14.933,29.2637,456.3049],[14.9094,29.2675,430.9209],[14.8999,29.2651,430.4333],[14.8879,29.254,414.0878],[14.8766,29.2475,403.2488],[14.8665,29.2451,400.6824],[14.8569,29.2464,413.4868],[14.8494,29.2514,418.1983],[14.8435,29.2598,406.7169],[14.8082,29.3433,453.8429],[14.7752,29.3394,424.5848],[14.7488,29.3343,406.9771],[14.7372,29.3304,424.2208],[14.7248,29.3223,416.6067],[14.6985,29.3,421.1395],[14.6643,29.2665,450.9817],[14.6133,29.2329,448.4646],[14.5893,29.2208,447.2375],[14.4696,29.1742,445.9461]]]]}}