{"type": "Feature","id": "2964","bbox": [14.40814,26.00376,19.17219,29.86195],"geometry": {"type": "Polygon","coordinates": [[[15.38514,29.61328,351.2508],[15.29915,29.64013,394.5941],[15.20251,29.65747,328.2679],[15.05193,29.70196,405.4125],[14.97586,29.77526,428.1018],[14.8999,29.83921,419.8231],[14.85422,29.86195,354.9242],[14.82269,29.80937,376.8518],[14.76306,29.73749,399.1166],[14.7366,29.6833,389.9181],[14.73856,29.60768,369.4177],[14.75727,29.53724,386.2752],[14.75944,29.45673,425.341],[14.75241,29.40534,465.7455],[14.712,29.35573,405.1778],[14.63242,29.31268,426.3077],[14.50664,29.23196,465.992],[14.41982,29.2091,447.4812],[14.41559,29.11039,463.1507],[14.40814,28.9881,492.4915],[14.42251,28.8785,495.3215],[14.46923,28.79889,534.9691],[14.527,28.71949,560.9774],[14.58643,28.67427,590.1458],[14.65991,28.622,564.338],[14.83975,28.5204,515.4083],[14.9587,28.40772,497.5663],[14.99188,28.2959,482.325],[14.99384,28.21774,481.0532],[15.01762,28.14485,466.3933],[15.12273,28.12952,463.7811],[15.24933,28.14138,468.2553],[15.38028,28.20696,503.7387],[15.50689,28.21859,518.3919],[15.58967,28.21484,517.0678],[15.72011,28.17502,510.6767],[15.79214,28.15637,499.3907],[15.87886,28.07919,496.2922],[15.89405,27.99628,514.2925],[15.87069,27.91535,521.6288],[15.831,27.81954,525.9985],[15.79659,27.74335,527.8329],[15.79586,27.7212,530.5821],[15.79483,27.69198,531.8336],[15.8678,27.59506,546.655],[15.96319,27.46659,552.8389],[15.99192,27.38378,537.1917],[16.02324,27.30588,545.4133],[16.0621,27.27206,577.1882],[16.12825,27.23849,584.5723],[16.19191,27.18532,591.1191],[16.25795,27.15173,596.8646],[16.28069,27.08346,597.7009],[16.27966,27.07517,598.4022],[16.27087,27.00267,596.8912],[16.26912,26.92926,531.9014],[16.27842,26.84622,526.0786],[16.32265,26.79281,485.4312],[16.37195,26.77366,491.3663],[16.4596,26.73279,492.5291],[16.51995,26.70147,514.4644],[16.57514,26.63093,508.6851],[16.56801,26.52815,495.9349],[16.62072,26.42578,471.8381],[16.72759,26.3262,493.0047],[16.80397,26.28504,519.7841],[16.88303,26.23408,521.1724],[16.9405,26.16342,521.6756],[17.09253,26.13468,581.9465],[17.26337,26.10094,568.5359],[17.40982,26.05229,536.5394],[17.49364,26.08417,530.0005],[17.56661,26.1258,459.2131],[17.69663,26.13554,410.6216],[17.77796,26.15747,383.5591],[17.90809,26.24284,370.2657],[17.95418,26.29411,371.2919],[18.0628,26.34516,349.8027],[18.20409,26.37645,330.7233],[18.32057,26.32943,290.9826],[18.41245,26.23354,274.9316],[18.51497,26.14977,317.222],[18.61512,26.13931,320.5841],[18.72881,26.11401,314.7052],[18.8856,26.0858,295.2675],[19.02078,26.05515,300.6928],[19.126,26.02229,297.8216],[19.16806,26.00376,300.0167],[19.16899,26.5083,280.5595],[19.16982,27.01287,259.2256],[19.17219,28.34742,203.4439],[19.00425,28.35824,165.1211],[19.00445,28.36018,161.397],[18.71858,28.43664,187.0886],[18.49926,28.50208,179.5003],[18.49926,28.48462,182.6931],[18.38465,28.51748,189.896],[18.22548,28.55534,227.5619],[18.08782,28.63962,259.5345],[17.98209,28.73305,275.3215],[17.94033,28.87294,262.2241],[17.89847,28.98479,302.053],[17.81362,29.07802,241.9501],[17.72866,29.16189,215.4895],[17.68639,29.25498,172.4081],[17.66541,29.32942,170.8121],[17.58015,29.39456,160.0131],[17.50522,29.39449,113.1158],[17.43029,29.35717,157.732],[17.33386,29.28261,213.5541],[17.23774,29.3103,230.1767],[17.08808,29.34715,281.0261],[16.98122,29.4305,327.7779],[16.85285,29.43929,385.8253],[16.74588,29.40159,446.8865],[16.55334,29.39123,548.0996],[16.43562,29.41841,552.8174],[16.41856,29.4088,568.2057],[16.37133,29.4366,539.8931],[16.27501,29.46383,562.0767],[16.13558,29.49996,337.1224],[16.03947,29.47122,240.2903],[15.94355,29.42386,238.5044],[15.87968,29.37676,262.9662],[15.74057,29.39399,289.816],[15.66502,29.46763,331.4942],[15.59991,29.55995,251.4487],[15.56745,29.5875,272.5714],[15.50296,29.61468,356.7962],[15.38514,29.61328,351.2508]]]}
,"properties": {"ISO3166-1-Alpha-3": "LBY","country": "Libya","fill": "#F0F","name": "Al Jufrah","area_km2": 115245.81,"hist_schema_id": "Elevation0-9000","hist_area_km2": {"50": 9.47,"75": 178.7,"100": 418.08,"125": 899.85,"150": 1006.37,"175": 1356.71,"200": 2035.1,"225": 3120.53,"250": 5435.36,"275": 9519.64,"300": 8235.82,"325": 5861.69,"350": 4934.39,"375": 4759.87,"400": 4957.86,"425": 4874.78,"450": 4860.43,"475": 5130.67,"500": 5838.26,"525": 8028.15,"550": 6720.05,"575": 4985.78,"600": 4738.03,"625": 3853.1,"650": 2394.41,"675": 1797.39,"700": 1621.24,"725": 1402.51,"750": 1257.15,"775": 1084.94,"800": 1075.27,"825": 761.57,"850": 671.09,"875": 566.75,"900": 534.1,"925": 209.38,"950": 80.84,"975": 21.62,"1000": 6.67,"1025": 1.92}}}