{"type":"Feature","properties":{"GID_1":"LBY.12_1","GID_0":"LBY","country":"Libya","province":"Benghazi","VARNAME_1":"Banghāzī","NL_NAME_1":"بنغازي‎","TYPE_1":"Shabiyah","ENGTYPE_1":"District","CC_1":"NA","HASC_1":"LY.BG","ISO_1":"NA","name":"Benghazi.province"},
"geometry":{"type": "MultiPolygon","coordinates": [[[[20.9058,32.6874,1.7341],[20.8907,32.6785,3.6626],[20.8826,32.6757,0.0],[20.8813,32.6735,2.3166],[20.8335,32.6551,0.5417],[20.819,32.6474,1.1434],[20.8132,32.6465,1.904],[20.801,32.6387,3.8391],[20.781,32.6318,2.2869],[20.7582,32.6204,4.2791],[20.7479,32.6162,3.1456],[20.7174,32.6085,1.5856],[20.7062,32.6021,0.7135],[20.6815,32.5957,0.4327],[20.6696,32.591,0.6486],[20.6696,32.5896,4.7054],[20.6676,32.5901,2.3775],[20.6604,32.5871,0.0],[20.6429,32.576,2.5765],[20.631,32.5729,0.0],[20.6246,32.5696,0.2086],[20.6204,32.5654,1.3415],[20.6187,32.5662,0.1763],[20.6118,32.561,1.802],[20.6087,32.5615,0.2292],[20.6043,32.5576,0.5322],[20.5874,32.5521,0.0],[20.5832,32.5482,1.7062],[20.5754,32.5468,0.0],[20.5629,32.5382,3.7619],[20.5593,32.5374,0.0],[20.5596,32.5357,0.0],[20.5524,32.5332,0.0],[20.5482,32.5285,5.0382],[20.5457,32.5288,0.0],[20.5435,32.5251,5.0508],[20.5413,32.5265,0.0],[20.5413,32.5246,0.0],[20.5371,32.5235,0.0],[20.536,32.5213,1.9811],[20.5287,32.5176,0.0],[20.5243,32.5132,1.4073],[20.5182,32.5121,0.0],[20.5165,32.5088,0.0],[20.5074,32.5046,0.0],[20.5057,32.5018,1.5831],[20.5018,32.5013,0.0],[20.5001,32.4987,0.7525],[20.4988,32.4993,0.0],[20.4654,32.4757,0.1246],[20.4451,32.4643,0.0],[20.4276,32.4518,0.0],[20.421,32.4487,0.0],[20.419,32.446,0.0],[20.4024,32.4374,0.0],[20.3596,32.406,0.0],[20.3485,32.3963,0.0],[20.3415,32.3874,0.0],[20.3382,32.3868,0.3146],[20.3251,32.3732,0.0],[20.3229,32.3729,0.0],[20.3124,32.3632,0.0],[20.3057,32.3593,0.0],[20.3046,32.3563,0.0],[20.2996,32.354,0.0],[20.2926,32.3471,0.0],[20.2896,32.3465,0.0],[20.2599,32.3235,0.0678],[20.2437,32.3132,0.0],[20.2246,32.296,0.0],[20.2057,32.2818,0.0],[20.1865,32.2618,0.2595],[20.1693,32.2465,0.0],[20.166,32.2407,0.0],[20.1632,32.2401,0.0],[20.1629,32.2379,0.0],[20.1485,32.2254,0.0],[20.149,32.2243,0.0],[20.1126,32.186,0.0],[20.1054,32.181,0.0],[20.101,32.1818,0.0],[20.0999,32.1776,0.0],[20.0885,32.1854,0.0],[20.0987,32.1751,0.0],[20.0943,32.169,0.0],[20.0915,32.1682,0.1771],[20.0932,32.166,1.2612],[20.0865,32.1549,0.0],[20.0807,32.1485,0.9612],[20.079,32.1443,0.0],[20.0812,32.1451,4.2941],[20.0815,32.144,4.2941],[20.0793,32.141,4.0316],[20.0751,32.139,0.0],[20.0685,32.1313,4.5822],[20.0615,32.1274,0.0],[20.0607,32.1237,7.5887],[20.0563,32.1215,2.005],[20.0485,32.1249,0.0],[20.0435,32.121,0.771],[20.029,32.1162,0.0],[20.0318,32.1154,0.0],[20.0429,32.1188,0.69],[20.0504,32.1229,0.7189],[20.0507,32.1199,1.1726],[20.0471,32.1207,0.0],[20.0499,32.1162,0.0],[20.0571,32.1162,1.6694],[20.0588,32.1146,3.1814],[20.0557,32.1118,0.0],[20.0582,32.1099,2.2698],[20.0568,32.1054,0.0],[20.0593,32.1051,0.0],[20.0624,32.1107,1.3854],[20.071,32.106,0.0],[20.0671,32.1018,1.8104],[20.0604,32.1001,1.9255],[20.0585,32.1035,0.7606],[20.0529,32.1074,2.2265],[20.0537,32.1124,1.4312],[20.0499,32.1157,0.0],[20.044,32.1171,0.0],[20.0407,32.1154,0.0],[20.0438,32.1079,0.0],[20.0424,32.1051,2.1439],[20.0399,32.1046,1.309],[20.0382,32.1104,0.0],[20.0346,32.1151,0.0],[20.0407,32.0971,0.0],[20.0418,32.0982,0.0],[20.0407,32.1015,0.5689],[20.0449,32.1026,1.4791],[20.0468,32.1001,0.0],[20.0432,32.0988,0.0],[20.0435,32.0976,0.0],[20.0496,32.1015,0.957],[20.0513,32.1015,0.0],[20.0526,32.099,0.2006],[20.051,32.0954,1.5736],[20.0474,32.0935,0.0],[20.0468,32.0901,1.9692],[20.0426,32.0935,0.0],[20.0446,32.0893,0.0],[20.0426,32.0865,0.0],[20.0443,32.0857,0.0],[20.0446,32.0793,0.0],[20.0385,32.0724,0.0],[20.0354,32.0638,0.0],[20.0299,32.0568,1.1527],[20.0174,32.0471,0.0],[20.0143,32.0415,0.0],[20.0004,32.0271,1.0799],[19.9799,32.0118,0.0],[19.9763,32.0043,0.2743],[19.9693,31.9982,0.3459],[19.9585,31.9921,0.0],[19.9562,31.986,0.0],[19.949,31.979,0.0],[19.9468,31.9749,0.0],[19.9418,31.9568,0.4712],[19.9421,31.9524,0.524],[19.9432,31.9499,0.7937],[19.9488,31.9471,2.6873],[19.9532,31.9376,1.1218],[19.9529,31.9343,0.0],[19.9463,31.9096,0.0],[19.9451,31.8979,0.0],[19.9463,31.8915,0.0],[19.9426,31.8738,0.0],[19.9312,31.8415,1.5294],[19.9254,31.8299,0.0],[19.9304,31.8013,1.6611],[19.9258,31.7751,0.0],[19.921,31.7593,0.0],[19.9215,31.7463,0.0],[19.9263,31.7365,1.3191],[19.9337,31.709,0.0],[19.9396,31.7043,0.0],[19.9529,31.6787,0.0],[19.9549,31.6701,0.0],[19.9543,31.6551,0.0],[19.9565,31.6482,0.0],[19.9579,31.634,0.4145],[19.965699999999998,31.606,1.0483],[19.9638,31.5968,0.0],[19.9651,31.5863,0.0],[19.9693,31.5732,0.0],[19.9768,31.5615,0.4603],[19.9821,31.5471,0.2255],[19.9846,31.5399,0.7682],[19.9862,31.524,0.0],[19.989,31.5185,0.0],[19.9896,31.4996,0.0],[19.991,31.4996,0.0],[19.9918,31.4915,0.0],[19.9918,31.4726,0.0],[19.9935,31.4713,0.0],[19.9937,31.474,0.0],[19.9974,31.4762,1.0685],[20.0038,31.4768,0.0],[20.0094,31.4735,0.0],[20.0099,31.469,0.0],[20.0126,31.4685,1.0473],[20.0154,31.4515,0.0],[20.0146,31.4349,0.0],[20.0163,31.4271,0.0],[20.0151,31.4235,0.0],[20.0171,31.4182,0.0],[20.0207,31.4163,0.0],[20.0293,31.3907,0.8972],[20.036,31.3865,0.0],[20.0385,31.3774,0.0],[20.0451,31.3721,0.0],[20.0454,31.3668,0.0],[20.0504,31.3632,0.0],[20.0515,31.3593,0.0],[20.0546,31.3579,0.0],[20.0588,31.3596,0.6032],[20.0654,31.359,0.5722],[20.0699,31.3543,0.0],[20.0746,31.3454,0.1743],[20.0851,31.3424,0.3089],[20.0876,31.3396,0.0],[20.0901,31.3324,0.0],[20.0932,31.3307,0.9142],[20.0979,31.3243,1.2101],[20.0985,31.3204,0.0],[20.1051,31.3112,0.0],[20.1068,31.306,0.0],[20.1119,31.3016,0.1273],[20.1151,31.2954,0.0],[20.1179,31.2849,0.7365],[20.1196,31.284,1.7253],[20.119,31.2818,0.0],[20.1296,31.2651,0.0],[20.1346,31.2493,1.8258],[20.1435,31.2415,0.0],[20.1474,31.2412,1.339],[20.1501,31.2365,0.0],[20.161,31.2055,2.8765],[20.354,31.1826,36.2188],[20.3685,31.0788,35.8138],[20.405,31.0548,48.5824],[20.5328,31.0172,80.3054],[20.72,30.9542,89.0298],[20.8187,30.9734,76.9367],[20.8486,30.981,74.321],[20.875,30.9836,46.1315],[20.9732,30.9882,74.8469],[21.1094,31.0228,67.7399],[21.3169,31.0614,102.2389],[21.2607,31.2562,99.2449],[21.2582,31.2729,98.2038],[21.2592,31.3289,107.0975],[21.2699,31.4551,104.5237],[21.2806,31.6241,114.1073],[21.0893,31.6479,125.7566],[21.0313,31.6568,128.2166],[21.0017,31.6632,134.2672],[20.9656,31.6795,145.9005],[20.9364,31.7005,159.6068],[20.9246,31.7128,168.9418],[20.915,31.726,191.127],[20.9079,31.7396,196.0687],[20.903,31.754,211.5471],[20.9004,31.7681,210.1811],[20.8998,31.783,209.2267],[20.9092,32.0202,366.9338],[20.9114,32.0481,400.8923],[20.9242,32.1311,464.4001],[20.886,32.1771,622.2051],[20.8769,32.3725,532.3069],[20.8892,32.5715,322.7659],[20.9058,32.6874,1.7341]]]]}}