{"type":"Feature","properties":{"ISO3166-1-Alpha-3":"LBY","country":"Libya","fill":"#F0F","id":"2984","name":"Benghazi"},
"geometry":{"type": "Polygon","coordinates": [[[20.68373,31.55924,144.9984],[20.54854,31.57973,143.8347],[20.50627,31.63117,120.8183],[20.46545,31.73793,119.4647],[20.41305,31.81713,103.9932],[20.35042,31.9287,207.7779],[20.30928,32.03531,166.1031],[20.31104,32.10905,171.1958],[20.35724,32.21899,132.9415],[20.43031,32.3055,114.3977],[20.5193,32.37327,277.9261],[20.56467,32.43706,265.3241],[20.57841,32.54729,0.0],[20.57841,32.54786,0.0],[20.57604,32.56269,0.0],[20.57603,32.56271,0.0],[20.56267,32.55785,0.0],[20.41676,32.45946,0.0],[20.40333,32.44733,0.0],[20.38551,32.43464,0.0],[20.34571,32.41991,0.0],[20.32545,32.40982,0.0],[20.27719,32.36083,0.0],[20.26173,32.33954,0.0],[20.07154,32.17642,0.0],[20.04802,32.14606,0.0],[19.9572,31.98273,1.5773],[19.94459,31.96752,0.0],[19.94011,31.95775,0.0],[19.94174,31.94693,0.0],[19.94581,31.93598,0.0],[19.94801,31.92597,0.0],[19.93434,31.88841,0.0],[19.91969,31.80467,0.0],[19.91725,31.75922,0.0],[19.92066,31.71772,0.0],[19.92693,31.69916,0.0],[19.94435,31.66144,0.0],[19.94801,31.64509,0.0],[19.9489,31.60102,0.0],[19.95484,31.55948,0.0],[20.02223,31.3968,0.0],[20.03834,31.37588,0.0],[20.0822,31.33662,0.0],[20.10328,31.30874,0.0],[20.1281,31.24299,0.0],[20.14165,31.22386,0.0],[20.15343,31.22843,0.7794],[20.15043,31.23719,0.0],[20.14764,31.24171,1.339],[20.13575,31.25174,2.3854],[20.13286,31.2607,15.0052],[20.18919,31.26282,6.3456],[20.29905,31.23169,28.517],[20.34308,31.17489,34.0464],[20.41749,31.08831,51.2571],[20.52353,31.02539,79.1804],[20.59371,31.007,84.0426],[20.73809,31.01379,65.0704],[20.93405,31.04614,64.6343],[21.31904,31.03506,102.1405],[21.28886,31.27626,102.5744],[21.24235,31.35571,104.4327],[21.22375,31.45774,102.5461],[21.21538,31.54105,97.6787],[21.14644,31.59771,102.2139],[21.09177,31.58484,111.2467],[20.97208,31.57766,133.8491],[20.84217,31.59368,120.9157],[20.766,31.59027,142.2512],[20.68373,31.55924,144.9984]]]}}