{"type": "Feature","bbox": [11.9775,32.2046,12.9602,32.8262],"geometry": {"type": "MultiPolygon","coordinates": [[[[12.7167,32.2046,216.4229],[12.7171,32.2116,207.43],[12.7291,32.2428,179.9322],[12.7552,32.2982,157.629],[12.7713,32.3265,149.1219],[12.8052,32.3782,137.1726],[12.8781,32.5106,113.4129],[12.8881,32.551,113.5663],[12.9122,32.6917,74.0428],[12.9324,32.7413,57.9745],[12.9602,32.8249,3.9925],[12.9546,32.823,4.7408],[12.9554,32.8262,0.0],[12.9532,32.8251,0.0],[12.9532,32.8224,2.0249],[12.941,32.8207,0.0],[12.9354,32.8179,5.1984],[12.9271,32.8176,0.0],[12.9138,32.8134,12.6445],[12.9093,32.8143,0.0],[12.8982,32.8107,0.6214],[12.8843,32.8097,0.0],[12.8733,32.8063,3.384],[12.814,32.7985,13.2309],[12.8054,32.799,0.0],[12.8037,32.7976,1.6967],[12.756,32.794,0.0],[12.7499,32.7949,0.0],[12.7426,32.7932,5.0075],[12.6821,32.7935,0.7583],[12.6812,32.7915,11.5522],[12.6796,32.7935,0.0],[12.6535,32.7916,7.527],[12.6496,32.7938,0.0],[12.6246,32.7926,2.7711],[12.619,32.7946,0.8754],[12.5787,32.7957,0.0],[12.579,32.7912,13.9851],[12.5606,32.7638,4.0896],[12.4603,32.6204,63.5764],[12.4005,32.542,87.8322],[12.3604,32.497,94.3477],[12.3219,32.4663,99.6519],[12.2521,32.4168,103.9366],[12.1259,32.3318,105.7036],[11.9775,32.2346,117.3474],[12.0572,32.2265,111.0509],[12.1147,32.2225,106.2617],[12.7167,32.2046,216.4229]]]]}
,"properties": {"GID_1": "LBY.11_1","GID_0": "LBY","country": "Libya","province": "AzZawiyah","VARNAME_1": "AzZāwiya|Zawiya","NL_NAME_1": "لزاوية","TYPE_1": "Shabiyah","ENGTYPE_1": "District","CC_1": "NA","HASC_1": "LY.ZW","ISO_1": "LY-ZA","name": "Az_Zawiyah.province","area_km2": 3207.023,"hist_schema_id": "Elevation0-9000","hist_area_km2": {"0": 56.655,"25": 261.41,"50": 204.445,"75": 334.726,"100": 890.599,"125": 899.858,"150": 257.009,"175": 129.457,"200": 72.602,"225": 41.028,"250": 25.661,"275": 14.616,"300": 8.931,"325": 6.654,"350": 2.278,"375": 0.825,"400": 0.251}}}