{"type": "Feature","id": "2975","bbox": [11.86267,32.23261,13.11096,32.87742],"geometry": {"type": "Polygon","coordinates": [[[13.07634,32.72121,59.0584],[13.11096,32.78296,61.5963],[13.10435,32.86394,12.9094],[13.10383,32.87066,0.0],[13.10321,32.87735,0.0],[13.1032,32.87742,0.0],[13.07447,32.86636,0.0],[12.82439,32.80435,0.0],[12.72983,32.79857,0.0],[12.57322,32.81257,0.0],[12.57311,32.81249,0.0],[12.55492,32.79932,0.0],[12.50139,32.65708,54.2487],[12.46211,32.6008,78.5165],[12.33716,32.53099,87.9276],[12.28641,32.47419,96.2156],[12.20849,32.44249,100.5192],[12.12208,32.40683,99.3685],[12.09759,32.35441,100.0072],[11.86267,32.30756,108.8581],[12.14327,32.30028,102.189],[12.2923,32.29705,139.5834],[12.40155,32.30371,150.8051],[12.49012,32.27281,194.5002],[12.57394,32.25284,301.8802],[12.64898,32.23261,203.2213],[12.68846,32.24033,183.2774],[12.736,32.25007,176.9661],[12.81961,32.2602,180.6699],[12.82974,32.33694,155.5411],[12.82333,32.40699,134.5618],[12.89775,32.56021,106.2926],[12.92555,32.60251,95.6683],[12.96927,32.66896,82.4594],[13.07324,32.7157,61.8918],[13.07634,32.72121,59.0584]]]}
,"properties": {"ISO3166-1-Alpha-3": "LBY","country": "Libya","fill": "#FF0","name": "Az Zawiyah","area_km2": 3387.821,"hist_schema_id": "Elevation0-9000","hist_area_km2": {"0": 126.043,"25": 341.755,"50": 312.538,"75": 428.455,"100": 986.326,"125": 808.289,"150": 220.217,"175": 106.243,"200": 28.86,"225": 14.591,"250": 8.659,"275": 3.317,"300": 1.667,"325": 0.825,"350": 0.036}}}