{"type":"Feature","properties":{"GID_1":"LBY.10_1","GID_0":"LBY","country":"Libya","province":"AnNuqatalKhams","VARNAME_1":"an-Niqatal-Hams|NigatalKhums","NL_NAME_1":"لنقاطالخمس","TYPE_1":"Shabiyah","ENGTYPE_1":"District","CC_1":"NA","HASC_1":"LY.NK","ISO_1":"LY-NQ","name":"An_Nuqatal_Khams.province"},
"geometry":{"type": "MultiPolygon","coordinates": [[[[11.9775,32.2346,117.3474],[12.1259,32.3318,105.7036],[12.2521,32.4168,103.9366],[12.3219,32.4663,99.6519],[12.3604,32.497,94.3477],[12.4005,32.542,87.8322],[12.4603,32.6204,63.5764],[12.5606,32.7638,4.0896],[12.579,32.7912,13.9851],[12.5787,32.7957,0.0],[12.5582,32.7965,1.2628],[12.5554,32.7993,0.0],[12.5407,32.7996,1.0766],[12.5343,32.8018,1.4951],[12.5276,32.8007,1.4738],[12.5254,32.8032,0.0],[12.5215,32.8037,0.157],[12.5176,32.8015,4.2094],[12.514,32.8049,0.297],[12.5046,32.8068,3.1859],[12.4971,32.8054,9.8015],[12.4949,32.8071,0.0],[12.4899,32.8065,5.0653],[12.4882,32.8085,1.6995],[12.4793,32.8079,1.9679],[12.4754,32.8093,0.6069],[12.4746,32.8115,0.0],[12.4724,32.8101,1.9191],[12.4721,32.8124,0.0],[12.4682,32.8143,0.0],[12.4626,32.8135,0.0],[12.4632,32.8112,2.6909],[12.4618,32.811,0.4433],[12.4585,32.8129,0.8287],[12.4549,32.8121,0.6006],[12.4476,32.8154,3.3371],[12.4426,32.8143,0.0],[12.4399,32.816,0.0],[12.4237,32.8174,0.0],[12.4226,32.8187,0.8646],[12.416,32.8154,21.8577],[12.3726,32.8171,1.2998],[12.3368,32.824,3.3239],[12.2849,32.8404,1.8558],[12.2707,32.8471,0.0],[12.261,32.8493,1.3532],[12.2513,32.8568,0.0],[12.2454,32.8582,3.6934],[12.2407,32.8626,0.0],[12.2368,32.8632,4.2931],[12.2301,32.8676,0.2376],[12.2143,32.8682,0.8536],[12.2079,32.871,0.3163],[12.1968,32.8807,0.6995],[12.1962,32.8832,1.0482],[12.1976,32.8851,0.0],[12.194,32.8857,0.2112],[12.1921,32.8885,0.3131],[12.1782,32.8887,2.8206],[12.1785,32.8901,1.9115],[12.1757,32.8904,4.3014],[12.169,32.8954,1.6],[12.1476,32.9012,1.6339],[12.1451,32.9043,0.2318],[12.1238,32.914,0.6289],[12.1213,32.9188,0.0],[12.1226,32.9218,0.4358],[12.1213,32.9226,0.0],[12.1199,32.921,0.855],[12.1207,32.9232,0.0],[12.1187,32.9249,2.1814],[12.1254,32.9226,0.0],[12.1246,32.9243,0.0],[12.1187,32.9274,0.0],[12.1171,32.9257,1.5539],[12.1124,32.9265,0.7926],[12.1074,32.9293,0.8609],[12.1046,32.9335,0.1042],[12.0949,32.9343,0.0],[12.0893,32.9385,0.26],[12.071,32.9457,0.4264],[12.0518,32.9557,0.4274],[12.0493,32.959,0.0],[12.0365,32.9665,0.948],[12.0257,32.9785,0.0],[12.0021,32.9901,0.7299],[12.0026,32.9915,0.0],[12.0004,32.9932,0.0],[11.9974,32.9935,0.2606],[11.9721,33.006,0.0],[11.961,33.0151,0.0],[11.9557,33.0163,0.2106],[11.9438,33.024,0.0],[11.9346,33.0279,0.3535],[11.9104,33.0449,0.154],[11.8743,33.0615,0.1089],[11.8515,33.0693,0.1083],[11.8249,33.0754,0.8572],[11.8287,33.0849,0.0],[11.8263,33.0846,0.0],[11.8271,33.0835,0.0],[11.8243,33.0768,0.2062],[11.8165,33.0754,-0.1278],[11.806,33.0835,0.0],[11.7993,33.0854,-0.6004],[11.7812,33.0957,0.0],[11.7401,33.1093,0.0],[11.7224,33.1126,0.0],[11.699,33.1238,0.0],[11.6901,33.1254,0.4183],[11.6893,33.1224,0.0],[11.6935,33.1237,0.0],[11.6996,33.121,0.6233],[11.6963,33.1196,0.0],[11.6976,33.1171,0.2427],[11.7071,33.1132,0.0421],[11.7118,33.1065,0.0],[11.7163,33.1043,0.0],[11.721,33.1068,0.0892],[11.729,33.1076,0.546],[11.7432,33.1035,0.0],[11.7463,33.1046,0.8142],[11.7612,33.0993,0.3645],[11.7682,33.0993,0.0],[11.7751,33.096,-0.3294],[11.7746,33.0943,-0.0083],[11.7701,33.0937,-0.2713],[11.7729,33.0899,0.0],[11.7776,33.0896,-1.1042],[11.7743,33.0921,0.0332],[11.7763,33.0932,-1.268],[11.776,33.0954,-1.1099],[11.7815,33.0946,-0.2159],[11.7829,33.0921,-0.0198],[11.7854,33.0918,0.408],[11.7937,33.0854,-0.271],[11.8034,33.0824,0.7242],[11.806,33.0751,-0.0156],[11.8101,33.0713,0.2818],[11.7715,33.0765,0.0],[11.7685,33.0749,2.3102],[11.7632,33.0771,0.0],[11.741,33.0788,0.0],[11.7388,33.0804,0.2323],[11.7368,33.079,0.8297],[11.7371,33.0849,0.0],[11.7357,33.079,0.6447],[11.6921,33.0887,0.6915],[11.684,33.0885,1.4203],[11.6621,33.0935,0.6832],[11.6574,33.0929,0.5963],[11.6551,33.0954,0.1732],[11.6532,33.0937,2.2046],[11.6451,33.0974,0.0],[11.639,33.1024,0.4661],[11.6368,33.1124,0.0],[11.6354,33.1126,0.0],[11.6354,33.111,0.0],[11.6326,33.1118,0.0],[11.6276,33.1104,0.7175],[11.6271,33.1124,0.0],[11.6226,33.1115,0.6438],[11.6113,33.1154,0.892],[11.6082,33.1196,1.46],[11.6099,33.1257,0.0],[11.6035,33.1301,0.5062],[11.6004,33.1351,3.1203],[11.5904,33.1418,0.2994],[11.5801,33.1538,0.0],[11.5735,33.1576,2.3246],[11.571,33.161,0.9537],[11.5712,33.1629,0.0],[11.5662,33.1635,0.7391],[11.5645,33.1654,1.5644],[11.5602,33.1557,3.1019],[11.5617,33.1479,6.5286],[11.5509,33.1145,-2.5486],[11.5321,33.0861,4.4977],[11.5289,33.0744,3.6609],[11.526,33.0543,-0.6819],[11.5236,33.014,-1.0656],[11.5213,33.0064,-0.9984],[11.5283,33.0018,-0.9236],[11.5298,32.9896,-0.6831],[11.5169,32.9769,-0.4664],[11.5035,32.9305,0.7632],[11.4892,32.8928,0.4868],[11.4961,32.8779,1.3206],[11.5077,32.8432,2.5698],[11.5009,32.8261,2.7215],[11.4958,32.8053,4.2878],[11.4888,32.7659,7.1683],[11.4977,32.7329,13.3426],[11.4986,32.7189,15.8564],[11.4943,32.6875,17.8167],[11.4888,32.6677,21.3718],[11.49,32.6564,24.696],[11.4947,32.6431,19.6525],[11.5085,32.6134,24.2372],[11.52,32.6035,25.1163],[11.531,32.5993,27.1503],[11.542,32.5912,29.7758],[11.5647,32.5648,39.1496],[11.5771,32.5563,54.9844],[11.5898,32.5401,62.4193],[11.5983,32.5236,61.9147],[11.5273,32.4028,96.6782],[11.5253,32.4015,97.4017],[11.5837,32.3493,96.7521],[11.638,32.3047,98.8406],[11.6798,32.2748,105.2359],[11.7097,32.2589,105.5751],[11.7208,32.2561,107.539],[11.7505,32.2527,111.7638],[11.8872,32.2451,126.7132],[11.9775,32.2346,117.3474]]]]}}