{"type": "Feature","id": "2974","bbox": [11.4492,32.30573,12.57322,33.18123],"geometry": {"type": "Polygon","coordinates": [[[12.57322,32.81257,0.0],[12.34832,32.83267,0.0],[12.30388,32.84309,0.0],[12.22486,32.87592,0.0],[12.16066,32.91169,0.0],[12.12241,32.92133,0.4358],[12.08074,32.95783,0.0],[11.84702,33.08283,0.0],[11.73927,33.11298,0.0],[11.69109,33.13597,0.0],[11.70777,33.11717,0.4275],[11.77296,33.09935,0.0],[11.79347,33.08076,0.0],[11.7566,33.09252,0.0],[11.63575,33.10871,0.1976],[11.60304,33.12149,1.5527],[11.58766,33.13231,3.5715],[11.57496,33.15795,0.0],[11.56023,33.16592,2.0346],[11.52589,33.17695,0.0],[11.50514,33.18122,0.0],[11.50511,33.18123,0.0],[11.50605,33.13638,4.7594],[11.47742,33.04121,-1.1552],[11.47494,33.02584,-0.0974],[11.47442,32.96987,12.9765],[11.45654,32.9021,1.113],[11.46378,32.79846,5.4572],[11.4492,32.69302,20.8156],[11.44993,32.63796,25.0644],[11.47039,32.59928,37.6688],[11.53736,32.54352,57.338],[11.56062,32.50758,69.3736],[11.56413,32.46549,76.6649],[11.54635,32.43427,87.2776],[11.52609,32.41786,94.228],[11.5338,32.41384,93.7702],[11.59312,32.36893,98.3609],[11.64314,32.32245,99.3496],[11.70071,32.30573,99.7183],[11.86267,32.30756,108.8581],[12.09759,32.35441,100.0072],[12.12208,32.40683,99.3685],[12.20849,32.44249,100.5192],[12.28641,32.47419,96.2156],[12.33716,32.53099,87.9276],[12.46211,32.6008,78.5165],[12.50139,32.65708,54.2487],[12.55492,32.79932,0.0],[12.57311,32.81249,0.0],[12.57322,32.81257,0.0]]]}
,"properties": {"ISO3166-1-Alpha-3": "LBY","country": "Libya","fill": "#F0F","name": "An Nuqat al Khams","area_km2": 6271.564,"hist_schema_id": "Elevation0-9000","hist_area_km2": {"0": 1808.809,"25": 1436.644,"50": 1369.097,"75": 1082.514,"100": 571.973,"125": 2.526}}}