{"type": "Feature","bbox": [9.3996,24.1996,11.6231,27.8546],"geometry": {"type": "MultiPolygon","coordinates": [[[[11.6146,24.2451,1072.5906],[11.6231,24.2816,1003.9528],[11.5955,24.3268,1067.0378],[11.5377,24.5058,1061.5723],[11.4811,24.6877,1018.6548],[11.4569,24.8012,800.9418],[11.4067,25.055,786.3458],[11.3922,25.1376,750.0287],[11.3854,25.1867,748.0948],[11.386,25.2639,739.4222],[11.3929,25.496,1128.3514],[11.3586,25.5646,741.4366],[11.3309,25.6339,700.6445],[11.3131,25.6951,692.4033],[11.3077,25.723,688.1943],[11.3049,25.7485,682.9969],[11.3051,25.7827,678.1414],[11.3111,25.8131,685.1499],[11.3421,25.8885,689.079],[11.3778,25.9872,669.0933],[11.4238,26.1241,629.4818],[11.4763,26.2893,568.6449],[11.3954,26.2389,585.2018],[11.3556,26.4453,612.4896],[11.2972,26.6633,600.053],[11.2529,26.8913,539.2166],[11.1496,27.3031,524.505],[11.131,27.4257,547.1815],[11.1149,27.4623,495.5371],[11.0989,27.4753,483.1694],[11.0679,27.4928,516.3574],[11.0115,27.5125,487.1042],[10.9575,27.5246,479.5357],[10.7796,27.5715,483.2728],[10.5978,27.6076,535.9159],[10.4421,27.6434,446.2458],[10.1041,27.7518,467.0544],[10.0771,27.7635,512.489],[10.0582,27.7749,519.733],[9.9498,27.8546,541.0966],[9.9453,27.8473,539.038],[9.9434,27.8379,482.1358],[9.9463,27.8,478.6519],[9.9401,27.7744,489.6711],[9.943,27.7317,493.9678],[9.9258,27.6977,497.8171],[9.9242,27.6781,491.0097],[9.9013,27.636,497.829],[9.8883,27.6073,512.6583],[9.8717,27.5953,519.2972],[9.8655,27.5854,519.1279],[9.8227,27.5786,552.1853],[9.8198,27.5767,511.2073],[9.8169,27.5712,522.2125],[9.8176,27.5649,545.2838],[9.8246,27.561,522.3582],[9.8786,27.5617,536.7284],[9.8675,27.5429,546.3246],[9.8664,27.5385,523.9226],[9.8684,27.516,513.186],[9.8625,27.5033,519.1971],[9.8465,27.4977,505.4568],[9.8307,27.4886,497.6577],[9.8241,27.4753,495.9117],[9.8141,27.4621,497.7502],[9.8141,27.4575,504.4317],[9.8171,27.4495,602.2155],[9.8103,27.437,533.8983],[9.8108,27.4207,509.8242],[9.7996,27.4041,507.0494],[9.7951,27.3944,519.9556],[9.792,27.3809,544.4024],[9.7873,27.3692,548.9878],[9.7845,27.3529,508.7426],[9.7953,27.3539,503.7837],[9.7905,27.3215,514.0936],[9.7859,27.3058,489.2791],[9.7826,27.2652,509.6065],[9.785,27.2495,506.4964],[9.7929,27.2285,509.8893],[9.7984,27.1751,521.6436],[9.8014,27.1682,519.5737],[9.8185,27.1477,528.597],[9.8178,27.1371,530.5289],[9.823,27.1279,530.7097],[9.8233,27.1218,532.689],[9.8328,27.0943,537.2568],[9.8339,27.0799,542.2341],[9.8323,27.0718,544.3506],[9.8374,27.0588,547.6344],[9.8384,27.046,547.702],[9.849,27.0024,568.1257],[9.851,26.9878,579.1866],[9.8548,26.9792,576.5239],[9.8591,26.9514,595.4203],[9.8629,26.9416,601.0399],[9.8707,26.9295,600.8174],[9.889,26.9037,598.4709],[9.8961,26.8969,601.736],[9.8974,26.8893,586.2472],[9.9042,26.879,579.1041],[9.9084,26.8733,575.4589],[9.9245,26.861,572.2188],[9.9027,26.7425,580.2574],[9.9139,26.6461,555.0084],[9.8639,26.5191,564.3367],[9.513,26.3843,607.4514],[9.4773,26.3068,620.5005],[9.4653,26.2882,626.4993],[9.4567,26.253,603.3865],[9.4488,26.2434,598.6878],[9.3996,26.1948,597.7553],[9.5382,26.0019,790.5593],[10.0327,25.3587,675.5118],[10.0363,25.1534,836.1374],[10.0354,25.0235,699.5891],[10.0348,25.0029,724.3162],[10.0323,24.9961,788.7177],[10.0336,24.9763,800.3148],[10.0376,24.9624,793.7682],[10.0608,24.9378,718.7051],[10.0686,24.9219,691.9689],[10.0845,24.903,698.6956],[10.0947,24.8879,700.6199],[10.1008,24.872,705.028],[10.1064,24.845,711.6912],[10.1374,24.8111,726.0438],[10.1537,24.7832,692.364],[10.1726,24.7427,695.3394],[10.1777,24.7254,700.3054],[10.1814,24.7188,700.538],[10.1877,24.7144,701.5013],[10.1985,24.7,704.727],[10.1967,24.6866,712.7317],[10.198,24.6815,743.2021],[10.2079,24.6687,712.4622],[10.2169,24.6497,719.793],[10.2274,24.6453,728.3681],[10.2384,24.6367,739.6023],[10.2526,24.6288,751.9209],[10.2654,24.6244,771.9705],[10.2703,24.6188,768.8228],[10.28,24.6118,786.4282],[10.2884,24.6004,829.3445],[10.2941,24.5984,837.9392],[10.3031,24.5982,845.0549],[10.3274,24.5686,874.9047],[10.3454,24.5546,870.2906],[10.3574,24.5369,859.6139],[10.4008,24.5358,902.0699],[10.4146,24.531,997.064],[10.451599999999999,24.5324,893.9283],[10.4576,24.533,907.9779],[10.4851,24.5426,986.6462],[10.5092,24.538,928.3696],[10.5276,24.5375,992.8506],[10.5443,24.533,1079.3618],[10.5758,24.542,1038.9154],[10.5829,24.5382,1073.7045],[10.5886,24.5404,1007.0903],[10.5877,24.5502,1121.7078],[10.5916,24.5554,1177.3119],[10.6031,24.5606,1147.9084],[10.6153,24.5727,1117.3488],[10.621,24.572,1110.0913],[10.6333,24.5662,1066.8549],[10.6438,24.5697,986.7097],[10.6525,24.5682,961.2189],[10.6693,24.5707,947.6996],[10.7066,24.5721,910.3721],[10.7192,24.5702,898.8185],[10.7242,24.5675,894.2769],[10.7285,24.563,907.0529],[10.7297,24.5551,932.2974],[10.7328,24.5483,888.7153],[10.7407,24.5373,874.1183],[10.7593,24.5238,843.543],[10.7675,24.5096,875.5696],[10.7996,24.5262,899.5277],[10.795,24.5318,836.9451],[10.7936,24.5433,866.5948],[10.8174,24.5639,793.0984],[10.8273,24.5688,789.5778],[10.8339,24.5697,808.9431],[10.8478,24.568,769.6103],[10.8817,24.5543,777.2795],[10.8988,24.5545,776.7593],[10.9502,24.5318,749.7231],[10.9538,24.529,755.1326],[10.9866,24.4854,777.7073],[11.0182,24.4634,846.6392],[11.0315,24.4502,895.0553],[11.0403,24.4333,850.5064],[11.0522,24.4242,840.6079],[11.0661,24.4217,864.1588],[11.0782,24.4101,863.5681],[11.097,24.4067,827.6136],[11.1249,24.3971,789.8129],[11.1376,24.391,788.9099],[11.423,24.1996,745.8886],[11.4515,24.2131,770.8958],[11.4851,24.22,796.7953],[11.5031,24.2257,800.9306],[11.5254,24.238,834.9457],[11.5467,24.2464,872.8582],[11.5662,24.2515,897.0858],[11.5824,24.2521,933.2309],[11.6034,24.2638,968.8219],[11.6146,24.2451,1072.5906]]]]}
,"properties": {"GID_1": "LBY.14_1","GID_0": "LBY","country": "Libya","province": "Ghat","VARNAME_1": "Gat","NL_NAME_1": "غات‎","TYPE_1": "Shabiyah","ENGTYPE_1": "District","CC_1": "NA","HASC_1": "LY.GH","ISO_1": "NA","name": "Ghat.province","area_km2": 52270.82,"hist_schema_id": "Elevation0-9000","hist_area_km2": {"425": 143.58,"450": 885.67,"475": 1829.67,"500": 2752.39,"525": 3272.44,"550": 3724.12,"575": 4549.56,"600": 5686.99,"625": 5330.43,"650": 4453.79,"675": 3655.27,"700": 3258.65,"725": 2564.35,"750": 2017.36,"775": 1641.07,"800": 1187.08,"825": 859.95,"850": 590.87,"875": 447.66,"900": 393.99,"925": 349.38,"950": 307.21,"975": 275.71,"1000": 273.56,"1025": 247.6,"1050": 282.18,"1075": 278.89,"1100": 260.78,"1125": 216.44,"1150": 163.26,"1175": 116.98,"1200": 69.58,"1225": 66.57,"1250": 38.8,"1275": 26.87,"1300": 22.21,"1325": 17.22,"1350": 7.34,"1375": 3.12,"1400": 1.7,"1425": 0.52}}}