{"type": "Feature","id": "2968","bbox": [9.3778,24.32634,11.48098,27.81864],"geometry": {"type": "Polygon","coordinates": [[[11.37474,26.21747,587.1489],[11.35892,26.35767,575.3783],[11.32265,26.48782,625.7459],[11.26012,26.74826,554.3181],[11.22074,26.95314,564.3519],[11.19418,27.09277,566.6699],[11.164,27.32588,556.5199],[11.10685,27.43623,506.5227],[11.02024,27.48933,490.1046],[10.89177,27.5315,508.3736],[10.65757,27.56961,487.1097],[10.46523,27.61842,548.6298],[10.27258,27.66705,485.136],[10.07859,27.74347,527.3126],[9.93503,27.81717,469.1865],[9.93127,27.81864,472.4364],[9.86336,27.61925,499.5614],[9.84661,27.5993,476.4082],[9.8185,27.58573,510.9941],[9.7939,27.56974,492.7346],[9.79711,27.54891,527.8762],[9.81168,27.52654,526.2028],[9.8216,27.50569,503.8058],[9.81364,27.48649,509.5942],[9.77055,27.44422,541.4958],[9.75628,27.42303,535.8397],[9.74305,27.36412,502.0704],[9.72652,27.32469,504.9944],[9.72187,27.30846,501.4563],[9.72135,27.29188,503.0413],[9.8061,27.02512,553.2061],[9.82553,26.92058,664.4075],[9.83514,26.90099,668.6973],[9.8461,26.89195,635.2998],[9.89085,26.86958,581.4169],[9.90666,26.85748,590.6624],[9.91059,26.84312,580.2097],[9.88547,26.73661,571.2344],[9.88258,26.70178,577.7554],[9.89405,26.67398,549.4377],[9.89633,26.65279,552.5994],[9.85457,26.52438,568.749],[9.83576,26.50422,590.445],[9.4826,26.35255,627.1994],[9.48136,26.33261,627.1921],[9.47764,26.31555,623.7264],[9.46886,26.30103,627.3428],[9.43475,26.27199,635.3059],[9.41646,26.23225,594.586],[9.40251,26.21618,595.6031],[9.3778,26.16895,601.7754],[9.40116,26.11339,620.1285],[9.54131,25.93635,793.4579],[9.69396,25.74349,848.0375],[9.81674,25.58847,674.4576],[9.9695,25.3954,686.8907],[10.00795,25.33143,707.6057],[10.02138,25.26802,738.0604],[10.02552,25.1364,859.54],[10.02996,24.99506,795.588],[10.03203,24.85634,824.2029],[10.04453,24.82962,834.5041],[10.19336,24.74994,695.4882],[10.21217,24.72286,760.7764],[10.22974,24.62994,733.4631],[10.24225,24.59511,848.3693],[10.26033,24.57664,808.0947],[10.3918,24.47998,836.364],[10.41051,24.47329,832.3244],[10.45019,24.47693,827.2942],[10.56678,24.51646,1022.3715],[10.67736,24.55385,954.7675],[10.69907,24.55612,929.1562],[10.72067,24.5523,890.8468],[10.91135,24.4945,774.9893],[11.15,24.42233,755.7506],[11.46724,24.32634,1128.892],[11.48098,24.463,1103.1614],[11.45546,24.5939,858.098],[11.33402,24.79678,713.7905],[11.33732,24.98509,1167.6405],[11.34001,25.19211,721.0657],[11.33257,25.38933,724.9518],[11.39954,25.55144,1116.7793],[11.33464,25.6377,702.21],[11.30367,25.74922,682.2659],[11.31606,25.94127,663.2158],[11.35323,26.08996,617.1359],[11.37474,26.21747,587.1489]]]}
,"properties": {"ISO3166-1-Alpha-3": "LBY","country": "Libya","fill": "#00F","name": "Ghat","area_km2": 51433.11,"hist_schema_id": "Elevation0-9000","hist_area_km2": {"425": 143.54,"450": 869.0,"475": 1743.65,"500": 2775.04,"525": 3342.03,"550": 3815.89,"575": 4490.49,"600": 5658.66,"625": 5265.45,"650": 4457.25,"675": 3651.58,"700": 3223.75,"725": 2335.25,"750": 1888.01,"775": 1599.63,"800": 1194.55,"825": 905.25,"850": 648.58,"875": 469.86,"900": 391.65,"925": 351.65,"950": 306.17,"975": 270.1,"1000": 258.29,"1025": 220.26,"1050": 197.66,"1075": 170.16,"1100": 175.11,"1125": 144.2,"1150": 120.54,"1175": 101.56,"1200": 63.83,"1225": 66.59,"1250": 38.8,"1275": 26.93,"1300": 22.21,"1325": 17.22,"1350": 7.34,"1375": 3.12,"1400": 1.7,"1425": 0.52}}}