{"type": "Feature","bbox": [21.9857,30.9712,23.2456,32.9385],"geometry": {"type": "MultiPolygon","coordinates": [[[[23.2308,32.1593,102.6364],[23.2456,32.2157,0.0],[23.2368,32.2315,3.4626],[23.2268,32.2429,2.1003],[23.224,32.251,0.7896],[23.2204,32.2535,7.9543],[23.2215,32.2621,0.0],[23.2174,32.2651,0.0],[23.2154,32.2743,0.0],[23.2118,32.2757,0.0876],[23.2093,32.2804,0.0458],[23.2032,32.2807,0.1244],[23.1832,32.294,0.0167],[23.1776,32.2962,0.0],[23.1724,32.2949,-0.1289],[23.1671,32.2957,1.0732],[23.1649,32.304,0.0504],[23.1626,32.3071,0.0],[23.159,32.3085,0.0235],[23.1499,32.3065,-0.0447],[23.1363,32.3118,-0.0478],[23.1301,32.3118,-0.0798],[23.126,32.3154,0.0199],[23.1193,32.3132,0.0],[23.111,32.3132,0.0107],[23.1001,32.3185,0.0376],[23.0985,32.3179,0.0111],[23.0985,32.3146,0.3842],[23.096,32.3118,0.1867],[23.096,32.3176,0.865],[23.0985,32.3196,0.0],[23.0893,32.3282,0.0254],[23.089,32.3335,0.0],[23.0846,32.3393,-0.021],[23.0854,32.3471,0.0],[23.0832,32.3501,0.0014],[23.0843,32.3557,0.0],[23.0818,32.3576,0.02],[23.0821,32.3654,0.0432],[23.0865,32.3724,-0.2079],[23.0899,32.3737,0.0],[23.0901,32.3785,0.0394],[23.0963,32.3849,-0.062],[23.0965,32.3882,-0.1073],[23.0993,32.3899,0.0],[23.1018,32.3974,0.0136],[23.101,32.3999,-0.046],[23.0996,32.3999,-0.046],[23.101,32.4032,-0.0631],[23.0999,32.4071,0.0],[23.0954,32.4085,0.4678],[23.0893,32.4149,0.0],[23.0896,32.4199,0.0],[23.094,32.419,0.3045],[23.0963,32.4207,0.5069],[23.0946,32.4318,0.1406],[23.0971,32.4335,0.0304],[23.106,32.4318,0.1532],[23.1126,32.4257,0.1082],[23.1151,32.4193,0.1602],[23.1213,32.4124,0.0],[23.1262,32.4085,0.0],[23.1332,32.406,0.3417],[23.1326,32.4024,-0.2377],[23.129,32.401,0.0234],[23.1221,32.4046,0.1608],[23.1132,32.4051,0.0],[23.1118,32.4035,0.0],[23.114,32.4004,0.0],[23.1188,32.399,-0.2407],[23.1221,32.3954,-0.182],[23.1229,32.394,-0.182],[23.1204,32.3929,0.0],[23.131,32.3915,0.0707],[23.1326,32.3907,0.2754],[23.1329,32.3882,0.0],[23.1374,32.3949,0.136],[23.136,32.3985,0.4012],[23.1385,32.4049,0.0],[23.1346,32.424,0.0],[23.1385,32.4276,0.3829],[23.1437,32.4268,0.0],[23.1463,32.4279,0.1706],[23.1457,32.4329,1.0765],[23.1485,32.4335,0.2864],[23.1476,32.4374,2.308],[23.1499,32.4382,0.0],[23.149,32.4429,0.0],[23.1518,32.4476,0.3628],[23.1568,32.4485,0.0],[23.1593,32.4565,0.0],[23.1546,32.4629,2.0552],[23.1563,32.4668,0.3508],[23.1521,32.4663,2.5313],[23.1496,32.4712,0.0],[23.1449,32.4718,3.3253],[23.1454,32.4779,0.0],[23.1346,32.4818,0.5774],[23.1357,32.476,3.1047],[23.1321,32.4751,15.7152],[23.1326,32.4735,5.2453],[23.1349,32.4735,7.4011],[23.1349,32.4704,13.9292],[23.1299,32.4749,15.2773],[23.131,32.4765,7.9536],[23.1299,32.4799,0.5531],[23.1282,32.4787,2.9863],[23.1204,32.4796,0.1517],[23.1226,32.4813,0.1817],[23.1265,32.4804,0.169],[23.1301,32.4832,0.1321],[23.1301,32.4879,0.0],[23.1276,32.4879,2.9447],[23.1296,32.4901,0.0],[23.1257,32.4915,3.1607],[23.1262,32.4932,0.0],[23.1232,32.4954,1.1192],[23.1221,32.4985,0.0],[23.121,32.4982,0.1108],[23.1218,32.496,2.395],[23.1196,32.4965,4.6602],[23.1176,32.4949,7.5863],[23.1179,32.4965,4.6602],[23.1096,32.5015,0.6306],[23.1104,32.5035,0.0],[23.1087,32.5035,2.9012],[23.1079,32.5062,0.0],[23.1026,32.5043,2.5626],[23.1024,32.5062,3.0559],[23.1076,32.5085,0.0],[23.1046,32.5146,1.1846],[23.1074,32.5182,0.8471],[23.1035,32.5193,0.3671],[23.1021,32.5218,0.0529],[23.1026,32.5249,0.0],[23.0996,32.5249,0.0624],[23.1046,32.5332,0.0514],[23.0987,32.5307,0.0],[23.1007,32.5285,0.0441],[23.0985,32.5268,0.0451],[23.0957,32.5313,0.4554],[23.0904,32.5337,4.0001],[23.091,32.5349,2.805],[23.1001,32.5318,0.0],[23.1043,32.5346,0.2505],[23.1079,32.5321,0.0],[23.1076,32.5368,0.0],[23.104,32.5421,0.4216],[23.1043,32.5465,0.0673],[23.1013,32.551,0.0],[23.1021,32.5526,0.1038],[23.099,32.5554,1.2661],[23.0987,32.5713,0.4973],[23.1032,32.5768,0.3976],[23.1054,32.5762,0.0],[23.1049,32.5776,1.0975],[23.1074,32.5796,0.4367],[23.1113,32.5793,0.0654],[23.1118,32.5818,0.0831],[23.116,32.5854,0.0],[23.1196,32.5857,0.0],[23.1174,32.586,0.1008],[23.1182,32.591,-0.0182],[23.1238,32.5974,0.8885],[23.126,32.5979,0.0],[23.1251,32.6013,0.0],[23.1257,32.6029,0.0],[23.1274,32.6026,0.0],[23.1274,32.6057,0.0],[23.1257,32.606,0.7762],[23.1243,32.609,0.0],[23.1268,32.6087,0.0],[23.1265,32.6126,1.2072],[23.1282,32.6126,0.0],[23.1282,32.6146,0.0],[23.126,32.6157,0.0],[23.1243,32.6193,0.0],[23.1221,32.6196,0.0],[23.1221,32.6221,0.0],[23.1185,32.6229,0.9763],[23.1182,32.6274,0.0],[23.1132,32.631,0.4202],[23.1093,32.6321,1.6387],[23.1051,32.636,0.0],[23.0996,32.6307,0.0],[23.1015,32.6349,0.0],[23.1004,32.6371,0.0],[23.0876,32.6401,5.3257],[23.0835,32.6385,18.5985],[23.0763,32.6432,15.5997],[23.0729,32.6432,16.3028],[23.0707,32.6413,26.5441],[23.0651,32.6424,0.0],[23.0646,32.6413,40.9734],[23.0637,32.6432,4.2116],[23.0615,32.6421,24.8703],[23.0599,32.6437,53.6038],[23.0615,32.6443,3.1334],[23.0574,32.6457,20.4136],[23.0563,32.6476,0.0],[23.0496,32.6474,7.9275],[23.0329,32.654,0.0],[23.0315,32.651,29.7204],[23.0293,32.6557,0.0],[23.0101,32.654,4.1833],[23.0093,32.6507,75.8876],[23.0071,32.649,18.2426],[22.999,32.6515,0.0],[22.9968,32.6485,4.1474],[22.9982,32.6518,31.9732],[23.0051,32.651,0.0],[23.0057,32.6524,4.2345],[23.0015,32.6543,0.0],[22.9918,32.6532,96.7441],[22.9804,32.6574,0.0],[22.9771,32.6568,96.0643],[22.9674,32.6593,51.7516],[22.9593,32.6632,16.8621],[22.9551,32.6618,5.6653],[22.9532,32.6657,0.0],[22.9413,32.6665,76.1435],[22.9368,32.6682,39.6096],[22.9354,32.6704,13.4092],[22.9271,32.6679,4.1329],[22.9257,32.6646,7.1387],[22.9251,32.6676,3.8417],[22.9268,32.6712,0.0],[22.9138,32.6718,0.0],[22.9112,32.6751,13.2511],[22.8971,32.6779,9.813],[22.8901,32.6832,1.8444],[22.876,32.6876,27.8571],[22.876,32.6893,0.0],[22.8729,32.6896,0.0],[22.8724,32.691,0.0],[22.8657,32.6929,0.0],[22.8638,32.6921,4.6872],[22.8582,32.6965,0.0],[22.8568,32.696,0.0],[22.8551,32.6988,0.0],[22.8499,32.6999,49.666],[22.846,32.7049,2.1853],[22.8349,32.7062,14.148],[22.8338,32.7088,0.0],[22.8265,32.7101,9.2443],[22.821,32.714,0.0],[22.8185,32.7132,0.6685],[22.8179,32.7154,0.0],[22.8149,32.7146,25.2394],[22.8126,32.7171,0.0],[22.809,32.7165,26.4718],[22.8082,32.7179,0.0],[22.806,32.7168,29.4735],[22.7999,32.7204,1.8192],[22.7935,32.7199,28.291],[22.7926,32.7212,0.0],[22.7907,32.7204,21.6845],[22.7768,32.7229,21.5746],[22.7746,32.7249,0.0],[22.7713,32.7246,27.4158],[22.7554,32.7307,0.0],[22.7476,32.7313,0.0],[22.7473,32.7332,0.0],[22.7371,32.7335,44.2702],[22.7254,32.7371,0.0],[22.7118,32.7438,0.0],[22.6957,32.7479,5.7694],[22.6951,32.7493,0.0],[22.694,32.7479,5.7694],[22.6863,32.7485,11.3975],[22.6865,32.7499,0.0],[22.684,32.751,0.0],[22.6738,32.7518,26.5601],[22.6729,32.7535,7.3275],[22.6676,32.7529,22.7722],[22.6571,32.7571,0.7718],[22.6557,32.7596,0.7145],[22.6574,32.7624,0.0],[22.654,32.7613,0.3752],[22.653199999999998,32.7632,0.0],[22.6588,32.7629,0.0],[22.6526,32.7679,0.0],[22.6496,32.7682,7.2561],[22.6443,32.776,0.0],[22.6343,32.7735,2.8556],[22.6065,32.7735,5.3176],[22.5949,32.7762,7.6401],[22.5926,32.7788,0.0],[22.589,32.7796,2.8563],[22.586,32.7863,1.9268],[22.5665,32.789,0.2844],[22.5674,32.7904,0.2844],[22.5624,32.7926,0.0],[22.5649,32.7988,0.0],[22.561,32.8007,0.0],[22.5563,32.8007,0.0],[22.5568,32.8037,0.0],[22.5476,32.8015,5.7075],[22.5462,32.8015,5.7075],[22.5465,32.8029,0.0],[22.5388,32.8024,0.0],[22.5349,32.7999,15.6596],[22.5335,32.8013,1.9362],[22.5246,32.8021,1.8041],[22.5238,32.8063,0.357],[22.5193,32.8051,5.9691],[22.4926,32.8115,1.8418],[22.4899,32.8149,0.8827],[22.4865,32.8151,1.8007],[22.4782,32.8229,0.0],[22.4649,32.831,0.0],[22.4385,32.8421,4.3473],[22.4346,32.8471,0.0],[22.4351,32.8513,0.0],[22.4313,32.8524,0.0],[22.4296,32.8507,0.0],[22.4263,32.8507,4.4169],[22.424,32.8537,1.6672],[22.4188,32.8529,3.9489],[22.4126,32.8576,0.0],[22.396,32.864,0.0],[22.3901,32.869,0.0],[22.3785,32.8707,0.0],[22.3779,32.8724,0.0],[22.3729,32.8726,0.0],[22.3688,32.8707,1.4683],[22.3615,32.8721,0.0],[22.3607,32.8701,20.046],[22.3593,32.8718,5.6955],[22.3526,32.8704,23.5258],[22.3499,32.8715,0.0],[22.3454,32.8679,20.744],[22.3385,32.8718,3.041],[22.3354,32.8704,23.285],[22.3296,32.8749,2.2943],[22.3268,32.8729,12.6215],[22.3229,32.8754,5.4818],[22.3182,32.8746,7.3839],[22.319,32.8776,0.0],[22.3171,32.8776,0.0],[22.3151,32.8763,2.7335],[22.3104,32.8768,0.6947],[22.3068,32.8721,8.8076],[22.3043,32.8732,4.6352],[22.2943,32.8715,11.5239],[22.2943,32.8735,2.2744],[22.2915,32.874,0.0],[22.2907,32.8715,18.9465],[22.2888,32.8713,10.8268],[22.284,32.874,0.0],[22.281,32.8729,12.4304],[22.2796,32.8749,0.0],[22.279,32.8737,24.1802],[22.2718,32.8746,0.0],[22.2704,32.8732,2.5933],[22.2682,32.8746,0.0],[22.2596,32.8746,0.0],[22.2599,32.8721,19.2139],[22.2551,32.874,0.0],[22.2532,32.8718,23.6321],[22.2526,32.8743,0.0],[22.2432,32.8732,4.0213],[22.2393,32.8746,0.0],[22.2229,32.8749,7.4535],[22.2215,32.8763,0.0],[22.216,32.8757,1.615],[22.2079,32.879,0.0],[22.1932,32.8807,15.7071],[22.1924,32.8835,3.3331],[22.1896,32.8832,15.6864],[22.1904,32.8843,0.0],[22.1846,32.8879,0.0],[22.1826,32.8874,9.0487],[22.1832,32.8896,1.7019],[22.181,32.8896,8.5958],[22.1721,32.8974,3.1546],[22.171,32.9021,0.0],[22.1676,32.904,0.0],[22.1682,32.9093,5.9727],[22.1757,32.9151,0.0],[22.1782,32.9199,0.0],[22.1763,32.9257,0.0],[22.1715,32.9293,0.0],[22.1674,32.9293,0.0],[22.1621,32.9326,0.0],[22.1518,32.9338,0.0],[22.149,32.9376,0.0],[22.1468,32.9368,5.01],[22.1463,32.9385,1.8794],[22.1429,32.9374,0.3382],[22.1429,32.936,5.8331],[22.1371,32.9368,2.4224],[22.1299,32.934,0.0],[22.126,32.9362,0.0],[22.1137,32.9349,0.0],[22.1137,32.9335,4.3462],[22.1101,32.9324,0.0],[22.1101,32.9307,4.071],[22.1051,32.9299,0.0],[22.1026,32.926,0.4756],[22.0951,32.9249,0.74],[22.090699999999998,32.9221,0.0],[22.0904,32.9201,6.8074],[22.0876,32.9199,0.0],[22.0871,32.9179,5.9437],[22.0776,32.9154,0.5182],[22.0751,32.9126,1.3551],[22.0715,32.9121,0.0],[22.071,32.9101,12.8781],[22.0666,32.9104,13.9359],[22.0953,32.7543,667.1699],[22.0904,32.7106,699.8088],[22.0766,32.6389,685.6808],[22.0717,32.5634,621.678],[22.0894,32.3024,364.3098],[22.092,32.2218,247.1982],[22.0839,32.1401,183.9084],[22.0656,32.0058,152.9456],[22.0153,31.6823,148.2533],[21.9978,31.5788,151.1781],[21.9882,31.531,146.5311],[21.9857,31.4897,148.8694],[21.9878,31.4418,143.2413],[21.9926,31.4074,131.3587],[22.0171,31.328,141.6383],[22.0666,31.1813,121.2444],[22.0668,31.1758,119.0339],[22.1564,31.1769,109.9162],[22.4899,31.1671,141.0625],[22.5571,31.1426,142.7605],[22.6037,31.1329,140.9884],[22.6696,31.1278,145.2721],[22.7056,31.1105,120.7601],[22.7334,31.094,106.2266],[22.754,31.0798,105.4193],[22.8048,31.0392,119.9671],[22.839,31.0198,118.2117],[22.9223,31.0055,104.0271],[23.0107,30.9712,125.6271],[23.0306,31.0567,139.804],[23.0292,31.088,142.1137],[23.0449,31.2911,159.2364],[23.0556,31.3427,159.3907],[23.0604,31.5134,170.8442],[23.0814,31.6122,172.5727],[23.0905,31.6792,179.8441],[23.0952,31.7339,189.0148],[23.0925,31.776,192.0824],[23.1008,31.8246,170.4863],[23.1279,31.9049,188.3013],[23.1796,32.0457,193.0428],[23.1988,32.1155,147.8571],[23.2077,32.1257,147.6546],[23.2308,32.1593,102.6364]]],
[[[23.2343,32.3763,0.0],[23.2315,32.3754,0.0],[23.2368,32.3721,2.9581],[23.2382,32.3754,0.0],[23.2343,32.3763,0.0]]],
[[[23.1668,32.3935,-0.015],[23.164,32.3929,0.0],[23.1657,32.3899,0.0],[23.169,32.3907,0.0],[23.1668,32.3935,-0.015]]]]}
,"properties": {"GID_1": "LBY.13_1","GID_0": "LBY","country": "Libya","province": "Darnah","VARNAME_1": "Darana|Darna|Derna","NL_NAME_1": "درنة","TYPE_1": "Shabiyah","ENGTYPE_1": "District","CC_1": "NA","HASC_1": "LY.DA","ISO_1": "LY-DR","name": "Darnah.province","area_km2": 18517.55,"hist_schema_id": "Elevation0-9000","hist_area_km2": {"0": 166.94,"25": 250.4,"50": 209.6,"75": 253.9,"100": 357.9,"125": 2448.85,"150": 6803.42,"175": 2637.46,"200": 1087.4,"225": 442.69,"250": 420.15,"275": 310.56,"300": 334.12,"325": 361.33,"350": 370.8,"375": 380.09,"400": 335.32,"425": 258.78,"450": 172.34,"475": 131.65,"500": 127.57,"525": 109.57,"550": 101.63,"575": 107.42,"600": 97.09,"625": 79.44,"650": 80.67,"675": 62.47,"700": 13.07,"725": 4.84}}}