{"type": "Feature","bbox": [19.0087,19.5082,25.0,27.0175],"geometry": {"type": "MultiPolygon","coordinates": [[[[21.0076,21.0436,564.2315],[21.0821,21.0074,557.0167],[21.1017,20.9958,555.1932],[21.2158,20.9389,547.1061],[21.2214,20.9344,544.9006],[21.2633,20.9154,543.2302],[21.3608,20.865,534.4238],[21.4803,20.8067,534.6038],[21.4987,20.7943,532.238],[21.5049,20.7935,534.6985],[21.5487,20.7699,526.7697],[21.5543,20.7683,525.8708],[21.6233,20.7339,538.5583],[21.6387,20.7261,546.8469],[21.6521,20.7169,555.8257],[21.6809,20.7051,567.6945],[21.74,20.6737,582.1904],[21.754,20.6679,587.1985],[21.7668,20.6594,590.4966],[21.7828,20.654,588.4233],[21.8015,20.6419,574.5875],[21.8245,20.6331,575.7413],[21.8299,20.6275,573.3369],[21.878,20.6033,552.0987],[21.8901,20.5989,541.2473],[21.9081,20.5875,535.3806],[21.9137,20.5848,535.3665],[21.919,20.5845,534.8321],[21.9392,20.5716,540.7891],[21.9588,20.5629,557.5266],[22.0883,20.4938,538.9442],[22.1608,20.457,547.554],[22.1677,20.4559,549.7719],[22.1941,20.4397,597.3989],[22.2001,20.4379,600.062],[22.3011,20.385,563.3215],[22.3052,20.3842,567.8691],[22.3179,20.3754,592.3661],[22.342,20.3656,593.0488],[22.3532,20.3577,581.4092],[22.4388,20.3138,568.1766],[22.4487,20.3104,572.48],[22.4722,20.2964,593.8652],[22.4761,20.2963,599.5997],[22.5179,20.2715,612.5652],[22.5837,20.2385,643.0955],[22.5899,20.2374,659.6528],[22.623,20.2181,651.8234],[22.6489,20.2071,632.2405],[22.6611,20.1991,626.3618],[22.7216,20.1689,638.2441],[22.7659,20.1445,634.8068],[22.7953,20.1321,591.3008],[22.8029,20.1259,579.7946],[23.0469,20.0,708.0448],[23.0575,19.9931,711.1649],[23.0911,19.9773,731.468],[23.1273,19.9581,742.2853],[23.1327,19.9537,740.6359],[23.1459,19.9471,732.8149],[23.1515,19.9461,728.1003],[23.2865,19.8775,664.6266],[23.3033,19.8665,666.4496],[23.3129,19.8629,665.6022],[23.4027,19.8161,688.8593],[23.4059,19.8131,688.8517],[23.7575,19.6327,671.3467],[23.7783,19.6203,695.4807],[23.9351,19.5377,690.1309],[24.0,19.5082,773.8439],[24.0,20.0,676.2876],[25.0,20.0,647.131],[25.0,27.0077,208.5079],[19.0134,27.0175,283.0092],[19.0087,26.1055,286.2597],[19.0109,22.0281,1696.6396],[20.3507,21.3735,630.0274],[20.4856,21.3023,644.9282],[20.6688,21.2101,594.3098],[21.0076,21.0436,564.2315]]]]}
,"properties": {"GID_1": "LBY.6_1","GID_0": "LBY","country": "Libya","province": "AlKufrah","VARNAME_1": "al-Kufra|Kufra|Kofra|Cufra","NL_NAME_1": "لكفرة","TYPE_1": "Shabiyah","ENGTYPE_1": "District","CC_1": "NA","HASC_1": "LY.KU","ISO_1": "LY-KF","name": "Al_Kufrah.province","area_km2": 430838.25,"hist_schema_id": "Elevation0-9000","hist_area_km2": {"150": 1437.13,"175": 6298.87,"200": 11171.7,"225": 18384.76,"250": 20021.29,"275": 19409.7,"300": 15824.1,"325": 13240.03,"350": 13291.79,"375": 15604.46,"400": 17952.14,"425": 20783.88,"450": 20702.49,"475": 20177.07,"500": 23860.34,"525": 30118.75,"550": 30121.32,"575": 26653.57,"600": 21754.47,"625": 19324.11,"650": 14320.3,"675": 12258.68,"700": 10148.17,"725": 6594.63,"750": 5451.3,"775": 4121.1,"800": 2626.2,"825": 1508.63,"850": 954.38,"875": 548.03,"900": 416.64,"925": 385.6,"950": 356.1,"975": 313.72,"1000": 306.95,"1025": 275.61,"1050": 240.48,"1075": 228.19,"1100": 206.69,"1125": 215.44,"1150": 218.15,"1175": 222.39,"1200": 185.22,"1225": 164.66,"1250": 161.71,"1275": 144.12,"1300": 136.19,"1325": 123.3,"1350": 108.84,"1375": 113.25,"1400": 114.06,"1425": 119.73,"1450": 110.76,"1475": 112.1,"1500": 93.5,"1525": 87.63,"1550": 77.04,"1575": 68.87,"1600": 81.89,"1625": 85.64,"1650": 88.96,"1675": 99.69,"1700": 65.13,"1725": 45.69,"1750": 34.6,"1775": 33.89,"1800": 33.76,"1825": 30.46,"1850": 29.46,"1875": 30.77,"1900": 31.21,"1925": 29.62,"1950": 23.01,"1975": 18.73,"2000": 17.06,"2025": 15.96,"2050": 17.22,"2075": 16.55,"2100": 12.54,"2125": 10.46,"2150": 8.86,"2175": 5.19}}}