{"type":"Feature","properties":{"ISO3166-1-Alpha-3":"LBY","country":"Libya","fill":"#F00","id":"2965","name":"Al Kufrah"},
"geometry":{"type": "Polygon","coordinates": [[[24.98124,21.99535,724.5023],[24.98124,22.28717,619.8818],[24.98124,22.57898,764.2451],[24.98124,22.8708,658.7833],[24.98124,23.16267,558.9268],[24.98124,23.45444,629.3518],[24.98124,23.74628,597.6895],[24.98124,24.03815,548.9795],[24.98124,24.32996,622.1044],[24.98124,24.62173,656.6629],[24.98124,24.91357,498.9536],[24.98124,25.20544,604.2757],[24.98124,25.49726,430.3245],[24.98124,25.78897,369.0056],[24.98124,26.08084,295.1536],[24.98124,26.37271,260.3966],[24.98124,26.66452,222.8151],[24.98124,26.85996,212.0559],[24.98124,27.04924,203.7758],[24.98073,27.04923,203.7758],[24.63088,27.04135,215.747],[24.26181,27.03305,217.8765],[23.67683,27.02388,207.7572],[23.09185,27.01468,192.5344],[22.50729,27.01117,161.3846],[21.92283,27.00763,148.2426],[21.32297,27.01473,173.8284],[20.72311,27.02181,203.3857],[20.28613,27.01858,224.4239],[19.84926,27.01535,234.7158],[19.50954,27.01411,239.225],[19.16982,27.01287,259.2256],[19.16899,26.5083,280.5595],[19.16806,26.00376,300.0167],[19.17033,25.50661,345.6984],[19.1725,25.00948,409.1801],[19.17467,24.51235,445.4646],[19.17685,24.01523,598.5567],[19.17902,23.5181,626.9138],[19.18119,23.02097,829.036],[19.18346,22.52385,1433.051],[19.18563,22.02669,2132.4766],[19.18563,22.01618,2084.4116],[19.18563,22.00563,2139.9436],[19.18573,21.99512,2007.2126],[19.18573,21.9846,1926.0554],[19.18573,21.97406,1895.5697],[19.18584,21.96354,1835.7899],[19.18584,21.95303,1823.9358],[19.18584,21.94249,1811.8518],[19.18584,21.86418,1297.4524],[19.28764,21.81392,1009.6346],[19.41115,21.75289,875.2362],[19.53465,21.69186,771.2671],[19.65826,21.63088,804.0867],[19.78167,21.5699,691.4296],[19.90528,21.50887,710.4464],[20.02878,21.44794,661.7322],[20.15229,21.38691,650.0884],[20.2758,21.32593,648.0359],[20.39941,21.26501,623.4236],[20.52281,21.20393,623.8134],[20.64642,21.1429,595.5411],[20.76993,21.08197,583.0981],[20.89333,21.02094,578.8118],[21.01694,20.95996,569.7573],[21.14034,20.89904,545.4843],[21.26395,20.83801,538.2478],[21.38746,20.77703,531.2963],[21.51097,20.71605,523.6763],[21.63447,20.65497,537.4619],[21.75808,20.59399,549.1669],[21.88149,20.53306,531.4215],[22.0051,20.47203,622.8701],[22.1286,20.41105,544.2751],[22.25211,20.35008,556.9457],[22.37562,20.28912,564.452],[22.49912,20.22809,612.5095],[22.62263,20.16709,638.8151],[22.74614,20.10606,633.5536],[22.86964,20.04511,754.8508],[22.99315,19.9841,705.6519],[23.11676,19.92315,755.2639],[23.24016,19.8621,681.8216],[23.36377,19.80117,692.9963],[23.48728,19.74017,747.4751],[23.61079,19.67911,737.7742],[23.73429,19.61813,662.1656],[23.8578,19.55718,692.0242],[23.98131,19.49612,773.7317],[23.98131,19.62103,694.1987],[23.98131,19.74582,758.9667],[23.98131,19.8706,731.2743],[23.98131,19.99542,669.2366],[24.14243,19.99542,777.7624],[24.22791,19.99532,772.2672],[24.34087,19.99529,735.4275],[24.47461,19.99519,754.9231],[24.59915,19.99506,766.3177],[24.72131,19.99503,784.0892],[24.86725,19.99496,674.1934],[24.96802,19.99496,659.9983],[24.97019,19.99519,660.1687],[24.97236,19.99542,663.6628],[24.97453,19.99565,655.9251],[24.9768,19.99596,655.8694],[24.97773,19.99746,659.5405],[24.97866,19.99901,665.1432],[24.97959,20.00051,667.0988],[24.98052,20.00206,662.3395],[24.98052,20.00839,659.3358],[24.98052,20.12001,675.6682],[24.98062,20.2151,707.3521],[24.98062,20.31023,745.5656],[24.98073,20.40532,742.1015],[24.98083,20.50035,780.4817],[24.98083,20.62494,795.9137],[24.98083,20.74954,727.1678],[24.98093,20.87413,684.025],[24.98093,20.99872,674.7689],[24.98093,21.12331,629.7629],[24.98104,21.24785,610.7739],[24.98114,21.37244,599.7683],[24.98114,21.49704,595.7103],[24.98114,21.62158,596.8788],[24.98114,21.74617,571.195],[24.98124,21.87081,962.9803],[24.98124,21.99535,724.5023]]]}}