{"type":"Feature","properties":{"ISO3166-1-Alpha-3":"LBY","country":"Libya","fill":"#00F","id":"2882","name":"Ghadamis"},
"geometry":{"type": "Polygon","coordinates": [[[11.70071,32.30573,99.7183],[11.64314,32.32245,99.3496],[11.59312,32.36893,98.3609],[11.5338,32.41384,93.7702],[11.52609,32.41786,94.228],[11.5139,32.408,96.8463],[11.44403,32.36849,104.26],[11.18234,32.26222,134.5104],[10.87322,32.1367,191.0652],[10.84593,32.11179,200.5587],[10.80562,32.03236,243.3039],[10.77286,32.00451,293.6713],[10.73658,31.98539,396.6151],[10.7031,31.96218,377.782],[10.68356,31.95702,367.6608],[10.66527,31.96322,455.0701],[10.64729,31.97195,479.5953],[10.62848,31.97412,397.5129],[10.60595,31.95361,438.9588],[10.59757,31.87351,497.0396],[10.58455,31.84028,460.264],[10.54238,31.80664,445.4615],[10.52554,31.77207,408.3633],[10.51355,31.75703,405.8463],[10.49887,31.74432,400.2754],[10.48254,31.7331,387.8187],[10.42777,31.7146,373.4047],[10.31542,31.71584,359.7313],[10.26395,31.6805,362.1754],[10.19646,31.57859,457.4245],[10.13259,31.51756,403.5321],[10.11688,31.49441,405.7975],[10.10624,31.42919,393.7249],[10.1081,31.41183,391.2737],[10.18272,31.24078,379.4875],[10.21321,31.13536,376.679],[10.24483,31.07816,382.4419],[10.24618,31.05955,383.5754],[10.24059,31.02116,404.7177],[10.24504,30.98571,387.8327],[10.27015,30.91563,370.664],[10.26974,30.88215,387.2169],[10.25393,30.84179,383.4653],[10.19222,30.73125,377.4731],[10.10117,30.6417,379.716],[9.99565,30.49452,354.5012],[9.87131,30.35515,349.3725],[9.84579,30.34228,320.7737],[9.77292,30.3381,288.6688],[9.74347,30.33133,288.9818],[9.51971,30.22891,294.1316],[9.28654,30.11713,316.4914],[9.31,30.08437,327.8168],[9.36949,30.02279,334.3941],[9.42173,29.96871,344.3333],[9.54968,29.80232,406.9058],[9.66771,29.60832,477.1041],[9.74693,29.36843,528.9152],[9.82615,29.12853,619.6885],[9.84827,28.97573,658.6649],[9.85126,28.786,697.3701],[9.82728,28.61865,703.2661],[9.87013,28.63298,707.4036],[9.92284,28.6573,698.3946],[10.00159,28.68094,698.5367],[10.09151,28.70512,694.1254],[10.13791,28.71727,687.9775],[10.23155,28.68525,651.6812],[10.3749,28.61404,662.9204],[10.44074,28.62458,639.0605],[10.52714,28.66055,625.0748],[10.61654,28.69417,632.9042],[10.70584,28.73013,631.0072],[10.76155,28.77184,636.8708],[10.78025,28.78494,635.5843],[10.8526,28.82739,667.2404],[10.90986,28.84465,667.6632],[10.93828,28.78724,676.007],[10.95378,28.71458,651.6195],[11.01631,28.64156,622.5098],[11.14488,28.62278,602.6166],[11.19098,28.59298,589.1542],[11.32389,28.5449,592.3599],[11.38755,28.54513,562.5676],[11.45463,28.58461,531.2632],[11.49235,28.60332,518.6564],[11.58733,28.59009,520.9023],[11.6233,28.59154,527.8931],[11.72479,28.6103,538.9059],[11.78877,28.55169,507.4861],[11.89791,28.52901,505.5693],[11.93181,28.56947,531.9515],[11.9501,28.59216,544.2401],[11.95186,28.59505,539.1727],[11.92158,28.776,712.1541],[11.89739,28.85919,702.793],[11.8083,28.96831,680.9534],[11.72934,29.08701,668.0812],[11.72986,29.36648,651.4807],[11.69007,29.57933,630.1803],[11.64945,29.81061,624.02],[11.61968,30.03274,618.5994],[11.61214,30.23686,591.1407],[11.61627,30.41334,569.8474],[11.58992,30.54243,608.4017],[11.5986,30.59834,596.8328],[11.65079,30.64635,612.5951],[11.73296,30.76016,632.6201],[11.86732,30.93103,609.6334],[11.96302,31.08089,547.0916],[11.94566,31.08681,551.4747],[11.89502,31.16699,563.5411],[11.85295,31.24737,544.262],[11.83672,31.33594,553.6674],[11.8452,31.46232,593.3348],[11.8329,31.56205,599.9193],[11.83735,31.68075,616.0848],[11.85554,31.78132,641.5571],[11.83972,31.8549,618.1367],[11.82277,31.96177,274.0126],[11.84003,32.08807,156.4792],[11.86267,32.1886,128.6266],[11.86267,32.30756,108.8581],[11.70071,32.30573,99.7183]]]}}