{"type":"Feature","properties":{"GID_1":"LBY.2_1","GID_0":"LBY","country":"Libya","province":"AlJabalalAkhdar","VARNAME_1":"JabalalAkhdar|Jabalal-Akhḍar|","NL_NAME_1":"لجبلالأخضر","TYPE_1":"Shabiyah","ENGTYPE_1":"District","CC_1":"NA","HASC_1":"LY.JK","ISO_1":"LY-JA","name":"Al_Jabalal_Akhdar.province"},
"geometry":{"type": "MultiPolygon","coordinates": [[[[20.178,31.2036,5.2981],[20.178,31.2036,5.2981],[20.1792,31.2036,5.2981],[20.1779,31.2038,5.6317],[20.178,31.2036,5.2981]]],
[[[22.0684,32.9007,126.2841],[22.0666,32.9104,13.9359],[22.0646,32.9104,11.1027],[22.0554,32.9085,0.0],[22.0563,32.9068,8.1922],[22.041,32.9085,0.0],[22.031,32.9057,1.5025],[22.0285,32.9074,0.0],[22.0254,32.9051,5.1562],[22.0251,32.9079,0.0],[22.0171,32.9038,0.0],[22.0085,32.9068,1.2467],[21.9929,32.9024,2.1298],[21.9846,32.9035,5.9881],[21.9818,32.9013,3.149],[21.9776,32.9035,4.232],[21.965,32.9018,3.0527],[21.9626,32.9029,0.1639],[21.9607,32.9007,0.3677],[21.9554,32.9012,0.0],[21.9535,32.8993,2.2084],[21.9435,32.8965,4.2286],[21.9313,32.8982,1.2951],[21.9304,32.8965,7.285],[21.9226,32.8937,7.1053],[21.9154,32.8968,1.5603],[21.9104,32.8957,0.5281],[21.9054,32.8979,0.0],[21.8946,32.8971,1.3892],[21.889,32.9004,1.8627],[21.8849,32.899,0.7192],[21.8776,32.9018,0.3431],[21.8688,32.9012,2.2337],[21.8621,32.9043,0.0],[21.8554,32.9032,1.7445],[21.851,32.906,0.0],[21.8376,32.9063,1.5748],[21.834,32.9096,0.0],[21.8137,32.911,0.9176],[21.8076,32.9121,0.0],[21.806,32.9138,0.0],[21.8013,32.9129,1.4839],[21.7996,32.9138,0.6653],[21.8004,32.9168,0.5675],[21.7943,32.9162,2.3582],[21.7857,32.9182,5.5446],[21.7854,32.9196,0.3816],[21.7801,32.9193,4.0018],[21.7776,32.9229,0.0],[21.7729,32.9229,2.0824],[21.7718,32.9254,8.8813],[21.7671,32.9276,0.0],[21.7632,32.9268,11.6055],[21.7618,32.9285,0.949],[21.7557,32.9287,11.5845],[21.7474,32.9326,0.0],[21.7165,32.941,0.0],[21.7043,32.9401,4.7953],[21.6943,32.9379,1.1161],[21.6901,32.9343,5.3177],[21.6707,32.9315,0.9503],[21.6679,32.9299,4.3809],[21.6446,32.9293,0.0],[21.6346,32.924,0.2217],[21.6343,32.9226,7.9924],[21.6313,32.924,11.6017],[21.6324,32.9268,0.0],[21.6282,32.9265,3.2376],[21.6254,32.9193,0.2394],[21.621,32.9174,2.5768],[21.621,32.9201,0.1109],[21.6199,32.9201,0.1109],[21.6168,32.9179,0.6746],[21.6132,32.9104,7.4561],[21.6118,32.9113,0.0],[21.6063,32.9079,2.8942],[21.6071,32.9051,10.9164],[21.6046,32.9046,3.0555],[21.6054,32.9065,2.5788],[21.6043,32.9074,0.8466],[21.6007,32.9074,0.0],[21.596,32.9049,0.0],[21.5954,32.9004,2.1745],[21.5915,32.9018,3.342],[21.589,32.8993,3.8196],[21.5893,32.8954,5.8977],[21.5871,32.896,0.0],[21.5779,32.891,0.0],[21.5701,32.8835,0.9351],[21.5701,32.8801,6.6006],[21.5679,32.8826,0.0],[21.5626,32.879,0.9445],[21.5624,32.8774,3.3625],[21.5651,32.8785,0.9264],[21.566,32.8768,1.5688],[21.5624,32.8729,18.2113],[21.5574,32.8713,0.0],[21.5532,32.8676,0.4559],[21.5493,32.8693,0.0],[21.5465,32.8685,1.4046],[21.5418,32.8624,2.4773],[21.534,32.859,0.0],[21.5254,32.8504,4.0601],[21.5104,32.8401,0.2531],[21.5082,32.8329,1.3872],[21.506,32.8335,2.4242],[21.5065,32.8374,0.0],[21.5026,32.8323,0.2498],[21.4993,32.8338,0.0],[21.5004,32.8318,1.7833],[21.4979,32.8279,1.027],[21.4954,32.831,0.0],[21.4926,32.8285,2.8283],[21.4938,32.826,0.219],[21.4843,32.819,0.6944],[21.4801,32.8182,0.4623],[21.4776,32.8201,1.6792],[21.4615,32.8104,5.0365],[21.4538,32.8076,0.0],[21.4524,32.8021,0.7233],[21.4513,32.8037,0.7233],[21.4476,32.8024,1.9241],[21.4488,32.8049,0.0],[21.4438,32.8032,1.2887],[21.4393,32.7974,1.313],[21.4296,32.7951,4.5993],[21.4285,32.7965,0.245],[21.4265,32.7951,3.9735],[21.4235,32.796,0.0],[21.4218,32.7946,0.0],[21.4226,32.7932,1.9398],[21.4149,32.7912,0.0],[21.4082,32.7874,0.0],[21.3612,32.7762,0.224],[21.3877,32.752,107.1219],[21.4102,32.7253,200.9415],[21.4259,32.6994,379.8769],[21.4346,32.6754,365.2971],[21.437,32.6524,325.3427],[21.4358,32.6222,419.1826],[21.4313,32.5851,496.1519],[21.4213,32.5275,490.8656],[21.421,32.5134,500.0307],[21.4238,32.497,501.7915],[21.4304,32.4769,486.5895],[21.4401,32.4555,508.0111],[21.454,32.4308,527.9037],[21.4581,32.4188,520.7688],[21.4597,32.3965,490.4602],[21.4554,32.3442,440.4964],[21.4589,32.3259,444.546],[21.4664,32.3055,424.8557],[21.4776,32.2829,383.3733],[21.4903,32.262,376.2079],[21.5449,32.1932,281.3781],[21.6165,32.106,289.3112],[21.6609,32.0642,197.1795],[21.6925,32.0275,170.2469],[21.7016,32.0133,163.165],[21.7068,32.0015,160.3293],[21.7174,31.9597,162.3826],[21.7245,31.9126,143.7934],[21.7296,31.8574,163.7915],[21.7317,31.8061,151.8478],[21.7298,31.7792,164.3964],[21.7202,31.7187,158.3523],[21.7058,31.6538,154.0148],[21.6949,31.6166,151.7518],[21.6803,31.5839,149.1477],[21.673,31.558,142.2482],[21.6662,31.5168,142.8332],[21.662,31.4684,145.8269],[21.6627,31.3961,145.2861],[21.6748,31.1246,121.285],[21.7039,31.1288,118.9502],[21.8847,31.1626,121.7687],[21.9495,31.1699,123.0099],[22.0122,31.1734,119.0238],[22.0665,31.1813,121.2444],[22.0171,31.328,141.6383],[21.9927,31.4068,131.0314],[21.9878,31.4413,143.2413],[21.9857,31.4902,148.8694],[21.9882,31.531,146.5311],[21.9978,31.5788,151.1781],[22.0153,31.6823,148.2533],[22.0656,32.0058,152.9456],[22.0839,32.1401,183.9084],[22.092,32.2207,247.1982],[22.0922,32.246,286.2432],[22.0895,32.3009,365.5976],[22.0717,32.5634,621.678],[22.0766,32.6389,685.6808],[22.0904,32.7106,699.8088],[22.0953,32.7543,667.1699],[22.0684,32.9007,126.2841]]]]}}