{"type":"Feature","properties":{"ISO3166-1-Alpha-3":"LBY","country":"Libya","fill":"#F0F","id":"2982","name":"Al Jabal al Akhdar"},
"geometry":{"type": "Polygon","coordinates": [[[21.9862,32.9131,0.0],[21.87745,32.90323,0.0],[21.83611,32.90656,1.5748],[21.78745,32.91596,10.5981],[21.74366,32.93085,15.0587],[21.71632,32.95038,0.0],[21.67172,32.93989,0.0],[21.62322,32.93675,0.0],[21.60865,32.93073,0.0],[21.4546,32.81257,0.0],[21.41481,32.7934,0.0],[21.35704,32.78034,0.0],[21.35707,32.78027,0.0],[21.35924,32.77578,0.0],[21.36772,32.77513,10.6547],[21.37619,32.77906,0.0],[21.3857,32.77981,1.7479],[21.38736,32.78056,0.8375],[21.39459,32.76808,71.5116],[21.45805,32.6979,414.4365],[21.46156,32.63346,460.958],[21.38839,32.57047,493.4862],[21.33186,32.51171,463.9597],[21.33485,32.42882,442.8868],[21.36441,32.32697,359.7283],[21.42684,32.22904,299.013],[21.46198,32.13163,276.8196],[21.52544,32.07045,252.5239],[21.6321,31.99916,167.8088],[21.66176,31.90632,162.4429],[21.66827,31.77238,164.6418],[21.65959,31.67561,158.3827],[21.61876,31.58872,156.2229],[21.61494,31.4733,148.1296],[21.65442,31.35232,138.5529],[21.68005,31.30556,137.7631],[21.71178,31.28179,134.6566],[21.71716,31.06562,109.7995],[21.79281,31.09301,116.4017],[21.97161,31.10743,120.9473],[22.11248,31.11988,113.2306],[21.91776,31.28202,137.4062],[21.94846,31.38767,144.5976],[21.96737,31.46121,151.0513],[21.96758,31.62288,147.0003],[21.99125,31.67776,147.1176],[22.00055,31.78834,132.9636],[21.99869,31.88991,131.6841],[22.00437,32.05122,159.7288],[21.9804,32.14393,198.5042],[21.97812,32.23152,263.7484],[21.95931,32.31947,365.3574],[21.97688,32.35131,396.4487],[21.99042,32.42469,523.9316],[22.02029,32.49768,610.0752],[22.03321,32.55261,656.9213],[22.02494,32.62641,728.2204],[21.99404,32.68227,772.9598],[21.96934,32.7564,684.3811],[21.97771,32.83893,439.9232],[21.97998,32.90114,3.149],[21.98091,32.9012,3.149],[21.98618,32.91306,0.0],[21.9862,32.9131,0.0]]]}}