{"type":"Feature","properties":{"GID_1":"LBY.20_1","GID_0":"LBY","country":"Libya","province":"Tripoli","VARNAME_1":"Tripoli|Shab'iyaẗṬarābulus","NL_NAME_1":"شعبيةطرابلس‎","TYPE_1":"Shabiyah","ENGTYPE_1":"District","CC_1":"NA","HASC_1":"LY.TR","ISO_1":"NA","name":"Tripoli.province"},
"geometry":{"type": "MultiPolygon","coordinates": [[[[13.2111,32.3391,217.576],[13.3698,32.4188,232.2593],[13.4087,32.4416,284.844],[13.4239,32.4527,332.8489],[13.4343,32.464,307.2058],[13.4405,32.4762,246.7452],[13.4427,32.4882,275.1738],[13.4421,32.5201,415.0981],[13.4439,32.5365,208.0914],[13.4492,32.5494,214.9477],[13.4585,32.5579,310.0556],[13.4767,32.5634,261.6403],[13.535,32.5662,238.8995],[13.5931,32.573,325.5767],[13.629,32.5801,293.4778],[13.6477,32.5874,318.0803],[13.6754,32.6121,176.9666],[13.7468,32.6825,121.8192],[13.8254,32.7778,17.28],[13.8289,32.791,0.0],[13.8088,32.7954,7.7295],[13.806,32.7971,5.6345],[13.8065,32.7988,0.0],[13.8046,32.7993,0.0],[13.8038,32.8026,0.0],[13.8015,32.8026,0.0],[13.8007,32.8007,8.5928],[13.796,32.8015,0.8453],[13.7888,32.7993,4.5163],[13.774,32.8004,1.735],[13.7685,32.7982,7.1886],[13.7529,32.7988,0.0],[13.7501,32.7971,0.0],[13.7499,32.794,3.7228],[13.7482,32.7949,1.2551],[13.7443,32.7924,0.3054],[13.7357,32.7915,2.9998],[13.7315,32.7921,0.0],[13.7307,32.7957,0.0],[13.7187,32.7962,0.0],[13.7051,32.7954,0.0],[13.7043,32.7943,0.0],[13.706,32.7926,4.4467],[13.7043,32.7915,1.6312],[13.6668,32.7924,0.0],[13.6585,32.7899,4.3988],[13.6304,32.7896,8.1128],[13.6243,32.7915,0.0],[13.6201,32.7904,19.3714],[13.6124,32.7921,0.0],[13.6026,32.7918,10.1585],[13.6001,32.7932,0.0],[13.5976,32.791,1.7596],[13.5957,32.7954,10.4206],[13.5821,32.7974,8.9138],[13.5749,32.8024,0.0],[13.5699,32.8026,7.0999],[13.5699,32.8046,0.0],[13.5604,32.8076,3.4658],[13.5501,32.8138,0.0],[13.5413,32.816,0.0],[13.5351,32.8204,3.7318],[13.5121,32.8271,6.4761],[13.5026,32.8326,1.4082],[13.4968,32.834,0.0],[13.4893,32.8376,8.8456],[13.4865,32.8418,0.0],[13.4771,32.8468,4.5225],[13.4565,32.8507,4.9304],[13.4565,32.8521,0.0],[13.4496,32.8532,4.9403],[13.4393,32.8579,2.5296],[13.4329,32.8632,0.0],[13.4176,32.8682,1.2258],[13.401,32.8821,0.9639],[13.3949,32.8899,0.0],[13.394,32.8937,0.8052],[13.3893,32.8971,0.0],[13.3743,32.8976,0.0],[13.3532,32.896,0.0],[13.3254,32.8974,0.1886],[13.319,32.8988,0.0],[13.3154,32.9012,0.0],[13.3015,32.904,0.0],[13.2982,32.9076,0.0],[13.2901,32.9093,0.3025],[13.2896,32.911,0.0],[13.2796,32.909,1.4786],[13.2774,32.911,0.0],[13.276,32.909,1.5152],[13.2693,32.9082,9.081],[13.2679,32.9107,0.0],[13.2654,32.909,1.3433],[13.2501,32.9093,0.9068],[13.2362,32.9113,0.0],[13.236,32.9132,0.0],[13.2346,32.9132,0.0],[13.2326,32.9118,0.0],[13.2326,32.909,0.5114],[13.2232,32.9071,0.0],[13.2165,32.9165,0.0],[13.2157,32.9154,0.0],[13.219,32.9113,0.0],[13.2168,32.9099,0.0],[13.2188,32.9065,0.0],[13.2163,32.9057,0.0],[13.2151,32.9018,4.5911],[13.2079,32.9012,1.0632],[13.2051,32.899,2.8228],[13.1999,32.9012,1.0018],[13.1999,32.9032,0.0],[13.1976,32.904,0.0],[13.2007,32.8979,3.3784],[13.1957,32.8988,0.0],[13.1954,32.8949,12.9178],[13.1929,32.894,4.4618],[13.1912,32.8951,4.4618],[13.1871,32.8943,3.9948],[13.1785,32.901,0.896],[13.1801,32.9015,0.0],[13.1821,32.9007,0.0],[13.1818,32.9026,0.0],[13.1843,32.9057,0.8134],[13.1904,32.9026,0.0],[13.1918,32.9043,0.0],[13.1888,32.9068,0.9114],[13.1943,32.9057,1.128],[13.1943,32.9087,0.5597],[13.1968,32.9071,0.0],[13.1951,32.9107,1.8854],[13.1976,32.9132,0.0],[13.2118,32.9201,0.0],[13.2165,32.919,0.0],[13.2129,32.9215,0.0],[13.1696,32.9012,0.0],[13.1688,32.8971,0.0],[13.1646,32.8974,0.0],[13.1618,32.8913,0.0],[13.1624,32.8887,2.5929],[13.1601,32.886,0.0],[13.1501,32.8812,0.8424],[13.1412,32.8801,9.7905],[13.1368,32.8832,0.0],[13.1329,32.8787,1.6314],[13.1265,32.8776,0.0],[13.1235,32.8754,13.537],[13.121,32.8754,7.821],[13.121,32.8785,-0.048],[13.1151,32.8782,0.0989],[13.1135,32.8751,2.3634],[13.106,32.8707,0.0],[13.0918,32.8671,0.0],[13.089,32.864,0.0],[13.0899,32.8624,2.3708],[13.0846,32.864,0.0],[13.0804,32.8621,0.0],[13.0738,32.8621,0.0],[13.0732,32.8593,0.0],[13.0674,32.859,0.0],[13.0657,32.8568,9.6798],[13.0538,32.8549,0.0009],[13.0513,32.8518,2.4292],[13.0449,32.8507,1.2246],[13.0429,32.8521,0.0],[13.0374,32.8499,1.476],[13.052,32.8458,23.6288],[13.0856,32.7671,46.0312],[13.1058,32.7149,59.4448],[13.1102,32.6994,66.6231],[13.115,32.655,77.9641],[13.1301,32.5567,110.8243],[13.1759,32.4244,164.6332],[13.2111,32.3391,217.576]]]]}}