{"type":"Feature","properties":{"ISO3166-1-Alpha-3":"LBY","country":"Libya","fill":"#FF0","id":"2969","name":"Murzuq"},
"geometry":{"type": "Polygon","coordinates": [[[17.40982,26.05229,536.5394],[17.26337,26.10094,568.5359],[17.09253,26.13468,581.9465],[16.9405,26.16342,521.6756],[16.88303,26.23408,521.1724],[16.80397,26.28504,519.7841],[16.72759,26.3262,493.0047],[16.62072,26.42578,471.8381],[16.56801,26.52815,495.9349],[16.57514,26.63093,508.6851],[16.51995,26.70147,514.4644],[16.4596,26.73279,492.5291],[16.37195,26.77366,491.3663],[16.32265,26.79281,485.4312],[16.27842,26.84622,526.0786],[16.26912,26.92926,531.9014],[16.27087,27.00267,596.8912],[16.27966,27.07517,598.4022],[15.76103,26.94792,469.4438],[15.65603,26.92807,462.5709],[15.4671,26.89779,468.2082],[15.27796,26.87671,469.7933],[15.09978,26.83686,473.884],[14.974,26.80694,473.9801],[14.82755,26.7579,466.2458],[14.74466,26.68163,467.1904],[14.6412,26.58623,466.3076],[14.53796,26.48138,460.3533],[14.42437,26.37627,457.6678],[14.24743,26.30739,470.9764],[14.13302,26.2677,464.7236],[13.93448,26.24501,451.4895],[13.93437,26.24687,451.6725],[13.66927,26.1597,464.619],[13.4819,26.11799,475.8684],[13.41007,26.06001,473.1168],[13.30826,25.94498,499.8028],[13.20543,25.87677,517.1324],[12.96554,25.86139,563.9454],[12.79987,25.8101,607.5927],[12.70675,25.77943,731.1255],[12.62489,25.72086,674.0787],[12.50004,25.70797,676.0045],[12.36362,25.73225,680.5364],[12.26171,25.65412,712.238],[12.15991,25.57591,731.0668],[12.0456,25.56304,768.1951],[11.85843,25.54779,847.9429],[11.7742,25.57327,879.452],[11.59405,25.65197,940.3005],[11.39954,25.55144,1116.7793],[11.33257,25.38933,724.9518],[11.34001,25.19211,721.0657],[11.33732,24.98509,1167.6405],[11.33402,24.79678,713.7905],[11.45546,24.5939,858.098],[11.48098,24.463,1103.1614],[11.46724,24.32634,1128.892],[11.50863,24.31381,1148.1886],[11.54139,24.29751,1068.3568],[11.56713,24.26684,1065.5809],[11.63648,24.13765,1064.2531],[11.70862,24.00298,1070.135],[11.71014,24.00014,1066.3179],[11.82231,23.79064,1020.5225],[11.89238,23.66006,1028.7842],[11.96886,23.51735,1027.6699],[12.05702,23.49761,982.8726],[12.14528,23.47795,930.4163],[12.23365,23.45829,891.0033],[12.32181,23.43862,824.1763],[12.40997,23.41888,807.1493],[12.49834,23.39924,806.0165],[12.5865,23.37958,799.6874],[12.67466,23.35989,772.7042],[12.76302,23.34018,750.3287],[12.85118,23.32049,749.1658],[12.93945,23.30083,722.4874],[13.02761,23.28114,708.0018],[13.11587,23.26145,697.0852],[13.20413,23.24171,680.8708],[13.2924,23.2221,656.0156],[13.38066,23.20238,669.8718],[13.48226,23.17967,690.9634],[13.59956,23.11903,732.9897],[13.65579,23.07262,753.0867],[13.78089,22.96963,718.3107],[13.90606,22.86662,722.686],[14.03101,22.7637,660.8706],[14.15617,22.66074,683.8319],[14.20164,22.62322,851.5447],[14.21622,22.6163,677.6827],[14.23172,22.61795,674.6064],[14.29487,22.64983,689.495],[14.46602,22.73618,603.3484],[14.63707,22.82254,575.6472],[14.80802,22.90889,637.5418],[14.97917,22.99532,733.9453],[14.97927,22.99537,733.9453],[14.97991,22.99566,739.4774],[14.99746,23.00382,758.8849],[15.05524,23.02996,876.034],[15.11291,23.05611,875.0651],[15.17037,23.08226,919.291],[15.22814,23.10836,1011.6327],[15.28582,23.13445,943.4989],[15.34349,23.16058,936.1169],[15.40116,23.18675,850.4581],[15.45883,23.2129,793.9508],[15.5165,23.23905,763.3486],[15.57427,23.2652,733.2294],[15.63194,23.29134,724.6544],[15.68962,23.31752,711.325],[15.74718,23.34364,691.4508],[15.80485,23.36979,649.0634],[15.86252,23.39594,637.1038],[15.9202,23.42203,629.8366],[15.96464,23.44221,618.9988],[15.9851,23.44472,618.5377],[16.07616,23.39963,618.6609],[16.19977,23.33871,627.0479],[16.32317,23.27773,640.6088],[16.44678,23.21672,614.3079],[16.57029,23.15572,618.8847],[16.69379,23.09466,605.2134],[16.8173,23.03366,599.0338],[16.94091,22.97273,616.9612],[17.06431,22.91176,645.3688],[17.18792,22.85075,657.0046],[17.31143,22.7898,656.8169],[17.43483,22.72879,633.2355],[17.55844,22.66776,624.2804],[17.68195,22.60679,625.7587],[17.80546,22.54576,677.9983],[17.92896,22.48478,698.9805],[18.05247,22.42385,782.4955],[18.17598,22.36282,738.9727],[18.29959,22.30184,771.9866],[18.42299,22.24087,900.6599],[18.5466,22.17984,779.3549],[18.67011,22.11881,1036.1914],[18.79361,22.05788,1368.6748],[18.91712,21.99685,1682.1099],[19.04073,21.93587,1588.4319],[19.16413,21.87489,1353.2936],[19.18584,21.86418,1297.4524],[19.18584,21.94249,1811.8518],[19.18584,21.95303,1823.9358],[19.18584,21.96354,1835.7899],[19.18573,21.97406,1895.5697],[19.18573,21.9846,1926.0554],[19.18573,21.99512,2007.2126],[19.18563,22.00563,2139.9436],[19.18563,22.01618,2084.4116],[19.18563,22.02669,2132.4766],[19.18346,22.52385,1433.051],[19.18119,23.02097,829.036],[19.17902,23.5181,626.9138],[19.17685,24.01523,598.5567],[19.17467,24.51235,445.4646],[19.1725,25.00948,409.1801],[19.17033,25.50661,345.6984],[19.16806,26.00376,300.0167],[19.126,26.02229,297.8216],[19.02078,26.05515,300.6928],[18.8856,26.0858,295.2675],[18.72881,26.11401,314.7052],[18.61512,26.13931,320.5841],[18.51497,26.14977,317.222],[18.41245,26.23354,274.9316],[18.32057,26.32943,290.9826],[18.20409,26.37645,330.7233],[18.0628,26.34516,349.8027],[17.95418,26.29411,371.2919],[17.90809,26.24284,370.2657],[17.77796,26.15747,383.5591],[17.69663,26.13554,410.6216],[17.56661,26.1258,459.2131],[17.49364,26.08417,530.0005],[17.40982,26.05229,536.5394]]]}}