{"type":"Feature","properties":{"GID_1":"LBY.16_1","GID_0":"LBY","country":"Libya","province":"Murzuq","VARNAME_1":"NA","NL_NAME_1":"مرزق‎","TYPE_1":"Shabiyah","ENGTYPE_1":"District","CC_1":"NA","HASC_1":"LY.MU","ISO_1":"NA","name":"Murzuq.province"},
"geometry":{"type": "MultiPolygon","coordinates": [[[[11.9796,23.525,1007.4957],[12.0,23.5152,1016.6737],[12.0787,23.4991,958.5763],[12.1096,23.4902,952.9432],[12.1219,23.4895,944.8838],[12.153,23.4811,931.8983],[12.1585,23.4815,924.2454],[12.2307,23.4668,893.2637],[12.3771,23.435,802.458],[12.3848,23.435,809.0198],[12.4348,23.4221,799.0433],[12.576,23.3938,791.3188],[12.5844,23.3904,801.5746],[12.6144,23.3853,786.84],[12.6227,23.3819,785.4804],[12.7286,23.3598,755.775],[12.7451,23.3577,752.115],[12.7664,23.3519,748.5004],[12.7695,23.3484,747.8185],[12.7897,23.3471,744.9998],[13.0069,23.3,710.5094],[13.0187,23.2987,708.1427],[13.0295,23.2949,706.5202],[13.1881,23.2607,689.8155],[13.199,23.2603,684.2477],[13.2228,23.2536,670.1964],[13.2415,23.2515,663.3057],[13.3103,23.2343,656.7222],[13.375,23.2218,661.6303],[13.3833,23.2178,661.9576],[13.398,23.2175,661.77],[13.4078,23.2134,662.3052],[13.4116,23.2101,663.1464],[13.4806,23.1861,684.0161],[13.54,23.158,668.6127],[13.5447,23.157,669.1982],[13.6318,23.1055,733.0645],[13.6804,23.0722,739.8372],[13.6937,23.0597,759.3411],[13.7434,23.0189,754.588],[13.7488,23.0126,745.7786],[13.7764,22.9922,724.6467],[13.8796,22.9049,735.1487],[13.9174,22.8727,713.2822],[13.9222,22.8669,713.1439],[13.9399,22.854,713.7362],[14.0017,22.8012,690.7058],[14.0265,22.7825,658.7447],[14.0609,22.7516,649.6357],[14.1272,22.6961,745.9646],[14.1334,22.6928,780.73],[14.1463,22.6819,695.6143],[14.1517,22.6756,698.7938],[14.1615,22.6707,684.4111],[14.1757,22.6554,736.4045],[14.1893,22.6445,824.7534],[14.3771,22.7273,658.1606],[14.382,22.7308,667.3121],[14.4114,22.7433,666.9407],[14.4155,22.7468,654.5623],[14.4511,22.7597,611.5966],[14.5175,22.7904,610.4463],[14.5209,22.7934,615.0335],[14.6055,22.828,569.0623],[14.6124,22.8325,569.7351],[14.6857,22.866,603.5338],[14.6987,22.8706,598.0956],[14.7033,22.8741,600.145],[14.8119,22.9208,634.671],[14.8614,22.9441,701.2203],[14.8659,22.9444,721.9513],[14.8777,22.9497,705.1299],[14.8826,22.9498,702.5237],[14.8976,22.9565,710.6833],[14.9015,22.9606,704.8051],[14.9612,22.9866,734.8096],[14.9725,22.993,735.1892],[14.9959,23.0019,755.8972],[15.0012,23.0061,761.2839],[15.0087,23.0079,773.8424],[15.0866,23.043,913.6546],[15.09,23.0461,922.373],[15.1156,23.0561,882.1747],[15.1197,23.0596,894.1534],[15.1421,23.0698,942.7806],[15.151,23.0725,950.4203],[15.2442,23.1161,975.285],[15.2521,23.1183,959.5459],[15.3609,23.169,904.5859],[15.3735,23.1735,871.5976],[15.4008,23.1872,850.2308],[15.4382,23.2029,814.6094],[15.4414,23.2061,808.9119],[15.4951,23.2296,775.0332],[15.506,23.2327,770.2597],[15.5427,23.2509,747.3887],[15.6453,23.2956,725.5443],[15.6537,23.3012,722.8577],[15.6648,23.3034,717.1566],[15.689,23.3151,712.7611],[15.6961,23.3166,708.4363],[15.7282,23.3303,709.3251],[15.8566,23.388,637.5104],[15.8612,23.3933,636.973],[15.8808,23.3986,635.8782],[15.9497,23.4299,626.558],[15.9673,23.4372,620.6244],[15.9715,23.4375,621.7481],[15.9809,23.4438,618.9261],[15.9858,23.4445,619.637],[15.9982,23.4504,623.5682],[16.1721,23.3704,631.1048],[16.2264,23.3464,650.388],[16.2331,23.3451,658.8173],[16.2633,23.328,677.2867],[16.2988,23.3141,649.4618],[16.3137,23.306,638.1791],[16.3784,23.278199999999998,614.8888],[16.3941,23.2694,613.3925],[16.4495,23.2449,608.5034],[16.4567,23.2401,608.4667],[16.547,23.1987,599.4138],[16.56,23.1915,599.3462],[16.5667,23.1901,600.2214],[16.5789,23.184,611.3625],[16.5802,23.1813,613.2102],[16.6026,23.1732,611.4774],[16.7174,23.1193,602.4745],[16.7219,23.1184,601.3087],[16.7386,23.1094,598.7029],[16.8155,23.0753,595.0824],[16.8272,23.068,595.8437],[16.8302,23.068,595.8619],[16.8471,23.0585,596.1187],[16.9384,23.0155,603.7499],[16.9715,23.0003,613.3795],[16.9819,22.9972,619.8492],[17.0096,22.9804,636.6263],[17.0334,22.9713,642.412],[17.0953,22.9407,627.9109],[17.2284,22.8803,643.2573],[17.2366,22.8746,639.9752],[17.2689,22.8587,633.1636],[17.3664,22.8141,631.2274],[17.3701,22.8107,633.1798],[17.3996,22.7982,634.8643],[17.5573,22.7225,612.2905],[17.7356,22.6394,613.761],[17.7391,22.6362,615.0994],[17.9896,22.5176,758.3573],[18.0877,22.469,707.5667],[18.1168,22.4572,799.0905],[18.219,22.4081,774.9672],[18.2264,22.4067,685.3886],[18.2439,22.3959,721.4943],[18.3946,22.3245,823.4741],[18.402,22.3229,847.3822],[18.423,22.3114,861.364],[18.5075,22.2712,736.8047],[18.5134,22.2696,746.3583],[18.586,22.2331,782.6086],[18.6707,22.1941,976.6994],[18.6872,22.1841,1046.6362],[18.7261,22.1677,1123.5488],[19.0109,22.0281,1696.6396],[19.0087,26.1055,286.2597],[18.9653,26.105,299.5595],[18.8674,26.1102,289.124],[18.5181,26.1368,320.5588],[18.3506,26.1648,310.393],[18.2563,26.1786,312.8176],[18.1478,26.1867,347.143],[18.018,26.1915,356.9209],[17.9738,26.1889,355.1556],[17.933,26.1833,366.8399],[17.8916,26.1739,370.7498],[17.8519,26.1611,384.55],[17.8116,26.1442,383.772],[17.7703,26.1229,390.709],[17.6514,26.0483,434.9202],[17.629,26.0361,440.8239],[17.6067,26.0272,448.899],[17.5823,26.0199,462.5341],[17.5229,26.0094,491.2177],[17.4632,26.005,505.2018],[17.3887,26.0046,517.9222],[17.3085,26.0078,530.3303],[17.1688,26.0167,560.34],[17.1232,26.0231,608.9127],[17.0703,26.0337,561.78],[17.0109,26.0484,550.0295],[16.9462,26.0671,541.2599],[16.8044,26.1147,533.713],[16.6636,26.1699,508.3436],[16.6447,26.1794,506.861],[16.6266,26.1911,500.9344],[16.6087,26.2051,500.2922],[16.5899,26.2228,504.8191],[16.5666,26.249,505.145],[16.545,26.2781,493.0882],[16.5243,26.3109,486.0248],[16.5057,26.3455,482.1142],[16.487,26.387,474.4931],[16.4723,26.4273,460.4911],[16.464,26.459,454.4506],[16.4603,26.4892,454.4352],[16.455,26.5063,454.9117],[16.44,26.5367,466.6555],[16.4169,26.5721,482.1176],[16.3931,26.6027,483.9537],[16.3681,26.6307,483.6177],[16.3462,26.6522,486.7489],[16.2993,26.6939,488.3215],[16.2298,26.7681,501.8109],[16.1213,26.8916,519.2759],[16.0123,27.0206,532.0577],[15.9734,27.006,522.784],[15.9419,26.9859,500.4296],[15.9163,26.9627,499.926],[15.8535,26.8972,477.0967],[15.8179,26.8672,469.6465],[15.7869,26.8496,465.6158],[15.7546,26.8395,459.139],[15.7255,26.8368,459.5837],[15.6559,26.8385,452.0955],[15.0006,26.8284,471.4316],[14.7663,26.7032,464.0514],[14.7162,26.6555,467.6126],[14.6029,26.5297,463.661],[14.5915,26.5206,461.0817],[14.5652,26.4945,460.5369],[14.3943,26.3711,464.4232],[14.3115,26.3307,465.6796],[14.266,26.3193,461.6683],[14.2105,26.3016,464.4182],[14.1381,26.2841,461.3328],[14.0153,26.2645,451.0869],[13.9239,26.2532,456.4319],[13.5163,26.0963,464.9091],[13.4831,26.079,465.8137],[13.4416,26.0512,467.9675],[13.3883,26.0104,487.2791],[13.2917,25.9309,497.8092],[13.2395,25.8959,505.4261],[13.1999,25.8732,512.6422],[13.1533,25.8504,515.5145],[13.105,25.8302,651.8229],[13.0541,25.8123,592.4338],[12.9848,25.793,639.7688],[12.9165,25.7798,621.5792],[12.8647,25.7739,562.0936],[12.7413,25.7671,650.4434],[12.6401,25.7572,640.1904],[12.5401,25.7421,669.3653],[12.4568,25.7234,677.7021],[12.4088,25.7079,678.4812],[12.374,25.6917,694.6803],[12.3614,25.6832,694.6019],[12.3286,25.6551,702.6727],[12.2968,25.631,709.9657],[12.2649,25.6099,713.5672],[12.2348,25.593,727.7787],[12.1869,25.5724,736.8595],[12.1641,25.5657,742.1113],[12.1416,25.5612,737.997],[12.1158,25.5591,738.0816],[12.0908,25.5606,749.974],[12.0111,25.5786,782.4871],[11.9369,25.5917,803.9348],[11.8483,25.6037,852.1351],[11.7633,25.6119,873.4058],[11.704,25.615,910.9279],[11.661,25.6143,935.6976],[11.6382,25.6111,947.9265],[11.6059,25.6007,962.2032],[11.5496,25.5778,983.4117],[11.4872,25.5487,1068.9618],[11.4301,25.519,1106.2314],[11.3929,25.496,1128.3514],[11.3849,25.1953,748.7778],[11.3893,25.1565,751.2632],[11.4013,25.0846,762.319],[11.4362,24.9029,1107.7421],[11.4794,24.6942,1025.6367],[11.5137,24.5809,1070.1227],[11.5952,24.3276,1065.611],[11.6231,24.2816,1003.9528],[11.6146,24.2451,1072.5906],[11.8774,23.746,1007.027],[11.9874,23.5321,1014.8057],[11.9811,23.5283,1006.9125],[11.9776,23.5288,1013.297],[11.9796,23.525,1007.4957]]]]}}