{"type": "Feature","bbox": [18.6954,27.0077,25.0001,31.2055],"geometry": {"type": "MultiPolygon","coordinates": [[[[19.8735,30.7601,0.0],[19.8716,30.7604,0.0],[19.8719,30.7579,0.0],[19.8758,30.7565,0.0],[19.8769,30.7579,0.0],[19.8735,30.7601,0.0]]],
[[[25.0001,27.6419,160.1412],[25.0,28.0267,132.5872],[23.0096,28.0322,127.5415],[23.0061,30.6054,101.394],[23.0062,30.8045,123.7571],[23.0107,30.9712,125.6271],[22.9223,31.0055,104.0271],[22.839,31.0198,118.2117],[22.8048,31.0392,119.9671],[22.754,31.0798,105.4193],[22.7334,31.094,106.2266],[22.7056,31.1105,120.7601],[22.6696,31.1278,145.2721],[22.6037,31.1329,140.9884],[22.5571,31.1426,142.7605],[22.4899,31.1671,141.0625],[22.1564,31.1769,109.9162],[22.0668,31.1758,119.0339],[22.0665,31.1813,121.2444],[22.0122,31.1734,119.0238],[21.9495,31.1699,123.0099],[21.8847,31.1626,121.7687],[21.7039,31.1288,118.9502],[21.408,31.0815,110.2213],[21.3332,31.0644,100.4995],[21.1094,31.0228,67.7399],[20.9732,30.9882,74.8469],[20.875,30.9836,46.1315],[20.8486,30.981,74.321],[20.8187,30.9734,76.9367],[20.72,30.9542,89.0298],[20.5328,31.0172,80.3054],[20.405,31.0548,48.5824],[20.3685,31.0788,35.8138],[20.354,31.1826,36.2188],[20.161,31.2055,2.8765],[20.1708,31.176,0.7759],[20.1752,31.151,2.0695],[20.1685,31.0924,0.6965],[20.1607,31.0565,0.0],[20.1521,31.0343,0.0],[20.1377,31.0065,0.0],[20.1252,30.9774,0.0],[20.1152,30.9595,0.0],[20.1069,30.9488,0.0],[20.1074,30.9454,1.6097],[20.0982,30.9379,0.0],[20.0885,30.914,0.0],[20.0785,30.9021,0.0],[20.0746,30.8999,0.2363],[20.0671,30.9018,0.0],[20.0666,30.8996,0.0],[20.0638,30.8979,0.0],[20.0652,30.8963,0.0],[20.0696,30.8999,0.0],[20.0752,30.8976,1.6199],[20.0746,30.8868,1.3448],[20.0724,30.8796,2.0279],[20.0544,30.8474,0.4247],[20.0294,30.8146,0.6569],[20.0008,30.7818,1.3112],[19.9977,30.7787,0.3872],[19.9952,30.7787,0.0],[19.9938,30.7751,0.6769],[19.9841,30.7693,0.0],[19.9749,30.7601,0.0],[19.9671,30.7426,0.0],[19.9438,30.7132,0.0],[19.9305,30.6924,0.6504],[19.9288,30.6924,0.0],[19.928,30.689,0.0],[19.9258,30.689,0.0],[19.921,30.6801,0.0],[19.9171,30.6782,0.0],[19.9113,30.669,0.0],[19.9091,30.669,0.0],[19.908,30.6649,0.5132],[19.8888,30.6463,0.0],[19.8885,30.6443,0.0],[19.863,30.6199,0.0],[19.8394,30.6013,0.0],[19.8344,30.5996,0.0],[19.8294,30.5924,0.0],[19.8202,30.5854,0.0],[19.8116,30.5743,0.2833],[19.8008,30.5632,2.7921],[19.7988,30.5632,0.0],[19.7988,30.5596,2.378],[19.793,30.5501,2.7204],[19.7913,30.5496,0.0],[19.7902,30.5451,0.0],[19.7877,30.5449,0.0],[19.7755,30.531,0.0],[19.7402,30.5057,0.4641],[19.7299,30.4993,0.3886],[19.7277,30.4993,0.0],[19.706,30.4807,0.746],[19.7002,30.4774,0.0],[19.6985,30.4751,0.0],[19.6994,30.4735,0.0],[19.6955,30.4721,0.0],[19.6944,30.4693,0.5013],[19.6846,30.4621,0.0],[19.6813,30.4626,0.0],[19.6799,30.4593,0.7909],[19.651,30.4426,0.0],[19.641,30.4399,0.0],[19.641,30.4385,0.9584],[19.6385,30.4387,0.0],[19.6358,30.4321,0.0],[19.6324,30.4279,1.1293],[19.6296,30.4271,0.0],[19.6288,30.4243,0.0],[19.6146,30.4151,0.5876],[19.6094,30.4151,0.0],[19.6066,30.4129,2.9345],[19.6027,30.4168,0.7435],[19.5955,30.4179,0.0],[19.5952,30.4168,0.0],[19.6019,30.416,0.7435],[19.601,30.4135,1.2135],[19.5983,30.411,0.0],[19.5916,30.4099,1.2575],[19.5871,30.4115,0.0],[19.583,30.4168,0.0],[19.5908,30.419,0.0],[19.5833,30.4182,0.0],[19.5791,30.4212,0.0],[19.5685,30.4185,0.0],[19.5674,30.4157,0.0],[19.5697,30.4157,0.0],[19.5671,30.4137,0.0],[19.5688,30.4132,0.4417],[19.5591,30.4107,0.2759],[19.5566,30.4135,0.0],[19.5494,30.4099,0.0],[19.5455,30.4076,0.0],[19.5471,30.4046,0.2917],[19.5294,30.3968,1.0427],[19.5286,30.3943,0.4242],[19.5221,30.3929,0.0],[19.5221,30.391,0.0],[19.5191,30.391,0.0],[19.5146,30.3865,0.7956],[19.5091,30.3854,0.0],[19.5099,30.3835,0.7475],[19.5052,30.3832,0.0],[19.5041,30.3804,1.1849],[19.4994,30.381,0.0],[19.4994,30.3779,0.9276],[19.4971,30.3796,0.0],[19.4913,30.3765,-0.0117],[19.4888,30.3729,0.0],[19.4716,30.3654,0.0],[19.4713,30.3635,0.0],[19.4674,30.3621,0.0],[19.4658,30.3596,0.4954],[19.4444,30.3507,0.0],[19.381,30.3176,0.8178],[19.336,30.3013,0.8624],[19.2727,30.2826,0.3255],[19.2452,30.2787,0.4117],[19.2208,30.2721,0.0],[19.1855,30.2671,0.0],[19.161,30.2671,0.0],[19.1496,30.2693,0.0],[19.1188,30.2699,0.3279],[19.1146,30.2732,0.0],[19.093,30.2693,0.0],[19.0544,30.2679,0.0],[19.053,30.2701,0.4405],[19.0349,30.2701,0.79],[19.0205,30.2715,0.8718],[19.0183,30.2729,0.0],[19.0071,30.2729,0.3462],[19.0055,30.2743,0.0],[18.9994,30.2735,2.7406],[18.9674,30.2799,3.524],[18.9421,30.2874,1.9759],[18.9338,30.2921,0.0],[18.931,30.2965,0.71],[18.924,30.2996,0.2972],[18.8993,30.1063,17.7373],[18.8773,29.9732,80.9411],[18.8718,29.9145,105.0531],[18.8705,29.8613,120.6139],[18.8731,29.8172,113.3085],[18.8792,29.7803,122.2025],[18.8856,29.7579,116.6009],[18.9018,29.7177,124.8737],[18.9135,29.6817,144.8706],[18.9245,29.6381,125.9087],[18.9329,29.5934,140.1661],[18.9382,29.5515,132.2215],[18.9409,29.5097,154.4338],[18.9408,29.4711,167.4693],[18.9378,29.4335,169.4851],[18.9305,29.3935,140.0867],[18.9192,29.3583,160.1377],[18.9065,29.3325,182.1058],[18.8823,29.2957,139.824],[18.8646,29.2655,192.7144],[18.8336,29.2025,88.1561],[18.8016,29.1207,71.5079],[18.7763,29.0354,80.3363],[18.7671,28.9928,77.6627],[18.7579,28.93,51.8845],[18.746,28.868,110.8587],[18.7023,28.6814,213.9437],[18.6975,28.602,220.9054],[18.6954,28.4512,186.9608],[19.0133,28.4128,151.2332],[19.0134,27.0175,283.0092],[25.0001,27.0077,208.5079],[25.0001,27.6419,160.1412]]],
[[[19.903,30.794,0.0],[19.9005,30.7926,0.0],[19.901,30.7885,0.0],[19.9049,30.7915,0.8483],[19.903,30.794,0.0]]],
[[[20.1783,31.2036,5.2981],[20.1786,31.2036,5.2981],[20.1792,31.2036,5.2981],[20.1779,31.2038,5.6317],[20.1783,31.2036,5.2981]]]]}
,"properties": {"GID_1": "LBY.9_1","GID_0": "LBY","country": "Libya","province": "AlWahat","VARNAME_1": "AlWahat|AlWahad|AlWahah|AlWā","NL_NAME_1": "لواحات","TYPE_1": "Shabiyah","ENGTYPE_1": "District","CC_1": "NA","HASC_1": "LY.AW","ISO_1": "LY-WA","name": "Al_Wahat.province","area_km2": 194416.77,"hist_schema_id": "Elevation0-9000","hist_area_km2": {"-50": 620.42,"-25": 2246.91,"0": 9283.07,"25": 16396.82,"50": 21009.72,"75": 19055.93,"100": 25809.89,"125": 23415.56,"150": 24781.19,"175": 20304.33,"200": 14689.02,"225": 10243.7,"250": 4724.46,"275": 1691.35,"300": 137.82,"325": 6.6}}}