{"type":"Feature","properties":{"ISO3166-1-Alpha-3":"LBY","country":"Libya","fill":"#00F","id":"2971","name":"Sabha"},
"geometry":{"type": "Polygon","coordinates": [[[15.79586,27.7212,530.5821],[15.56415,27.74115,465.5414],[15.41656,27.69268,453.7383],[15.35351,27.66384,384.383],[15.17399,27.64281,389.6974],[15.06847,27.63201,398.5494],[14.92129,27.5738,375.2079],[14.84905,27.46047,390.6741],[14.72337,27.39303,403.8837],[14.61878,27.33518,403.8081],[14.52483,27.27746,414.7294],[14.48359,27.22061,404.0399],[14.42117,27.17271,413.7276],[14.31606,27.16147,421.49],[13.98316,27.12891,430.9347],[14.02243,27.09039,427.0569],[14.04548,26.98781,452.4489],[14.03762,26.8565,468.3889],[14.08114,26.7824,494.0157],[14.13467,26.72721,496.6927],[14.14625,26.67119,492.4517],[14.08548,26.55753,470.2389],[13.972,26.46151,490.6235],[13.93231,26.34816,468.067],[13.93437,26.24687,451.6725],[13.93448,26.24501,451.4895],[14.13302,26.2677,464.7236],[14.24743,26.30739,470.9764],[14.42437,26.37627,457.6678],[14.53796,26.48138,460.3533],[14.6412,26.58623,466.3076],[14.74466,26.68163,467.1904],[14.82755,26.7579,466.2458],[14.974,26.80694,473.9801],[15.09978,26.83686,473.884],[15.27796,26.87671,469.7933],[15.4671,26.89779,468.2082],[15.65603,26.92807,462.5709],[15.76103,26.94792,469.4438],[16.27966,27.07517,598.4022],[16.28069,27.08346,597.7009],[16.25795,27.15173,596.8646],[16.19191,27.18532,591.1191],[16.12825,27.23849,584.5723],[16.0621,27.27206,577.1882],[16.02324,27.30588,545.4133],[15.99192,27.38378,537.1917],[15.96319,27.46659,552.8389],[15.8678,27.59506,546.655],[15.79483,27.69198,531.8336],[15.79586,27.7212,530.5821]]]}}