{"type":"Feature","properties":{"GID_1":"LBY.18_1","GID_0":"LBY","country":"Libya","province":"Sabha","VARNAME_1":"Sabhah|Sebha|Sabhā","NL_NAME_1":"سبها‎","TYPE_1":"Shabiyah","ENGTYPE_1":"District","CC_1":"NA","HASC_1":"LY.SA","ISO_1":"LY-SB","name":"Sabha.province"},
"geometry":{"type": "MultiPolygon","coordinates": [[[[16.013,27.019,533.0996],[16.0315,26.997,536.1085],[16.0473,26.9783,535.2758],[16.035,26.9929,536.608],[16.013,27.019,533.0996]]],
[[[15.9025,27.7263,543.7433],[15.7154,27.7562,510.2977],[15.5598,27.763,465.0548],[15.5112,27.7544,425.6902],[15.4887,27.7427,438.1404],[15.4033,27.672,451.3018],[15.376,27.6556,410.135],[15.3225,27.6407,442.3419],[15.1028,27.6166,381.9347],[15.0815,27.6088,375.7865],[14.863,27.4722,384.0759],[14.7103,27.409,398.019],[14.6771,27.3882,398.321],[14.6472,27.3672,398.1646],[14.4746,27.2246,406.047],[14.4343,27.1983,417.736],[14.3976,27.1881,409.6871],[14.371,27.1781,412.8776],[14.3299,27.1853,414.3691],[14.3048,27.1931,405.9431],[14.2674,27.1987,409.9354],[13.9924,27.1801,402.9975],[14.0102,27.1423,415.6682],[14.0294,27.1151,424.0699],[14.0462,27.0744,421.4715],[14.0495,27.0334,440.7469],[14.0448,26.932,462.0701],[14.0469,26.8993,445.2692],[14.0552,26.8538,469.2987],[14.07,26.8276,470.1583],[14.1025,26.7941,479.2305],[14.1376,26.7614,468.1909],[14.1668,26.72,489.0482],[14.1786,26.7076,495.0359],[14.1819,26.697,504.3706],[14.1746,26.6812,507.9888],[14.1443,26.6397,476.5703],[14.1114,26.6136,473.4768],[13.9237,26.2531,456.8197],[14.0153,26.2645,451.0869],[14.1381,26.2841,461.3328],[14.2105,26.3016,464.4182],[14.266,26.3193,461.6683],[14.3115,26.3307,465.6796],[14.3943,26.3711,464.4232],[14.5652,26.4945,460.5369],[14.5915,26.5206,461.0817],[14.6029,26.5297,463.661],[14.7162,26.6555,467.6126],[14.7663,26.7032,464.0514],[15.0006,26.8284,471.4316],[15.6482,26.8384,450.6386],[15.7333,26.837,460.3264],[15.7567,26.84,459.0462],[15.7793,26.8465,463.8863],[15.8012,26.8567,467.2429],[15.8225,26.8705,470.6902],[15.8555,26.8991,477.909],[15.9163,26.9627,499.926],[15.9416,26.9856,500.4296],[15.9574,26.9969,513.2004],[15.9734,27.006,522.784],[16.0123,27.0205,532.0577],[15.9621,27.1417,543.4508],[15.9442,27.1927,526.8693],[15.9433,27.2189,534.8857],[15.9465,27.2606,538.1987],[15.9538,27.3158,542.3781],[15.9631,27.3689,533.3115],[15.962,27.4181,529.3447],[15.9543,27.4775,554.9516],[15.9266,27.603,555.197],[15.9026,27.7263,543.7433],[15.9038,27.7283,543.9861],[15.9025,27.7263,543.7433]]]]}}