{"type": "Feature","bbox": [12.7167,32.204,13.2111,32.8501],"geometry": {"type": "MultiPolygon","coordinates": [[[[13.2111,32.3391,217.576],[13.1759,32.4244,164.6332],[13.1301,32.5567,110.8243],[13.115,32.655,77.9641],[13.1102,32.6994,66.6231],[13.1074,32.7099,62.5809],[13.0883,32.7605,44.6669],[13.052,32.8458,23.6288],[13.0339,32.8501,0.0],[13.0115,32.8385,1.3781],[12.9996,32.8369,0.0],[12.9903,32.8329,0.0],[12.9603,32.825,3.9925],[12.9324,32.7413,57.9745],[12.9122,32.6917,74.0428],[12.8881,32.551,113.5663],[12.8781,32.5106,113.4129],[12.8052,32.3782,137.1726],[12.7713,32.3265,149.1219],[12.7552,32.2982,157.629],[12.7291,32.2428,179.9322],[12.7171,32.2116,207.43],[12.7167,32.2046,216.4229],[12.7707,32.204,211.63],[12.8241,32.2099,220.8538],[12.9179,32.226,255.7815],[13.0531,32.2537,590.3634],[13.2111,32.3391,217.576]]]]}
,"properties": {"GID_1": "LBY.4_1","GID_0": "LBY","country": "Libya","province": "AlJifarah","VARNAME_1": "Jafara|AlJfara|AlJfara|Al`Azi","NL_NAME_1": "لجفارة","TYPE_1": "Shabiyah","ENGTYPE_1": "District","CC_1": "NA","HASC_1": "LY.JR","ISO_1": "NA","name": "Al_Jifarah.province","area_km2": 1714.825,"hist_schema_id": "Elevation0-9000","hist_area_km2": {"0": 2.191,"25": 51.25,"50": 110.09,"75": 186.051,"100": 273.259,"125": 223.402,"150": 260.541,"175": 255.905,"200": 164.476,"225": 76.049,"250": 40.298,"275": 19.217,"300": 10.81,"325": 6.507,"350": 5.091,"375": 3.406,"400": 2.617,"425": 2.169,"450": 1.936,"475": 2.51,"500": 2.725,"525": 2.42,"550": 1.811,"575": 3.353,"600": 5.199,"625": 1.147,"650": 0.394}}}