{"type": "Feature","id": "2973","bbox": [12.81961,32.2602,13.2508,32.72121],"geometry": {"type": "Polygon","coordinates": [[[13.23643,32.33374,227.2655],[13.18755,32.38981,183.8145],[13.19003,32.46003,147.4061],[13.1739,32.56675,108.1577],[13.16316,32.64922,83.7894],[13.07634,32.72121,59.0584],[13.07324,32.7157,61.8918],[12.96927,32.66896,82.4594],[12.92555,32.60251,95.6683],[12.89775,32.56021,106.2926],[12.82333,32.40699,134.5618],[12.82974,32.33694,155.5411],[12.81961,32.2602,180.6699],[12.96286,32.27738,249.9827],[13.0504,32.27948,499.7878],[13.15509,32.29302,302.511],[13.18961,32.31229,242.0749],[13.2508,32.31738,254.0636],[13.23643,32.33374,227.2655]]]}
,"properties": {"ISO3166-1-Alpha-3": "LBY","country": "Libya","fill": "#F0F","name": "Al Jifarah","area_km2": 1333.671,"hist_schema_id": "Elevation0-9000","hist_area_km2": {"50": 2.908,"75": 117.22,"100": 292.198,"125": 249.235,"150": 229.834,"175": 206.705,"200": 116.658,"225": 61.1,"250": 27.865,"275": 10.412,"300": 6.112,"325": 4.588,"350": 2.76,"375": 1.362,"400": 1.237,"425": 0.842,"450": 0.681,"475": 0.502,"500": 0.341,"525": 0.466,"550": 0.376,"575": 0.269}}}